{"type":"FeatureCollection","features":[{"type":"Feature","geometry":{"type":"Polygon","coordinates":[[[-70.518482,-33.491179],[-70.522786,-33.491126],[-70.522771,-33.490224],[-70.523847,-33.490211],[-70.523831,-33.48931],[-70.524907,-33.489296],[-70.524832,-33.485],[-70.516222,-33.485],[-70.516298,-33.489402],[-70.517374,-33.489389],[-70.51739,-33.49029],[-70.518466,-33.490277],[-70.518482,-33.491179]]]},"properties":{"gridcode":3,"recurrencia":"Media"}},{"type":"Feature","geometry":{"type":"Polygon","coordinates":[[[-70.517453,-33.493897],[-70.52391,-33.493818],[-70.523894,-33.492916],[-70.526046,-33.49289],[-70.52603,-33.491988],[-70.527107,-33.491975],[-70.527075,-33.490172],[-70.528151,-33.490158],[-70.52806,-33.485],[-70.512993,-33.485],[-70.513086,-33.490343],[-70.514162,-33.49033],[-70.514177,-33.491232],[-70.515254,-33.491218],[-70.515285,-33.493022],[-70.517437,-33.492995],[-70.517453,-33.493897]],[[-70.518482,-33.491179],[-70.518466,-33.490277],[-70.51739,-33.49029],[-70.517374,-33.489389],[-70.516298,-33.489402],[-70.516222,-33.485],[-70.524832,-33.485],[-70.524907,-33.489296],[-70.523831,-33.48931],[-70.523847,-33.490211],[-70.522771,-33.490224],[-70.522786,-33.491126],[-70.518482,-33.491179]]]},"properties":{"gridcode":2,"recurrencia":"Baja"}},{"type":"Feature","geometry":{"type":"Polygon","coordinates":[[[-70.570313,-33.500453],[-70.576771,-33.500371],[-70.576754,-33.499469],[-70.578907,-33.499442],[-70.57889,-33.49854],[-70.579966,-33.498527],[-70.57995,-33.497625],[-70.581026,-33.497611],[-70.58101,-33.49671],[-70.583162,-33.496682],[-70.583178,-33.497584],[-70.584255,-33.49757],[-70.584271,-33.498472],[-70.585347,-33.498458],[-70.585364,-33.499359],[-70.587516,-33.499332],[-70.587532,-33.500234],[-70.593989,-33.500151],[-70.593973,-33.499249],[-70.596125,-33.499221],[-70.596109,-33.49832],[-70.598261,-33.498292],[-70.598244,-33.49739],[-70.599321,-33.497376],[-70.599304,-33.496475],[-70.60038,-33.496461],[-70.600347,-33.494658],[-70.601423,-33.494644],[-70.60129,-33.487431],[-70.600214,-33.487445],[-70.600181,-33.485642],[-70.599105,-33.485655],[-70.599093,-33.485],[-70.58295,-33.485],[-70.582965,-33.485863],[-70.580813,-33.48589],[-70.580797,-33.485],[-70.579887,-33.485],[-70.579721,-33.485002],[-70.579721,-33.485],[-70.56573,-33.485],[-70.565733,-33.48518],[-70.564657,-33.485193],[-70.564673,-33.486095],[-70.563597,-33.486109],[-70.563629,-33.487912],[-70.562553,-33.487925],[-70.562683,-33.495139],[-70.563759,-33.495125],[-70.563791,-33.496928],[-70.564867,-33.496915],[-70.564884,-33.497816],[-70.56596,-33.497803],[-70.565976,-33.498704],[-70.567052,-33.498691],[-70.567069,-33.499592],[-70.570297,-33.499551],[-70.570313,-33.500453]]]},"properties":{"gridcode":1,"recurrencia":"Muy baja"}},{"type":"Feature","geometry":{"type":"Polygon","coordinates":[[[-70.539119,-33.501746],[-70.542348,-33.501706],[-70.542332,-33.500805],[-70.544484,-33.500778],[-70.544436,-33.498073],[-70.542284,-33.4981],[-70.542268,-33.497198],[-70.53904,-33.497238],[-70.539055,-33.49814],[-70.536903,-33.498167],[-70.536951,-33.500871],[-70.539103,-33.500845],[-70.539119,-33.501746]]]},"properties":{"gridcode":2,"recurrencia":"Baja"}},{"type":"Feature","geometry":{"type":"Polygon","coordinates":[[[-70.543809,-33.523332],[-70.545962,-33.523305],[-70.545946,-33.522404],[-70.550251,-33.52235],[-70.550235,-33.521448],[-70.551312,-33.521435],[-70.551296,-33.520533],[-70.552372,-33.520519],[-70.552356,-33.519618],[-70.553432,-33.519604],[-70.553416,-33.518703],[-70.554493,-33.518689],[-70.554461,-33.516886],[-70.555537,-33.516872],[-70.555424,-33.510561],[-70.554348,-33.510575],[-70.554315,-33.508771],[-70.553239,-33.508785],[-70.553223,-33.507883],[-70.552147,-33.507897],[-70.552114,-33.506093],[-70.553191,-33.50608],[-70.553175,-33.505178],[-70.554251,-33.505165],[-70.554235,-33.504263],[-70.555311,-33.50425],[-70.555279,-33.502446],[-70.556355,-33.502433],[-70.556242,-33.496121],[-70.555166,-33.496135],[-70.555134,-33.494332],[-70.554058,-33.494345],[-70.554041,-33.493444],[-70.552965,-33.493457],[-70.552949,-33.492555],[-70.551873,-33.492569],[-70.551857,-33.491667],[-70.550781,-33.491681],[-70.550765,-33.490779],[-70.54108,-33.4909],[-70.541096,-33.491802],[-70.54002,-33.491815],[-70.540004,-33.490913],[-70.536776,-33.490953],[-70.53676,-33.490052],[-70.533531,-33.490092],[-70.533547,-33.490993],[-70.531395,-33.49102],[-70.531363,-33.489217],[-70.532439,-33.489203],[-70.532365,-33.485],[-70.509764,-33.485],[-70.509873,-33.491284],[-70.510949,-33.491271],[-70.51098,-33.493074],[-70.512057,-33.493061],[-70.512072,-33.493963],[-70.50992,-33.493989],[-70.509904,-33.493087],[-70.506676,-33.493127],[-70.506692,-33.494028],[-70.503463,-33.494068],[-70.503479,-33.494969],[-70.501326,-33.494995],[-70.501342,-33.495897],[-70.500266,-33.49591],[-70.500281,-33.496812],[-70.499205,-33.496825],[-70.499236,-33.498628],[-70.49816,-33.498641],[-70.498207,-33.501346],[-70.49713,-33.501359],[-70.497177,-33.504064],[-70.498253,-33.504051],[-70.4983,-33.506756],[-70.499376,-33.506743],[-70.499407,-33.508546],[-70.500484,-33.508533],[-70.500499,-33.509435],[-70.502652,-33.509409],[-70.502667,-33.51031],[-70.503744,-33.510297],[-70.503759,-33.511199],[-70.510218,-33.51112],[-70.510233,-33.512022],[-70.51131,-33.512009],[-70.511341,-33.513812],[-70.512417,-33.513799],[-70.512433,-33.514701],[-70.513509,-33.514688],[-70.513525,-33.515589],[-70.515678,-33.515563],[-70.515694,-33.516465],[-70.525381,-33.516346],[-70.525366,-33.515444],[-70.526442,-33.515431],[-70.526426,-33.514529],[-70.527503,-33.514516],[-70.527487,-33.513614],[-70.528563,-33.513601],[-70.528547,-33.512699],[-70.529624,-33.512686],[-70.529608,-33.511784],[-70.530684,-33.511771],[-70.530605,-33.507263],[-70.531681,-33.50725],[-70.531697,-33.508151],[-70.536002,-33.508098],[-70.536034,-33.509901],[-70.534958,-33.509915],[-70.53499,-33.511718],[-70.533913,-33.511731],[-70.533993,-33.516239],[-70.535069,-33.516226],[-70.535101,-33.518029],[-70.536177,-33.518016],[-70.536209,-33.519819],[-70.537286,-33.519806],[-70.537302,-33.520707],[-70.538378,-33.520694],[-70.538394,-33.521596],[-70.540547,-33.521569],[-70.540563,-33.522471],[-70.543793,-33.52243],[-70.543809,-33.523332]],[[-70.517453,-33.493897],[-70.517437,-33.492995],[-70.515285,-33.493022],[-70.515254,-33.491218],[-70.514177,-33.491232],[-70.514162,-33.49033],[-70.513086,-33.490343],[-70.512993,-33.485],[-70.52806,-33.485],[-70.528151,-33.490158],[-70.527075,-33.490172],[-70.527107,-33.491975],[-70.52603,-33.491988],[-70.526046,-33.49289],[-70.523894,-33.492916],[-70.52391,-33.493818],[-70.517453,-33.493897]],[[-70.521852,-33.499254],[-70.521836,-33.498353],[-70.517532,-33.498405],[-70.517516,-33.497504],[-70.51644,-33.497517],[-70.516424,-33.496615],[-70.518576,-33.496589],[-70.518592,-33.49749],[-70.523973,-33.497424],[-70.523957,-33.496523],[-70.525033,-33.49651],[-70.525081,-33.499214],[-70.521852,-33.499254]],[[-70.539119,-33.501746],[-70.539103,-33.500845],[-70.536951,-33.500871],[-70.536903,-33.498167],[-70.539055,-33.49814],[-70.53904,-33.497238],[-70.542268,-33.497198],[-70.542284,-33.4981],[-70.544436,-33.498073],[-70.544484,-33.500778],[-70.542332,-33.500805],[-70.542348,-33.501706],[-70.539119,-33.501746]]]},"properties":{"gridcode":1,"recurrencia":"Muy baja"}},{"type":"Feature","geometry":{"type":"Polygon","coordinates":[[[-70.518099,-33.530865],[-70.524558,-33.530785],[-70.524542,-33.529884],[-70.525619,-33.52987],[-70.525603,-33.528969],[-70.52668,-33.528955],[-70.526616,-33.525349],[-70.52554,-33.525362],[-70.525524,-33.52446],[-70.524447,-33.524474],[-70.524432,-33.523572],[-70.522279,-33.523599],[-70.522263,-33.522697],[-70.519033,-33.522737],[-70.519049,-33.523638],[-70.516896,-33.523665],[-70.516912,-33.524566],[-70.515835,-33.524579],[-70.515914,-33.529088],[-70.516991,-33.529074],[-70.517006,-33.529976],[-70.518083,-33.529963],[-70.518099,-33.530865]]]},"properties":{"gridcode":2,"recurrencia":"Baja"}},{"type":"Feature","geometry":{"type":"Polygon","coordinates":[[[-70.51927,-33.536261],[-70.527883,-33.536155],[-70.527867,-33.535254],[-70.530021,-33.535227],[-70.530005,-33.534325],[-70.531081,-33.534312],[-70.531065,-33.53341],[-70.532142,-33.533397],[-70.532126,-33.532495],[-70.533203,-33.532482],[-70.533187,-33.531581],[-70.534263,-33.531567],[-70.53412,-33.523452],[-70.533044,-33.523466],[-70.533012,-33.521662],[-70.531935,-33.521676],[-70.531919,-33.520774],[-70.530843,-33.520787],[-70.530827,-33.519886],[-70.528674,-33.519912],[-70.528658,-33.519011],[-70.525429,-33.519051],[-70.525413,-33.518149],[-70.520031,-33.518215],[-70.520015,-33.517314],[-70.516786,-33.517353],[-70.516802,-33.518255],[-70.513572,-33.518294],[-70.513588,-33.519196],[-70.511435,-33.519222],[-70.511451,-33.520124],[-70.510374,-33.520137],[-70.51039,-33.521039],[-70.509313,-33.521052],[-70.509345,-33.522855],[-70.508268,-33.522868],[-70.5083,-33.524671],[-70.507223,-33.524685],[-70.507286,-33.528291],[-70.508362,-33.528278],[-70.508409,-33.530983],[-70.509486,-33.53097],[-70.509517,-33.532773],[-70.510594,-33.53276],[-70.510609,-33.533662],[-70.511686,-33.533649],[-70.511702,-33.53455],[-70.513855,-33.534524],[-70.513871,-33.535426],[-70.519254,-33.53536],[-70.51927,-33.536261]],[[-70.518099,-33.530865],[-70.518083,-33.529963],[-70.517006,-33.529976],[-70.516991,-33.529074],[-70.515914,-33.529088],[-70.515835,-33.524579],[-70.516912,-33.524566],[-70.516896,-33.523665],[-70.519049,-33.523638],[-70.519033,-33.522737],[-70.522263,-33.522697],[-70.522279,-33.523599],[-70.524432,-33.523572],[-70.524447,-33.524474],[-70.525524,-33.52446],[-70.52554,-33.525362],[-70.526616,-33.525349],[-70.52668,-33.528955],[-70.525603,-33.528969],[-70.525619,-33.52987],[-70.524542,-33.529884],[-70.524558,-33.530785],[-70.518099,-33.530865]]]},"properties":{"gridcode":1,"recurrencia":"Muy baja"}},{"type":"Feature","geometry":{"type":"Polygon","coordinates":[[[-70.547681,-33.559357],[-70.551989,-33.559303],[-70.551972,-33.558401],[-70.554126,-33.558374],[-70.55411,-33.557473],[-70.555187,-33.557459],[-70.555171,-33.556558],[-70.556248,-33.556544],[-70.556215,-33.554741],[-70.557292,-33.554727],[-70.557195,-33.549317],[-70.556118,-33.549331],[-70.556086,-33.547528],[-70.553933,-33.547555],[-70.553916,-33.546653],[-70.551763,-33.54668],[-70.551779,-33.547582],[-70.549625,-33.547609],[-70.549642,-33.54851],[-70.547488,-33.548537],[-70.54752,-33.550341],[-70.546443,-33.550354],[-70.546475,-33.552157],[-70.545399,-33.552171],[-70.545495,-33.557581],[-70.546572,-33.557567],[-70.546588,-33.558469],[-70.547665,-33.558455],[-70.547681,-33.559357]]]},"properties":{"gridcode":2,"recurrencia":"Baja"}},{"type":"Feature","geometry":{"type":"Polygon","coordinates":[[[-70.529468,-33.564994],[-70.53593,-33.564914],[-70.535914,-33.564013],[-70.538068,-33.563986],[-70.538052,-33.563084],[-70.539129,-33.563071],[-70.539081,-33.560366],[-70.538004,-33.560379],[-70.537988,-33.559478],[-70.536911,-33.559491],[-70.536896,-33.558589],[-70.535819,-33.558603],[-70.535803,-33.557701],[-70.534726,-33.557715],[-70.53471,-33.556813],[-70.533633,-33.556826],[-70.533617,-33.555925],[-70.531463,-33.555951],[-70.531479,-33.556853],[-70.529325,-33.55688],[-70.529341,-33.557781],[-70.528264,-33.557795],[-70.528296,-33.559598],[-70.527219,-33.559611],[-70.527267,-33.562316],[-70.528344,-33.562303],[-70.528375,-33.564106],[-70.529452,-33.564093],[-70.529468,-33.564994]]]},"properties":{"gridcode":2,"recurrencia":"Baja"}},{"type":"Feature","geometry":{"type":"Polygon","coordinates":[[[-70.614836,-33.579241],[-70.62,-33.579173],[-70.62,-33.566548],[-70.619986,-33.566548],[-70.619969,-33.565646],[-70.618892,-33.56566],[-70.618875,-33.564759],[-70.615644,-33.564801],[-70.615661,-33.565703],[-70.613507,-33.565731],[-70.613524,-33.566632],[-70.612447,-33.566646],[-70.612463,-33.567548],[-70.611386,-33.567562],[-70.61142,-33.569365],[-70.610343,-33.569379],[-70.61036,-33.570281],[-70.609283,-33.570295],[-70.609366,-33.574803],[-70.610443,-33.574789],[-70.610477,-33.576592],[-70.611554,-33.576578],[-70.611571,-33.57748],[-70.612648,-33.577466],[-70.612665,-33.578367],[-70.614819,-33.578339],[-70.614836,-33.579241]]]},"properties":{"gridcode":2,"recurrencia":"Baja"}},{"type":"Feature","geometry":{"type":"Polygon","coordinates":[[[-70.512494,-33.58],[-70.512487,-33.579632],[-70.513565,-33.579619],[-70.513502,-33.576013],[-70.512425,-33.576026],[-70.512393,-33.574222],[-70.511316,-33.574236],[-70.5113,-33.573334],[-70.504837,-33.573413],[-70.504853,-33.574314],[-70.503776,-33.574327],[-70.503792,-33.575229],[-70.502714,-33.575242],[-70.502797,-33.58],[-70.512494,-33.58]]]},"properties":{"gridcode":2,"recurrencia":"Baja"}},{"type":"Feature","geometry":{"type":"Polygon","coordinates":[[[-70.62,-33.58],[-70.62,-33.555726],[-70.615476,-33.555785],[-70.615493,-33.556687],[-70.613339,-33.556715],[-70.613356,-33.557616],[-70.611202,-33.557644],[-70.611219,-33.558546],[-70.610142,-33.55856],[-70.610175,-33.560363],[-70.609099,-33.560377],[-70.609132,-33.56218],[-70.608055,-33.562194],[-70.608089,-33.563998],[-70.607012,-33.564012],[-70.607028,-33.564913],[-70.604874,-33.564941],[-70.604908,-33.566744],[-70.603831,-33.566758],[-70.603847,-33.56766],[-70.60277,-33.567674],[-70.602837,-33.57128],[-70.60176,-33.571294],[-70.601777,-33.572196],[-70.602854,-33.572182],[-70.60292,-33.575788],[-70.603997,-33.575774],[-70.604031,-33.577578],[-70.605108,-33.577564],[-70.605125,-33.578465],[-70.606202,-33.578451],[-70.606218,-33.579353],[-70.608373,-33.579325],[-70.608386,-33.58],[-70.62,-33.58]],[[-70.62,-33.579173],[-70.614836,-33.579241],[-70.614819,-33.578339],[-70.612665,-33.578367],[-70.612648,-33.577466],[-70.611571,-33.57748],[-70.611554,-33.576578],[-70.610477,-33.576592],[-70.610443,-33.574789],[-70.609366,-33.574803],[-70.609283,-33.570295],[-70.61036,-33.570281],[-70.610343,-33.569379],[-70.61142,-33.569365],[-70.611386,-33.567562],[-70.612463,-33.567548],[-70.612447,-33.566646],[-70.613524,-33.566632],[-70.613507,-33.565731],[-70.615661,-33.565703],[-70.615644,-33.564801],[-70.618875,-33.564759],[-70.618892,-33.56566],[-70.619969,-33.565646],[-70.619986,-33.566548],[-70.62,-33.566548],[-70.62,-33.579173]]]},"properties":{"gridcode":1,"recurrencia":"Muy baja"}},{"type":"Feature","geometry":{"type":"Polygon","coordinates":[[[-70.45108,-33.58],[-70.45104,-33.577663],[-70.449963,-33.577675],[-70.449948,-33.576774],[-70.448871,-33.576786],[-70.448856,-33.575885],[-70.447779,-33.575897],[-70.447763,-33.574995],[-70.446686,-33.575008],[-70.446671,-33.574106],[-70.445594,-33.574119],[-70.445579,-33.573217],[-70.443425,-33.573242],[-70.44341,-33.572341],[-70.438024,-33.572404],[-70.438039,-33.573305],[-70.432653,-33.573368],[-70.432668,-33.574269],[-70.430514,-33.574294],[-70.430529,-33.575196],[-70.43,-33.575202],[-70.43,-33.58],[-70.45108,-33.58]]]},"properties":{"gridcode":2,"recurrencia":"Baja"}},{"type":"Feature","geometry":{"type":"Polygon","coordinates":[[[-70.552359,-33.58],[-70.552344,-33.579139],[-70.553421,-33.579125],[-70.553324,-33.573715],[-70.552247,-33.573729],[-70.552231,-33.572827],[-70.550076,-33.572854],[-70.55006,-33.571953],[-70.545752,-33.572007],[-70.545768,-33.572908],[-70.543614,-33.572935],[-70.54363,-33.573837],[-70.542553,-33.57385],[-70.542569,-33.574752],[-70.541492,-33.574765],[-70.541572,-33.579273],[-70.542649,-33.57926],[-70.542662,-33.58],[-70.552359,-33.58]]]},"properties":{"gridcode":3,"recurrencia":"Media"}},{"type":"Feature","geometry":{"type":"Polygon","coordinates":[[[-70.476938,-33.58],[-70.476924,-33.57916],[-70.475847,-33.579173],[-70.475831,-33.578271],[-70.473677,-33.578297],[-70.473662,-33.577395],[-70.466121,-33.577485],[-70.466136,-33.578386],[-70.463982,-33.578412],[-70.463997,-33.579314],[-70.46292,-33.579326],[-70.462931,-33.58],[-70.458621,-33.58],[-70.458611,-33.579377],[-70.457534,-33.57939],[-70.457504,-33.577587],[-70.456426,-33.577599],[-70.456411,-33.576698],[-70.455334,-33.57671],[-70.455319,-33.575809],[-70.454242,-33.575821],[-70.454181,-33.572215],[-70.453104,-33.572227],[-70.453074,-33.570424],[-70.451997,-33.570437],[-70.451982,-33.569535],[-70.450905,-33.569548],[-70.450889,-33.568646],[-70.449812,-33.568659],[-70.449797,-33.567757],[-70.447643,-33.567782],[-70.447628,-33.56688],[-70.439011,-33.566981],[-70.439026,-33.567883],[-70.436872,-33.567908],[-70.436887,-33.568809],[-70.43,-33.568889],[-70.43,-33.58],[-70.476938,-33.58]],[[-70.43,-33.58],[-70.43,-33.575202],[-70.430529,-33.575196],[-70.430514,-33.574294],[-70.432668,-33.574269],[-70.432653,-33.573368],[-70.438039,-33.573305],[-70.438024,-33.572404],[-70.44341,-33.572341],[-70.443425,-33.573242],[-70.445579,-33.573217],[-70.445594,-33.574119],[-70.446671,-33.574106],[-70.446686,-33.575008],[-70.447763,-33.574995],[-70.447779,-33.575897],[-70.448856,-33.575885],[-70.448871,-33.576786],[-70.449948,-33.576774],[-70.449963,-33.577675],[-70.45104,-33.577663],[-70.45108,-33.58],[-70.43,-33.58]]]},"properties":{"gridcode":1,"recurrencia":"Muy baja"}},{"type":"Feature","geometry":{"type":"Polygon","coordinates":[[[-70.560979,-33.58],[-70.560945,-33.578129],[-70.559868,-33.578142],[-70.559835,-33.576339],[-70.558758,-33.576353],[-70.558726,-33.574549],[-70.557649,-33.574563],[-70.557616,-33.57276],[-70.556539,-33.572773],[-70.556507,-33.57097],[-70.55543,-33.570983],[-70.555413,-33.570082],[-70.554336,-33.570095],[-70.55432,-33.569194],[-70.552166,-33.569221],[-70.55215,-33.568319],[-70.542457,-33.56844],[-70.542473,-33.569342],[-70.541395,-33.569355],[-70.541412,-33.570257],[-70.539257,-33.570284],[-70.539273,-33.571186],[-70.537119,-33.571212],[-70.537135,-33.572114],[-70.533904,-33.572154],[-70.533888,-33.571252],[-70.530657,-33.571292],[-70.530641,-33.570391],[-70.528487,-33.570417],[-70.528502,-33.571319],[-70.526348,-33.571346],[-70.526364,-33.572247],[-70.525287,-33.572261],[-70.525303,-33.573162],[-70.524226,-33.573175],[-70.524305,-33.577684],[-70.525382,-33.57767],[-70.525398,-33.578572],[-70.527552,-33.578545],[-70.527568,-33.579447],[-70.536186,-33.57934],[-70.536198,-33.58],[-70.560979,-33.58]],[[-70.542662,-33.58],[-70.542649,-33.57926],[-70.541572,-33.579273],[-70.541492,-33.574765],[-70.542569,-33.574752],[-70.542553,-33.57385],[-70.54363,-33.573837],[-70.543614,-33.572935],[-70.545768,-33.572908],[-70.545752,-33.572007],[-70.55006,-33.571953],[-70.550076,-33.572854],[-70.552231,-33.572827],[-70.552247,-33.573729],[-70.553324,-33.573715],[-70.553421,-33.579125],[-70.552344,-33.579139],[-70.552359,-33.58],[-70.542662,-33.58]]]},"properties":{"gridcode":2,"recurrencia":"Baja"}},{"type":"Feature","geometry":{"type":"Polygon","coordinates":[[[-70.57283,-33.58],[-70.57281,-33.57888],[-70.571733,-33.578894],[-70.571684,-33.576189],[-70.570607,-33.576203],[-70.57059,-33.575301],[-70.569513,-33.575315],[-70.569497,-33.574413],[-70.56842,-33.574427],[-70.568403,-33.573525],[-70.567326,-33.573539],[-70.56731,-33.572637],[-70.565156,-33.572665],[-70.56514,-33.571763],[-70.561908,-33.571804],[-70.561827,-33.567296],[-70.56075,-33.567309],[-70.560718,-33.565506],[-70.559641,-33.56552],[-70.559624,-33.564618],[-70.558547,-33.564631],[-70.558515,-33.562828],[-70.559592,-33.562815],[-70.559576,-33.561913],[-70.560653,-33.561899],[-70.560637,-33.560998],[-70.561713,-33.560984],[-70.561697,-33.560083],[-70.562774,-33.560069],[-70.562742,-33.558266],[-70.563819,-33.558252],[-70.563672,-33.550138],[-70.564749,-33.550124],[-70.564652,-33.544714],[-70.563575,-33.544728],[-70.563542,-33.542925],[-70.562466,-33.542938],[-70.562449,-33.542037],[-70.561373,-33.54205],[-70.561357,-33.541149],[-70.56028,-33.541162],[-70.560264,-33.540261],[-70.562417,-33.540233],[-70.562401,-33.539332],[-70.563477,-33.539318],[-70.563445,-33.537515],[-70.564522,-33.537501],[-70.564489,-33.535698],[-70.565566,-33.535684],[-70.565468,-33.530275],[-70.564392,-33.530288],[-70.564359,-33.528485],[-70.563283,-33.528499],[-70.56325,-33.526695],[-70.562174,-33.526709],[-70.562157,-33.525807],[-70.560004,-33.525835],[-70.559988,-33.524933],[-70.557835,-33.52496],[-70.557819,-33.524058],[-70.55136,-33.524139],[-70.551376,-33.525041],[-70.549223,-33.525068],[-70.549239,-33.52597],[-70.547086,-33.525997],[-70.547102,-33.526898],[-70.546026,-33.526912],[-70.546058,-33.528715],[-70.544981,-33.528728],[-70.545013,-33.530532],[-70.543937,-33.530545],[-70.544033,-33.535955],[-70.54511,-33.535941],[-70.545142,-33.537745],[-70.546218,-33.537731],[-70.54625,-33.539535],[-70.547327,-33.539521],[-70.547359,-33.541324],[-70.546283,-33.541338],[-70.546299,-33.542239],[-70.545222,-33.542253],[-70.545238,-33.543154],[-70.544161,-33.543168],[-70.544193,-33.544971],[-70.543117,-33.544985],[-70.543149,-33.546788],[-70.540995,-33.546815],[-70.541011,-33.547716],[-70.539934,-33.54773],[-70.539966,-33.549533],[-70.536736,-33.549573],[-70.53672,-33.548672],[-70.529182,-33.548765],[-70.529198,-33.549666],[-70.527044,-33.549693],[-70.52706,-33.550595],[-70.525983,-33.550608],[-70.525999,-33.55151],[-70.524922,-33.551523],[-70.524938,-33.552425],[-70.523861,-33.552438],[-70.523877,-33.553339],[-70.5228,-33.553353],[-70.522864,-33.556959],[-70.521787,-33.556972],[-70.521818,-33.558776],[-70.520741,-33.558789],[-70.520773,-33.560592],[-70.519696,-33.560606],[-70.519807,-33.566917],[-70.520884,-33.566904],[-70.5209,-33.567805],[-70.519822,-33.567819],[-70.519838,-33.56872],[-70.518761,-33.568733],[-70.518777,-33.569635],[-70.5177,-33.569648],[-70.517716,-33.57055],[-70.516639,-33.570563],[-70.516654,-33.571465],[-70.515577,-33.571478],[-70.515561,-33.570576],[-70.514484,-33.57059],[-70.514469,-33.569688],[-70.512314,-33.569714],[-70.512299,-33.568813],[-70.502605,-33.568931],[-70.502621,-33.569832],[-70.501544,-33.569845],[-70.501559,-33.570747],[-70.500482,-33.57076],[-70.500498,-33.571662],[-70.499421,-33.571675],[-70.499436,-33.572576],[-70.498359,-33.57259],[-70.49839,-33.574393],[-70.497313,-33.574406],[-70.49741,-33.58],[-70.57283,-33.58]],[[-70.53593,-33.564914],[-70.529468,-33.564994],[-70.529452,-33.564093],[-70.528375,-33.564106],[-70.528344,-33.562303],[-70.527267,-33.562316],[-70.527219,-33.559611],[-70.528296,-33.559598],[-70.528264,-33.557795],[-70.529341,-33.557781],[-70.529325,-33.55688],[-70.531479,-33.556853],[-70.531463,-33.555951],[-70.533617,-33.555925],[-70.533633,-33.556826],[-70.53471,-33.556813],[-70.534726,-33.557715],[-70.535803,-33.557701],[-70.535819,-33.558603],[-70.536896,-33.558589],[-70.536911,-33.559491],[-70.537988,-33.559478],[-70.538004,-33.560379],[-70.539081,-33.560366],[-70.539129,-33.563071],[-70.538052,-33.563084],[-70.538068,-33.563986],[-70.535914,-33.564013],[-70.53593,-33.564914]],[[-70.502797,-33.58],[-70.502714,-33.575242],[-70.503792,-33.575229],[-70.503776,-33.574327],[-70.504853,-33.574314],[-70.504837,-33.573413],[-70.5113,-33.573334],[-70.511316,-33.574236],[-70.512393,-33.574222],[-70.512425,-33.576026],[-70.513502,-33.576013],[-70.513565,-33.579619],[-70.512487,-33.579632],[-70.512494,-33.58],[-70.502797,-33.58]],[[-70.551989,-33.559303],[-70.547681,-33.559357],[-70.547665,-33.558455],[-70.546588,-33.558469],[-70.546572,-33.557567],[-70.545495,-33.557581],[-70.545399,-33.552171],[-70.546475,-33.552157],[-70.546443,-33.550354],[-70.54752,-33.550341],[-70.547488,-33.548537],[-70.549642,-33.54851],[-70.549625,-33.547609],[-70.551779,-33.547582],[-70.551763,-33.54668],[-70.553916,-33.546653],[-70.553933,-33.547555],[-70.556086,-33.547528],[-70.556118,-33.549331],[-70.557195,-33.549317],[-70.557292,-33.554727],[-70.556215,-33.554741],[-70.556248,-33.556544],[-70.555171,-33.556558],[-70.555187,-33.557459],[-70.55411,-33.557473],[-70.554126,-33.558374],[-70.551972,-33.558401],[-70.551989,-33.559303]],[[-70.536198,-33.58],[-70.536186,-33.57934],[-70.527568,-33.579447],[-70.527552,-33.578545],[-70.525398,-33.578572],[-70.525382,-33.57767],[-70.524305,-33.577684],[-70.524226,-33.573175],[-70.525303,-33.573162],[-70.525287,-33.572261],[-70.526364,-33.572247],[-70.526348,-33.571346],[-70.528502,-33.571319],[-70.528487,-33.570417],[-70.530641,-33.570391],[-70.530657,-33.571292],[-70.533888,-33.571252],[-70.533904,-33.572154],[-70.537135,-33.572114],[-70.537119,-33.571212],[-70.539273,-33.571186],[-70.539257,-33.570284],[-70.541412,-33.570257],[-70.541395,-33.569355],[-70.542473,-33.569342],[-70.542457,-33.56844],[-70.55215,-33.568319],[-70.552166,-33.569221],[-70.55432,-33.569194],[-70.554336,-33.570095],[-70.555413,-33.570082],[-70.55543,-33.570983],[-70.556507,-33.57097],[-70.556539,-33.572773],[-70.557616,-33.57276],[-70.557649,-33.574563],[-70.558726,-33.574549],[-70.558758,-33.576353],[-70.559835,-33.576339],[-70.559868,-33.578142],[-70.560945,-33.578129],[-70.560979,-33.58],[-70.536198,-33.58]]]},"properties":{"gridcode":1,"recurrencia":"Muy baja"}}]}