{"type":"FeatureCollection","features":[{"type":"Feature","properties":{"CUT_COM":"13118","COMUNA":"Macul"},"geometry":{"type":"Polygon","coordinates":[[[-70.57699,-33.47018],[-70.57801,-33.47532],[-70.58041,-33.48652],[-70.58072,-33.48918],[-70.581,-33.48976],[-70.58248,-33.49199],[-70.58739,-33.5003],[-70.58897,-33.50345],[-70.58919,-33.50395],[-70.58982,-33.50605],[-70.59056,-33.51016],[-70.59135,-33.50979],[-70.59212,-33.50982],[-70.59437,-33.5097],[-70.60053,-33.50908],[-70.61389,-33.50822],[-70.6145,-33.5064],[-70.61451,-33.50598],[-70.61475,-33.50471],[-70.61512,-33.50385],[-70.61776,-33.49199],[-70.6184,-33.48839],[-70.61881,-33.4869],[-70.6192,-33.48594],[-70.61968,-33.48534],[-70.62054,-33.48453],[-70.62095,-33.48375],[-70.6233,-33.47504],[-70.61926,-33.47467],[-70.61363,-33.47429],[-70.59616,-33.47363],[-70.592,-33.47383],[-70.59067,-33.47395],[-70.58844,-33.47429],[-70.58739,-33.47372],[-70.58643,-33.47365],[-70.58404,-33.47319],[-70.57688,-33.46946],[-70.57699,-33.47018]]]}}]}