{"type":"FeatureCollection","features":[{"type":"Feature","geometry":{"type":"Point","coordinates":[-70.544773,-33.464456]},"properties":{"sector":"BARRIO LA CAPILLA","causa_punt":"Inundación por desborde de cauce","nivel_de_riesgo_2022":"Alto"}},{"type":"Feature","geometry":{"type":"Point","coordinates":[-70.551257,-33.468057]},"properties":{"sector":"LA FAENA","causa_punt":"Anegamiento de caminos/pasos a desnivel","nivel_de_riesgo_2022":"Alto"}},{"type":"Feature","geometry":{"type":"Point","coordinates":[-70.567321,-33.482583]},"properties":{"sector":"CARACAS/ RIO BECKER","causa_punt":"Colapso colectores de aguas lluvia/alcantarillados","nivel_de_riesgo_2022":"Muy Alto"}},{"type":"Feature","geometry":{"type":"Point","coordinates":[-70.571715,-33.507038]},"properties":{"sector":"SAN LUIS DE MACUL 5950","causa_punt":"Inundación por desborde de cauce","nivel_de_riesgo_2022":"Muy Alto"}},{"type":"Feature","geometry":{"type":"Point","coordinates":[-70.571141,-33.506599]},"properties":{"sector":"LOS CARTEROS OTE 5985","causa_punt":"Inundación por desborde de cauce","nivel_de_riesgo_2022":"Muy Alto"}},{"type":"Feature","geometry":{"type":"Point","coordinates":[-70.573388,-33.504655]},"properties":{"sector":"LOS TORNEROS 5655","causa_punt":"Colapso colectores de aguas lluvia/alcantarillados","nivel_de_riesgo_2022":"Muy Alto"}},{"type":"Feature","geometry":{"type":"Point","coordinates":[-70.569083,-33.51077]},"properties":{"sector":"ONGOLMO 6255","causa_punt":"Colapso colectores de aguas lluvia/alcantarillados","nivel_de_riesgo_2022":"Muy Alto"}},{"type":"Feature","geometry":{"type":"Point","coordinates":[-70.566928,-33.501125]},"properties":{"sector":"EL CHUNCHO CON 477|","causa_punt":"Inundación por desborde de cauce","nivel_de_riesgo_2022":"Muy Alto"}},{"type":"Feature","geometry":{"type":"Point","coordinates":[-70.556694,-33.510783]},"properties":{"sector":"EL LAUREL 6111","causa_punt":"Anegamiento de caminos/pasos a desnivel","nivel_de_riesgo_2022":"Alto"}},{"type":"Feature","geometry":{"type":"Point","coordinates":[-70.557134,-33.479558]},"properties":{"sector":"EL VALLE / SANCHEZ FONTECILLA","causa_punt":"Anegamiento de caminos/pasos a desnivel","nivel_de_riesgo_2022":"Muy Alto"}},{"type":"Feature","geometry":{"type":"Point","coordinates":[-70.555168,-33.475323]},"properties":{"sector":"ANTUPIREN / SANCHEZ FONTECILLA","causa_punt":"Anegamiento de caminos/pasos a desnivel","nivel_de_riesgo_2022":"Muy Alto"}},{"type":"Feature","geometry":{"type":"Point","coordinates":[-70.528004,-33.481585]},"properties":{"sector":"OLGA LEIVA N°1","causa_punt":"Colapso colectores de aguas lluvia/alcantarillados","nivel_de_riesgo_2022":"Muy Alto"}},{"type":"Feature","geometry":{"type":"Point","coordinates":[-70.534798,-33.479326]},"properties":{"sector":"LAS PERDICES & ORLANDO LETELIER","causa_punt":"Colapso colectores de aguas lluvia/alcantarillados","nivel_de_riesgo_2022":"Muy Alto"}},{"type":"Feature","geometry":{"type":"Point","coordinates":[-70.535049,-33.480659]},"properties":{"sector":"LAS PERDICES CON PASAJE I","causa_punt":"Colapso colectores de aguas lluvia/alcantarillados","nivel_de_riesgo_2022":"Muy Alto"}},{"type":"Feature","geometry":{"type":"Point","coordinates":[-70.514615,-33.467366]},"properties":{"sector":"QUEBRADA DE LAS PALMAS","causa_punt":"Activación de quebradas","nivel_de_riesgo_2022":"Muy Alto"}},{"type":"Feature","geometry":{"type":"Point","coordinates":[-70.574121,-33.481287]},"properties":{"sector":"SANTA MARIA/LOS PRESIDENTES","causa_punt":"Colapso colectores de aguas lluvia/alcantarillados","nivel_de_riesgo_2022":"Alto"}},{"type":"Feature","geometry":{"type":"Point","coordinates":[-70.585599,-33.499312]},"properties":{"sector":"El Sauzal con Americo Vespucio","causa_punt":"Colapso colectores de aguas lluvia/alcantarillados","nivel_de_riesgo_2022":"Alto"}},{"type":"Feature","geometry":{"type":"Point","coordinates":[-70.514994,-33.501702]},"properties":{"sector":"QUEBRADA DE MACUL","causa_punt":"Activación de quebradas","nivel_de_riesgo_2022":"Muy Alto"}},{"type":"Feature","geometry":{"type":"Point","coordinates":[-70.519163,-33.471934]},"properties":{"sector":"QUEBRADA CABALLERO DE LA MONTAÑA","causa_punt":"Activación de quebradas","nivel_de_riesgo_2022":"Muy Alto"}},{"type":"Feature","geometry":{"type":"Point","coordinates":[-70.575302,-33.472152]},"properties":{"sector":"EL LAGO / PENINSULA","causa_punt":"Anegamiento de caminos/pasos a desnivel","nivel_de_riesgo_2022":"Alto"}},{"type":"Feature","geometry":{"type":"Point","coordinates":[-70.577358,-33.477507]},"properties":{"sector":"FLORENCIA / BOLIVAR / VENEZUELA","causa_punt":"Anegamiento de caminos/pasos a desnivel","nivel_de_riesgo_2022":"Alto"}},{"type":"Feature","geometry":{"type":"Point","coordinates":[-70.551729,-33.469649]},"properties":{"sector":"LAS PARCELAS / SANCHEZ FONTECILLA","causa_punt":"Anegamiento de caminos/pasos a desnivel","nivel_de_riesgo_2022":"Alto"}},{"type":"Feature","geometry":{"type":"Point","coordinates":[-70.545123,-33.479283]},"properties":{"sector":"CALLE ANTUPIREN (TODA LA CALLE)","causa_punt":"Interrupción de caminos","nivel_de_riesgo_2022":"Solucionado"}},{"type":"Feature","geometry":{"type":"Point","coordinates":[-70.544759,-33.464487]},"properties":{"sector":"VALLE HERMOSO 8173A - 8163A","causa_punt":"Anegamiento de caminos/pasos a desnivel","nivel_de_riesgo_2022":"Solucionado"}},{"type":"Feature","geometry":{"type":"Point","coordinates":[-70.52412,-33.482391]},"properties":{"sector":"QUEBRADA DE LO HERMIDA","causa_punt":"Activación de quebradas","nivel_de_riesgo_2022":"Muy Alto"}},{"type":"Feature","geometry":{"type":"Point","coordinates":[-70.561519,-33.48009]},"properties":{"sector":"Ensenada con El arrayan poniente","causa_punt":"Anegamiento de caminos/pasos a desnivel","nivel_de_riesgo_2022":"Muy Alto"}},{"type":"Feature","geometry":{"type":"Point","coordinates":[-70.588798,-33.508049]},"properties":{"sector":"Villa Gildemeister con Americo vespucio","causa_punt":"Anegamiento de caminos/pasos a desnivel","nivel_de_riesgo_2022":"Alto"}},{"type":"Feature","geometry":{"type":"Point","coordinates":[-70.560492,-33.506753]},"properties":{"sector":"Quebrada de Macul con Sánchez Fontecilla","causa_punt":"Colapso colectores de aguas lluvia/alcantarillados","nivel_de_riesgo_2022":"Alto"}},{"type":"Feature","geometry":{"type":"Point","coordinates":[-70.537317,-33.472005]},"properties":{"sector":"Zapiga con Quebrada de umallani","causa_punt":"Colapso colectores de aguas lluvia/alcantarillados","nivel_de_riesgo_2022":"Muy Alto"}},{"type":"Feature","geometry":{"type":"Point","coordinates":[-70.537871,-33.472008]},"properties":{"sector":"Zapiga con Chañapalca","causa_punt":"Colapso colectores de aguas lluvia/alcantarillados","nivel_de_riesgo_2022":"Muy Alto"}},{"type":"Feature","geometry":{"type":"Point","coordinates":[-70.55845,-33.507547]},"properties":{"sector":"El canelo con el arrayan","causa_punt":"Colapso colectores de aguas lluvia/alcantarillados","nivel_de_riesgo_2022":"Alto"}},{"type":"Feature","geometry":{"type":"Point","coordinates":[-70.576429,-33.495755]},"properties":{"sector":"Calle Llaima & Calle Volcán Aconcagua","causa_punt":"Colapso colectores de aguas lluvia/alcantarillados","nivel_de_riesgo_2022":"Alto"}},{"type":"Feature","geometry":{"type":"Point","coordinates":[-70.561135,-33.505626]},"properties":{"sector":"Avenida Tobalaba 14051","causa_punt":"Anegamiento de caminos/pasos a desnivel","nivel_de_riesgo_2022":"Muy Alto"}},{"type":"Feature","geometry":{"type":"Point","coordinates":[-70.529295,-33.469453]},"properties":{"sector":"Calle Los Arroyuelos & Avenida Diagonal Las Torres","causa_punt":"Anegamiento de caminos/pasos a desnivel","nivel_de_riesgo_2022":"Muy Alto"}}]}