{"type":"FeatureCollection","features":[{"type":"Feature","properties":{"CUT_COM":"09115","COMUNA":"Pucón"},"geometry":{"type":"Polygon","coordinates":[[[-71.55532,-39.0662],[-71.5515,-39.06649],[-71.54617,-39.06828],[-71.53843,-39.07005],[-71.53405,-39.06733],[-71.53153,-39.06906],[-71.5284,-39.07042],[-71.52606,-39.07158],[-71.52539,-39.07214],[-71.52428,-39.07374],[-71.52152,-39.0765],[-71.52053,-39.07859],[-71.52041,-39.07982],[-71.52053,-39.08215],[-71.52115,-39.08388],[-71.52244,-39.08578],[-71.52336,-39.08836],[-71.52397,-39.08953],[-71.52422,-39.09199],[-71.52367,-39.09451],[-71.5209,-39.09635],[-71.52029,-39.09758],[-71.52016,-39.09869],[-71.52029,-39.09949],[-71.52078,-39.10102],[-71.52238,-39.10262],[-71.52385,-39.10471],[-71.52748,-39.10815],[-71.5292,-39.11006],[-71.52994,-39.11165],[-71.52987,-39.11331],[-71.52686,-39.1162],[-71.52465,-39.11786],[-71.52484,-39.11854],[-71.52723,-39.121],[-71.52822,-39.12395],[-71.52901,-39.12462],[-71.5316,-39.1253],[-71.53233,-39.12573],[-71.53577,-39.12892],[-71.53614,-39.12972],[-71.53633,-39.13107],[-71.53559,-39.13513],[-71.53498,-39.13648],[-71.53504,-39.1374],[-71.53614,-39.13943],[-71.53842,-39.14017],[-71.54094,-39.1414],[-71.5421,-39.14294],[-71.54278,-39.14589],[-71.5429,-39.14736],[-71.54278,-39.15013],[-71.54253,-39.15092],[-71.5426,-39.15271],[-71.54512,-39.15615],[-71.54585,-39.15879],[-71.54628,-39.15977],[-71.54727,-39.16082],[-71.54475,-39.16365],[-71.54309,-39.16395],[-71.5421,-39.16444],[-71.54155,-39.16537],[-71.54094,-39.16752],[-71.54057,-39.16813],[-71.53965,-39.16875],[-71.53651,-39.16955],[-71.53368,-39.17139],[-71.53153,-39.17336],[-71.53067,-39.17428],[-71.53073,-39.1776],[-71.53055,-39.1784],[-71.5288,-39.17994],[-71.52677,-39.18212],[-71.52636,-39.18275],[-71.52462,-39.18431],[-71.52334,-39.18462],[-71.52209,-39.18465],[-71.52059,-39.18421],[-71.51968,-39.18374],[-71.51622,-39.17987],[-71.51487,-39.17897],[-71.51278,-39.17872],[-71.51085,-39.17881],[-71.50944,-39.17944],[-71.50735,-39.18268],[-71.50641,-39.18318],[-71.50426,-39.1839],[-71.50379,-39.18434],[-71.50357,-39.18502],[-71.50382,-39.18643],[-71.50373,-39.18899],[-71.50413,-39.18999],[-71.50629,-39.19168],[-71.50651,-39.19202],[-71.50647,-39.19246],[-71.50582,-39.1947],[-71.50494,-39.19545],[-71.50404,-39.19595],[-71.50238,-39.1962],[-71.50182,-39.19651],[-71.50195,-39.19733],[-71.50326,-39.19779],[-71.5053,-39.19912],[-71.5081,-39.1997],[-71.50972,-39.19967],[-71.51032,-39.19995],[-71.51128,-39.20048],[-71.51397,-39.2027],[-71.515,-39.2036],[-71.51553,-39.20435],[-71.51572,-39.20738],[-71.51634,-39.20913],[-71.516,-39.20957],[-71.51375,-39.21056],[-71.51353,-39.21091],[-71.51341,-39.21197],[-71.51344,-39.21359],[-71.51556,-39.218],[-71.51603,-39.22077],[-71.51681,-39.2233],[-71.51703,-39.22621],[-71.51778,-39.22768],[-71.51946,-39.2293],[-71.52081,-39.22967],[-71.52449,-39.2302],[-71.52696,-39.23108],[-71.52855,-39.23123],[-71.53164,-39.23067],[-71.53582,-39.22877],[-71.53695,-39.22899],[-71.53979,-39.22992],[-71.54091,-39.23045],[-71.54185,-39.23123],[-71.54263,-39.2323],[-71.54488,-39.23355],[-71.54675,-39.23373],[-71.54747,-39.23404],[-71.5495,-39.23651],[-71.55028,-39.23667],[-71.55262,-39.23664],[-71.55503,-39.23745],[-71.55609,-39.23823],[-71.5569,-39.23898],[-71.55759,-39.23991],[-71.55905,-39.24116],[-71.5609,-39.24229],[-71.56202,-39.24244],[-71.56427,-39.24244],[-71.56527,-39.24216],[-71.56942,-39.24035],[-71.57198,-39.24013],[-71.57364,-39.23957],[-71.57595,-39.23963],[-71.5771,-39.24014],[-71.57873,-39.24041],[-71.58347,-39.24163],[-71.58441,-39.24166],[-71.58625,-39.24141],[-71.58667,-39.24106],[-71.58744,-39.24091],[-71.58946,-39.24127],[-71.59087,-39.24191],[-71.59159,-39.24263],[-71.59171,-39.24326],[-71.59215,-39.24372],[-71.59337,-39.2445],[-71.59452,-39.24504],[-71.59761,-39.246],[-71.59939,-39.24613],[-71.60586,-39.24469],[-71.60767,-39.24463],[-71.60832,-39.24497],[-71.60939,-39.24641],[-71.61226,-39.2485],[-71.61394,-39.24906],[-71.61663,-39.2485],[-71.61885,-39.24781],[-71.61985,-39.24772],[-71.62035,-39.24796],[-71.62044,-39.24875],[-71.61991,-39.2505],[-71.61941,-39.25128],[-71.61941,-39.25172],[-71.6196,-39.25222],[-71.61985,-39.25525],[-71.62016,-39.25674],[-71.62081,-39.25718],[-71.62334,-39.25818],[-71.62469,-39.25915],[-71.62559,-39.26024],[-71.62709,-39.26115],[-71.62928,-39.26308],[-71.63002,-39.2633],[-71.6318,-39.26318],[-71.63386,-39.2624],[-71.63755,-39.26052],[-71.6382,-39.26033],[-71.63934,-39.26036],[-71.64008,-39.26096],[-71.64061,-39.26224],[-71.64077,-39.26421],[-71.64095,-39.26471],[-71.64267,-39.26733],[-71.64436,-39.26905],[-71.64529,-39.27026],[-71.64604,-39.27236],[-71.64501,-39.27264],[-71.64298,-39.27448],[-71.6423,-39.27542],[-71.64083,-39.27835],[-71.64027,-39.28004],[-71.63958,-39.28107],[-71.63905,-39.28147],[-71.63767,-39.28197],[-71.6358,-39.28232],[-71.63271,-39.28375],[-71.62856,-39.28723],[-71.62756,-39.2879],[-71.62709,-39.28943],[-71.62622,-39.2939],[-71.62734,-39.2973],[-71.62834,-39.29933],[-71.62881,-39.30071],[-71.62906,-39.30199],[-71.62912,-39.30364],[-71.63021,-39.30726],[-71.63024,-39.3087],[-71.62993,-39.31088],[-71.62921,-39.31245],[-71.62787,-39.31422],[-71.62663,-39.3152],[-71.62466,-39.31631],[-71.62261,-39.31687],[-71.61884,-39.31712],[-71.61676,-39.31709],[-71.61655,-39.3174],[-71.61667,-39.32074],[-71.61646,-39.32285],[-71.6166,-39.32558],[-71.61637,-39.3262],[-71.61552,-39.32714],[-71.61533,-39.32767],[-71.61549,-39.32812],[-71.61637,-39.32861],[-71.61682,-39.32825],[-71.61709,-39.32761],[-71.61754,-39.32718],[-71.61868,-39.3272],[-71.61991,-39.32803],[-71.6204,-39.32916],[-71.62137,-39.33035],[-71.62374,-39.33067],[-71.62425,-39.33089],[-71.62432,-39.33144],[-71.62327,-39.33174],[-71.62294,-39.33218],[-71.62312,-39.3325],[-71.62417,-39.33323],[-71.62545,-39.33455],[-71.62592,-39.33581],[-71.62595,-39.33701],[-71.62616,-39.3376],[-71.62676,-39.33803],[-71.628,-39.33834],[-71.6285,-39.33865],[-71.63,-39.3404],[-71.6334,-39.34368],[-71.63513,-39.34575],[-71.63585,-39.34865],[-71.63566,-39.34907],[-71.63479,-39.34954],[-71.6346,-39.35027],[-71.63482,-39.35106],[-71.63583,-39.3508],[-71.63685,-39.35086],[-71.63891,-39.35142],[-71.64153,-39.3519],[-71.64461,-39.35284],[-71.64686,-39.3542],[-71.65052,-39.35475],[-71.65281,-39.35602],[-71.65467,-39.35618],[-71.65584,-39.35586],[-71.65638,-39.35541],[-71.65721,-39.35287],[-71.65762,-39.3523],[-71.65799,-39.35211],[-71.65896,-39.35207],[-71.65937,-39.35226],[-71.65969,-39.35297],[-71.65979,-39.35459],[-71.65995,-39.35509],[-71.66035,-39.35556],[-71.66107,-39.35564],[-71.66205,-39.35545],[-71.6641,-39.35428],[-71.66628,-39.35435],[-71.66848,-39.35417],[-71.67204,-39.35306],[-71.67508,-39.35292],[-71.67879,-39.35198],[-71.68646,-39.35068],[-71.69177,-39.35114],[-71.69279,-39.3511],[-71.69371,-39.35087],[-71.69679,-39.34886],[-71.69786,-39.34843],[-71.6995,-39.34808],[-71.70278,-39.3481],[-71.70468,-39.34757],[-71.7053,-39.34686],[-71.70528,-39.34633],[-71.70505,-39.34603],[-71.70449,-39.34574],[-71.70226,-39.34559],[-71.70176,-39.34527],[-71.70164,-39.34461],[-71.70181,-39.34442],[-71.70412,-39.34399],[-71.70569,-39.34279],[-71.70609,-39.34268],[-71.70846,-39.3426],[-71.71086,-39.34354],[-71.7126,-39.34399],[-71.71345,-39.34408],[-71.71523,-39.34393],[-71.71583,-39.34434],[-71.71698,-39.34551],[-71.71755,-39.34568],[-71.72044,-39.34492],[-71.72219,-39.34474],[-71.72559,-39.34541],[-71.72725,-39.34416],[-71.72849,-39.34346],[-71.72907,-39.34346],[-71.73054,-39.34384],[-71.73161,-39.34377],[-71.73236,-39.34323],[-71.73252,-39.34242],[-71.73242,-39.34165],[-71.73164,-39.34027],[-71.73001,-39.34009],[-71.72842,-39.34035],[-71.72686,-39.34031],[-71.72639,-39.33986],[-71.72635,-39.33932],[-71.72916,-39.33822],[-71.73133,-39.33706],[-71.733,-39.33652],[-71.73489,-39.33647],[-71.737,-39.33594],[-71.73772,-39.33593],[-71.73971,-39.33687],[-71.74081,-39.3369],[-71.74246,-39.33614],[-71.74346,-39.33517],[-71.74361,-39.33466],[-71.74355,-39.33407],[-71.74417,-39.33405],[-71.74455,-39.33426],[-71.7447,-39.33447],[-71.74476,-39.33547],[-71.74444,-39.33674],[-71.74405,-39.33752],[-71.74378,-39.33758],[-71.74276,-39.33733],[-71.74229,-39.33757],[-71.74209,-39.3381],[-71.74266,-39.33886],[-71.74265,-39.33926],[-71.74215,-39.33961],[-71.74129,-39.33986],[-71.74009,-39.34121],[-71.73978,-39.34277],[-71.73936,-39.34295],[-71.73889,-39.34284],[-71.73824,-39.34213],[-71.73749,-39.34279],[-71.73682,-39.34281],[-71.73614,-39.34257],[-71.73553,-39.34262],[-71.73532,-39.34301],[-71.7358,-39.34337],[-71.7358,-39.34353],[-71.73544,-39.34399],[-71.73138,-39.34587],[-71.73117,-39.34618],[-71.73119,-39.34693],[-71.73058,-39.34724],[-71.72983,-39.34733],[-71.72955,-39.34772],[-71.72956,-39.34844],[-71.72907,-39.34944],[-71.72928,-39.35103],[-71.72964,-39.35167],[-71.72956,-39.35194],[-71.72916,-39.35222],[-71.72805,-39.35231],[-71.72734,-39.3526],[-71.72709,-39.35304],[-71.72743,-39.3534],[-71.72719,-39.35394],[-71.72494,-39.35509],[-71.72377,-39.35524],[-71.72276,-39.3561],[-71.72295,-39.35674],[-71.72342,-39.35719],[-71.72327,-39.35873],[-71.72292,-39.35943],[-71.72094,-39.3612],[-71.71861,-39.36198],[-71.71662,-39.36323],[-71.71628,-39.36369],[-71.71605,-39.36514],[-71.71609,-39.36542],[-71.71682,-39.36614],[-71.71751,-39.36645],[-71.71867,-39.36648],[-71.72163,-39.36614],[-71.72373,-39.3666],[-71.72658,-39.36658],[-71.7288,-39.36686],[-71.73096,-39.36656],[-71.73235,-39.36687],[-71.73587,-39.36683],[-71.74222,-39.36756],[-71.74317,-39.36819],[-71.74373,-39.36897],[-71.74504,-39.37209],[-71.74576,-39.37316],[-71.74582,-39.37485],[-71.74609,-39.37547],[-71.74457,-39.37991],[-71.7439,-39.38103],[-71.74316,-39.38281],[-71.74325,-39.38464],[-71.74286,-39.38534],[-71.74231,-39.38584],[-71.74229,-39.38619],[-71.74334,-39.38752],[-71.7438,-39.38891],[-71.74394,-39.38992],[-71.74378,-39.39182],[-71.74355,-39.39229],[-71.74324,-39.39258],[-71.74015,-39.39356],[-71.7359,-39.39625],[-71.73534,-39.39646],[-71.73408,-39.39663],[-71.73174,-39.39616],[-71.73102,-39.39616],[-71.72977,-39.3963],[-71.72947,-39.39654],[-71.7297,-39.39697],[-71.73026,-39.39733],[-71.73134,-39.39843],[-71.73167,-39.39917],[-71.7321,-39.4009],[-71.73194,-39.40395],[-71.73537,-39.40555],[-71.73612,-39.40634],[-71.7366,-39.40696],[-71.73726,-39.40963],[-71.73879,-39.41204],[-71.73901,-39.41288],[-71.73848,-39.41314],[-71.73405,-39.41346],[-71.73181,-39.41384],[-71.73056,-39.41416],[-71.73003,-39.41465],[-71.73044,-39.41585],[-71.73047,-39.41929],[-71.7298,-39.42022],[-71.72857,-39.42129],[-71.72678,-39.42787],[-71.72414,-39.42973],[-71.71871,-39.43616],[-71.71748,-39.43726],[-71.7141,-39.43888],[-71.71402,-39.44015],[-71.71428,-39.44462],[-71.71402,-39.44602],[-71.71362,-39.4469],[-71.7106,-39.45059],[-71.71025,-39.45199],[-71.7102,-39.45251],[-71.71086,-39.45387],[-71.71239,-39.45536],[-71.71314,-39.45629],[-71.71345,-39.45699],[-71.71349,-39.45817],[-71.71289,-39.46421],[-71.7137,-39.46775],[-71.71349,-39.46973],[-71.71298,-39.47049],[-71.71285,-39.47122],[-71.71296,-39.47176],[-71.71388,-39.47334],[-71.71494,-39.47448],[-71.7177,-39.47681],[-71.71858,-39.47729],[-71.7213,-39.4779],[-71.72274,-39.47852],[-71.72361,-39.47928],[-71.72428,-39.48049],[-71.72462,-39.48156],[-71.72493,-39.48369],[-71.72458,-39.48615],[-71.7236,-39.4875],[-71.72195,-39.49027],[-71.72086,-39.49163],[-71.7188,-39.49357],[-71.71992,-39.49388],[-71.72116,-39.49458],[-71.723,-39.49623],[-71.72471,-39.49705],[-71.72621,-39.49739],[-71.73245,-39.49811],[-71.73616,-39.49991],[-71.73819,-39.50036],[-71.74369,-39.50148],[-71.75035,-39.50229],[-71.75153,-39.50256],[-71.75307,-39.50315],[-71.75389,-39.50382],[-71.75449,-39.50516],[-71.75763,-39.508],[-71.7596,-39.50858],[-71.7622,-39.50824],[-71.76325,-39.50761],[-71.76574,-39.50355],[-71.76685,-39.50249],[-71.76921,-39.50171],[-71.77179,-39.50126],[-71.77438,-39.50058],[-71.77809,-39.50047],[-71.78045,-39.49991],[-71.78472,-39.498],[-71.7859,-39.49674],[-71.78674,-39.4953],[-71.78764,-39.49418],[-71.78908,-39.49348],[-71.79388,-39.49034],[-71.79473,-39.48958],[-71.79855,-39.48996],[-71.8032,-39.48991],[-71.80544,-39.48974],[-71.80929,-39.48986],[-71.81089,-39.48962],[-71.81258,-39.48614],[-71.81341,-39.48543],[-71.81495,-39.48461],[-71.81632,-39.48333],[-71.81674,-39.48229],[-71.81727,-39.48017],[-71.81715,-39.47908],[-71.81774,-39.47754],[-71.81821,-39.47724],[-71.81857,-39.47721],[-71.82175,-39.47737],[-71.82385,-39.47711],[-71.82566,-39.47666],[-71.82736,-39.47576],[-71.83073,-39.47318],[-71.83151,-39.47287],[-71.83425,-39.47248],[-71.83655,-39.47161],[-71.84021,-39.46979],[-71.84188,-39.46938],[-71.84274,-39.46893],[-71.84521,-39.46606],[-71.8468,-39.46387],[-71.84896,-39.46166],[-71.84999,-39.46014],[-71.8503,-39.45961],[-71.85123,-39.45578],[-71.85252,-39.45394],[-71.8531,-39.45255],[-71.85415,-39.45111],[-71.8558,-39.44968],[-71.85658,-39.44877],[-71.85916,-39.44447],[-71.86268,-39.43948],[-71.86374,-39.43829],[-71.8663,-39.43669],[-71.87184,-39.43551],[-71.87441,-39.43537],[-71.87832,-39.43431],[-71.88068,-39.43308],[-71.88617,-39.42958],[-71.88867,-39.42852],[-71.8928,-39.42884],[-71.90221,-39.42795],[-71.90708,-39.42651],[-71.91477,-39.42332],[-71.92291,-39.42068],[-71.92815,-39.42019],[-71.93778,-39.41966],[-71.93996,-39.41992],[-71.98636,-39.41304],[-71.98584,-39.38784],[-71.98688,-39.38754],[-71.99033,-39.38597],[-71.99323,-39.38414],[-71.99695,-39.38227],[-71.99865,-39.3811],[-71.99941,-39.38046],[-72.00005,-39.37965],[-72.00045,-39.37779],[-72.00117,-39.37671],[-72.00316,-39.37469],[-72.00598,-39.37225],[-72.00671,-39.3714],[-72.0073,-39.36966],[-72.00731,-39.36766],[-72.0078,-39.36444],[-72.011,-39.35928],[-72.01131,-39.35823],[-72.01183,-39.35508],[-72.01277,-39.35296],[-72.01352,-39.35196],[-72.01632,-39.34979],[-72.0175,-39.3495],[-72.01815,-39.34907],[-72.01935,-39.34795],[-72.02135,-39.3456],[-72.02281,-39.34459],[-72.02423,-39.34408],[-72.02485,-39.34366],[-72.0259,-39.34243],[-72.02666,-39.34046],[-72.02704,-39.34009],[-72.02881,-39.34023],[-72.02939,-39.34012],[-72.03316,-39.3377],[-72.03525,-39.338],[-72.03838,-39.33688],[-72.04167,-39.33605],[-72.04602,-39.33367],[-72.04996,-39.33257],[-72.05132,-39.33145],[-72.05293,-39.33048],[-72.05336,-39.32987],[-72.05374,-39.32964],[-72.05545,-39.32932],[-72.05647,-39.32983],[-72.05721,-39.32996],[-72.06049,-39.32845],[-72.06086,-39.32813],[-72.06187,-39.32654],[-72.06626,-39.32354],[-72.06679,-39.3228],[-72.06754,-39.32074],[-72.06857,-39.31935],[-72.06911,-39.31775],[-72.06925,-39.3165],[-72.06919,-39.31409],[-72.06874,-39.31276],[-72.06878,-39.31133],[-72.06838,-39.30959],[-72.06832,-39.30853],[-72.06867,-39.30449],[-72.06857,-39.30325],[-72.06797,-39.30221],[-72.0686,-39.30129],[-72.0465,-39.2161],[-72.04678,-39.21481],[-72.04797,-39.21379],[-72.0481,-39.2113],[-72.04775,-39.21045],[-72.04612,-39.20932],[-72.04612,-39.2083],[-72.04593,-39.20803],[-72.0442,-39.20655],[-72.04307,-39.20582],[-72.04248,-39.20562],[-72.04082,-39.20571],[-72.0389,-39.20543],[-72.0373,-39.20493],[-72.03393,-39.20495],[-72.02986,-39.20456],[-72.02768,-39.2041],[-72.026,-39.20414],[-72.02575,-39.20408],[-72.02514,-39.20325],[-72.02032,-39.20144],[-72.01704,-39.20109],[-72.01432,-39.20152],[-72.01218,-39.20068],[-72.01057,-39.20066],[-72.00928,-39.20011],[-72.00592,-39.19983],[-72.00261,-39.19917],[-72.00007,-39.19963],[-71.99773,-39.2009],[-71.99706,-39.201],[-71.99125,-39.19983],[-71.98631,-39.19912],[-71.98358,-39.19881],[-71.97889,-39.19891],[-71.97546,-39.1985],[-71.9721,-39.19775],[-71.971,-39.19719],[-71.96934,-39.196],[-71.96705,-39.19477],[-71.96605,-39.19393],[-71.9658,-39.19349],[-71.96585,-39.19213],[-71.96782,-39.19132],[-71.96864,-39.19046],[-71.97061,-39.1851],[-71.97082,-39.18385],[-71.97082,-39.1818],[-71.97044,-39.18071],[-71.96994,-39.18016],[-71.96899,-39.17966],[-71.96702,-39.18008],[-71.96393,-39.17885],[-71.96206,-39.17904],[-71.96079,-39.17894],[-71.95697,-39.1779],[-71.95568,-39.17844],[-71.95215,-39.17854],[-71.94959,-39.17833],[-71.94746,-39.1786],[-71.94665,-39.17852],[-71.94259,-39.1774],[-71.94208,-39.17711],[-71.94128,-39.17616],[-71.9403,-39.17415],[-71.93985,-39.17276],[-71.93969,-39.1703],[-71.93939,-39.16969],[-71.93742,-39.16838],[-71.93517,-39.16597],[-71.93325,-39.16586],[-71.93292,-39.16571],[-71.9326,-39.16492],[-71.93264,-39.16344],[-71.93222,-39.16225],[-71.93113,-39.16057],[-71.93035,-39.15977],[-71.92877,-39.15876],[-71.92587,-39.1581],[-71.92442,-39.15808],[-71.92337,-39.15838],[-71.91517,-39.16138],[-71.91414,-39.16153],[-71.91152,-39.16149],[-71.91076,-39.16096],[-71.91086,-39.16314],[-71.9099,-39.16451],[-71.90981,-39.16527],[-71.91015,-39.16852],[-71.91011,-39.1702],[-71.90841,-39.17293],[-71.90693,-39.17358],[-71.90501,-39.175],[-71.90442,-39.17609],[-71.90409,-39.17759],[-71.90359,-39.17838],[-71.90167,-39.18022],[-71.90062,-39.18143],[-71.9005,-39.18193],[-71.89975,-39.18248],[-71.8987,-39.18289],[-71.89791,-39.18281],[-71.8954,-39.18356],[-71.89415,-39.18503],[-71.89365,-39.18536],[-71.89209,-39.18566],[-71.89005,-39.18415],[-71.88813,-39.18423],[-71.88686,-39.18459],[-71.88529,-39.18448],[-71.88383,-39.18423],[-71.88107,-39.18319],[-71.87953,-39.18285],[-71.87761,-39.18252],[-71.87608,-39.18273],[-71.87276,-39.18206],[-71.87184,-39.18173],[-71.87157,-39.18142],[-71.87121,-39.1803],[-71.87112,-39.17646],[-71.87155,-39.17501],[-71.8714,-39.17427],[-71.87106,-39.17344],[-71.869,-39.1712],[-71.86812,-39.16903],[-71.86804,-39.16639],[-71.86879,-39.16431],[-71.86892,-39.16309],[-71.86888,-39.16184],[-71.86858,-39.1608],[-71.86795,-39.15983],[-71.86582,-39.15894],[-71.86353,-39.1572],[-71.86278,-39.15545],[-71.86303,-39.15378],[-71.86286,-39.15257],[-71.86165,-39.15115],[-71.85726,-39.14885],[-71.85597,-39.14726],[-71.85267,-39.14659],[-71.84846,-39.14624],[-71.84674,-39.14672],[-71.84552,-39.14933],[-71.84287,-39.15022],[-71.84101,-39.1501],[-71.84005,-39.14985],[-71.83759,-39.14973],[-71.83617,-39.14985],[-71.83496,-39.15023],[-71.83274,-39.15056],[-71.82936,-39.15073],[-71.8256,-39.15048],[-71.82086,-39.15077],[-71.81703,-39.1486],[-71.81637,-39.14739],[-71.81612,-39.14618],[-71.81605,-39.14316],[-71.81444,-39.14116],[-71.81327,-39.13836],[-71.81302,-39.13724],[-71.81252,-39.13632],[-71.81252,-39.13477],[-71.81353,-39.13289],[-71.8139,-39.13172],[-71.81424,-39.13057],[-71.81449,-39.12822],[-71.81257,-39.12805],[-71.81094,-39.12637],[-71.81027,-39.12614],[-71.80307,-39.12716],[-71.80067,-39.12705],[-71.7988,-39.12785],[-71.79547,-39.12866],[-71.74197,-39.09995],[-71.74058,-39.10028],[-71.73737,-39.10189],[-71.73484,-39.10545],[-71.73396,-39.10605],[-71.73296,-39.10703],[-71.7311,-39.10805],[-71.73021,-39.10834],[-71.72876,-39.10856],[-71.72665,-39.10813],[-71.72546,-39.10817],[-71.72419,-39.10884],[-71.72159,-39.10951],[-71.72042,-39.11018],[-71.71579,-39.112],[-71.71459,-39.11228],[-71.71053,-39.11281],[-71.70807,-39.11286],[-71.70556,-39.11257],[-71.70074,-39.11288],[-71.69661,-39.11295],[-71.6941,-39.11364],[-71.69317,-39.11443],[-71.68992,-39.11515],[-71.68734,-39.11608],[-71.68333,-39.11653],[-71.68112,-39.11658],[-71.67903,-39.11764],[-71.67616,-39.12075],[-71.67548,-39.1218],[-71.67448,-39.12276],[-71.67094,-39.1245],[-71.66889,-39.12486],[-71.66395,-39.12628],[-71.65686,-39.12487],[-71.65448,-39.12186],[-71.65075,-39.1192],[-71.64943,-39.1178],[-71.64756,-39.11673],[-71.6451,-39.1156],[-71.64361,-39.11519],[-71.63639,-39.11404],[-71.63107,-39.11289],[-71.62718,-39.11262],[-71.62383,-39.11196],[-71.62172,-39.111],[-71.61908,-39.11046],[-71.61842,-39.11019],[-71.61754,-39.10929],[-71.61643,-39.10765],[-71.61542,-39.1066],[-71.61548,-39.10625],[-71.61837,-39.10517],[-71.61937,-39.10451],[-71.6196,-39.10406],[-71.61945,-39.10263],[-71.61959,-39.10224],[-71.62067,-39.10131],[-71.6225,-39.10051],[-71.62346,-39.0995],[-71.62403,-39.09838],[-71.6254,-39.09423],[-71.62636,-39.0921],[-71.62776,-39.0907],[-71.62785,-39.09013],[-71.62751,-39.08859],[-71.62815,-39.08751],[-71.62818,-39.08647],[-71.62877,-39.08459],[-71.6293,-39.08357],[-71.6298,-39.08305],[-71.63054,-39.08264],[-71.63158,-39.08232],[-71.63197,-39.08182],[-71.63203,-39.08122],[-71.63166,-39.07989],[-71.62968,-39.07927],[-71.62625,-39.07848],[-71.62406,-39.07748],[-71.6231,-39.07731],[-71.62061,-39.07821],[-71.61761,-39.07877],[-71.61522,-39.07887],[-71.61388,-39.07878],[-71.61231,-39.07839],[-71.60889,-39.07822],[-71.60506,-39.07871],[-71.60304,-39.07822],[-71.59875,-39.078],[-71.59455,-39.07753],[-71.59185,-39.07691],[-71.59058,-39.07606],[-71.58941,-39.07463],[-71.5889,-39.07448],[-71.58722,-39.07458],[-71.58541,-39.07371],[-71.57906,-39.07187],[-71.57551,-39.07068],[-71.57403,-39.07008],[-71.57037,-39.06805],[-71.5691,-39.06756],[-71.56624,-39.06711],[-71.56214,-39.067],[-71.55761,-39.06632],[-71.55532,-39.0662]]]}}]}