{"type":"FeatureCollection","features":[{"type":"Feature","geometry":{"type":"Polygon","coordinates":[[[-70.809115,-32.919125],[-70.812322,-32.919078],[-70.812303,-32.918177],[-70.81551,-32.91813],[-70.815492,-32.917229],[-70.81763,-32.917198],[-70.817611,-32.916296],[-70.81868,-32.91628],[-70.818662,-32.915379],[-70.819731,-32.915363],[-70.819712,-32.914462],[-70.820781,-32.914446],[-70.820726,-32.911741],[-70.821795,-32.911726],[-70.821759,-32.91],[-70.800375,-32.91],[-70.800435,-32.912937],[-70.801504,-32.912922],[-70.801541,-32.914725],[-70.802609,-32.91471],[-70.802628,-32.915611],[-70.803697,-32.915596],[-70.803715,-32.916497],[-70.804784,-32.916482],[-70.804802,-32.917384],[-70.805871,-32.917368],[-70.80589,-32.91827],[-70.809096,-32.918223],[-70.809115,-32.919125]]]},"properties":{"gridcode":1,"recurrencia":"Muy baja"}},{"type":"Feature","geometry":{"type":"Polygon","coordinates":[[[-70.730044,-32.922048],[-70.739665,-32.921915],[-70.739647,-32.921013],[-70.740717,-32.920998],[-70.740699,-32.920097],[-70.742837,-32.920067],[-70.742802,-32.918264],[-70.743871,-32.918249],[-70.743853,-32.917347],[-70.744922,-32.917332],[-70.744851,-32.913726],[-70.74592,-32.913711],[-70.745902,-32.912809],[-70.744833,-32.912824],[-70.744778,-32.91],[-70.724464,-32.91],[-70.724611,-32.917614],[-70.72568,-32.917599],[-70.725697,-32.918501],[-70.726766,-32.918486],[-70.726801,-32.920289],[-70.72894,-32.92026],[-70.728957,-32.921162],[-70.730026,-32.921147],[-70.730044,-32.922048]]]},"properties":{"gridcode":1,"recurrencia":"Muy baja"}},{"type":"Feature","geometry":{"type":"Polygon","coordinates":[[[-71.04,-32.91],[-71.039865,-32.91],[-71.039972,-32.914667],[-71.04,-32.914667],[-71.04,-32.91]]]},"properties":{"gridcode":1,"recurrencia":"Muy baja"}},{"type":"Feature","geometry":{"type":"Polygon","coordinates":[[[-71.0018,-32.928812],[-71.008214,-32.928709],[-71.008194,-32.927808],[-71.010332,-32.927773],[-71.010311,-32.926872],[-71.012449,-32.926837],[-71.012408,-32.925034],[-71.013477,-32.925017],[-71.013457,-32.924116],[-71.014526,-32.924099],[-71.014485,-32.922296],[-71.015554,-32.922278],[-71.015431,-32.916869],[-71.014362,-32.916887],[-71.014321,-32.915084],[-71.013253,-32.915101],[-71.013212,-32.913298],[-71.012143,-32.913315],[-71.012123,-32.912414],[-71.009985,-32.912448],[-71.009965,-32.911546],[-71.007827,-32.911581],[-71.007807,-32.910679],[-71.001394,-32.910782],[-71.001415,-32.911684],[-70.999277,-32.911718],[-70.999297,-32.912619],[-70.99716,-32.912654],[-70.99718,-32.913555],[-70.996111,-32.913572],[-70.996152,-32.915375],[-70.995083,-32.915392],[-70.995123,-32.917195],[-70.994055,-32.917212],[-70.994176,-32.922621],[-70.995245,-32.922604],[-70.995285,-32.924407],[-70.996354,-32.92439],[-70.996395,-32.926193],[-70.997464,-32.926176],[-70.997484,-32.927078],[-70.999622,-32.927043],[-70.999642,-32.927945],[-71.00178,-32.927911],[-71.0018,-32.928812]]]},"properties":{"gridcode":1,"recurrencia":"Muy baja"}},{"type":"Feature","geometry":{"type":"Polygon","coordinates":[[[-70.964446,-32.932111],[-70.97086,-32.93201],[-70.97084,-32.931108],[-70.972978,-32.931074],[-70.972958,-32.930173],[-70.974027,-32.930156],[-70.974007,-32.929254],[-70.975076,-32.929238],[-70.975056,-32.928336],[-70.976125,-32.928319],[-70.976105,-32.927418],[-70.977174,-32.927401],[-70.977114,-32.924696],[-70.978183,-32.924679],[-70.978102,-32.921073],[-70.977033,-32.92109],[-70.976973,-32.918386],[-70.975904,-32.918402],[-70.975884,-32.917501],[-70.978022,-32.917467],[-70.978002,-32.916566],[-70.98014,-32.916532],[-70.98012,-32.91563],[-70.982257,-32.915596],[-70.982237,-32.914695],[-70.983306,-32.914678],[-70.983266,-32.912875],[-70.984334,-32.912858],[-70.984294,-32.911055],[-70.985363,-32.911038],[-70.98534,-32.91],[-70.963957,-32.91],[-70.964007,-32.912277],[-70.965076,-32.91226],[-70.965116,-32.914063],[-70.964047,-32.91408],[-70.964067,-32.914982],[-70.961929,-32.915015],[-70.961949,-32.915917],[-70.959812,-32.91595],[-70.959832,-32.916852],[-70.958763,-32.916869],[-70.958783,-32.91777],[-70.957714,-32.917787],[-70.957753,-32.91959],[-70.956685,-32.919607],[-70.956843,-32.926819],[-70.957912,-32.926802],[-70.957952,-32.928605],[-70.959021,-32.928588],[-70.959041,-32.92949],[-70.96011,-32.929473],[-70.96013,-32.930375],[-70.962268,-32.930341],[-70.962288,-32.931243],[-70.964426,-32.931209],[-70.964446,-32.932111]]]},"properties":{"gridcode":1,"recurrencia":"Muy baja"}},{"type":"Feature","geometry":{"type":"Polygon","coordinates":[[[-70.847447,-32.962755],[-70.856003,-32.962628],[-70.855984,-32.961726],[-70.857053,-32.961711],[-70.857034,-32.960809],[-70.859173,-32.960777],[-70.859155,-32.959876],[-70.860224,-32.95986],[-70.860186,-32.958057],[-70.861256,-32.958041],[-70.861218,-32.956237],[-70.862287,-32.956222],[-70.862193,-32.951714],[-70.861123,-32.95173],[-70.861067,-32.949025],[-70.859997,-32.949041],[-70.859978,-32.948139],[-70.858909,-32.948155],[-70.85889,-32.947254],[-70.857821,-32.94727],[-70.857802,-32.946368],[-70.856733,-32.946384],[-70.856714,-32.945482],[-70.853506,-32.94553],[-70.853487,-32.944628],[-70.84921,-32.944692],[-70.849229,-32.945593],[-70.846021,-32.945641],[-70.84604,-32.946542],[-70.844971,-32.946558],[-70.844989,-32.94746],[-70.842851,-32.947491],[-70.842888,-32.949294],[-70.841819,-32.94931],[-70.841856,-32.951113],[-70.840787,-32.951129],[-70.840918,-32.95744],[-70.841987,-32.957424],[-70.842025,-32.959228],[-70.843094,-32.959212],[-70.843113,-32.960113],[-70.844182,-32.960098],[-70.844201,-32.960999],[-70.845271,-32.960983],[-70.845289,-32.961885],[-70.847428,-32.961853],[-70.847447,-32.962755]]]},"properties":{"gridcode":1,"recurrencia":"Muy baja"}},{"type":"Feature","geometry":{"type":"Polygon","coordinates":[[[-70.706269,-32.964764],[-70.711617,-32.964691],[-70.7116,-32.963789],[-70.713739,-32.96376],[-70.713721,-32.962858],[-70.715861,-32.962829],[-70.715843,-32.961927],[-70.716913,-32.961912],[-70.716878,-32.960109],[-70.717947,-32.960094],[-70.717912,-32.958291],[-70.718982,-32.958276],[-70.71886,-32.951965],[-70.71779,-32.951979],[-70.717755,-32.950176],[-70.716686,-32.950191],[-70.716669,-32.949289],[-70.715599,-32.949304],[-70.715582,-32.948402],[-70.714512,-32.948417],[-70.714495,-32.947515],[-70.712356,-32.947545],[-70.712339,-32.946643],[-70.703784,-32.94676],[-70.703801,-32.947662],[-70.702732,-32.947676],[-70.702749,-32.948578],[-70.70061,-32.948607],[-70.700628,-32.949509],[-70.7,-32.949517],[-70.7,-32.961242],[-70.700852,-32.96123],[-70.700869,-32.962132],[-70.701939,-32.962117],[-70.701956,-32.963019],[-70.703026,-32.963004],[-70.703043,-32.963906],[-70.706252,-32.963862],[-70.706269,-32.964764]]]},"properties":{"gridcode":1,"recurrencia":"Muy baja"}},{"type":"Feature","geometry":{"type":"Polygon","coordinates":[[[-70.894638,-32.968361],[-70.902124,-32.968247],[-70.902105,-32.967345],[-70.904244,-32.967313],[-70.904225,-32.966411],[-70.905294,-32.966395],[-70.905275,-32.965493],[-70.906344,-32.965477],[-70.906325,-32.964575],[-70.907394,-32.964559],[-70.907356,-32.962756],[-70.908425,-32.96274],[-70.908289,-32.956429],[-70.90722,-32.956445],[-70.907181,-32.954642],[-70.906112,-32.954658],[-70.906073,-32.952855],[-70.905004,-32.952872],[-70.904985,-32.95197],[-70.902846,-32.952003],[-70.902827,-32.951101],[-70.900688,-32.951134],[-70.900669,-32.950232],[-70.895322,-32.950313],[-70.895341,-32.951215],[-70.892134,-32.951264],[-70.892153,-32.952165],[-70.891083,-32.952181],[-70.891103,-32.953083],[-70.890033,-32.953099],[-70.890053,-32.954001],[-70.888983,-32.954017],[-70.889002,-32.954918],[-70.887933,-32.954935],[-70.887971,-32.956738],[-70.886902,-32.956754],[-70.887017,-32.962163],[-70.888086,-32.962147],[-70.888125,-32.96395],[-70.889194,-32.963934],[-70.889233,-32.965737],[-70.890302,-32.965721],[-70.890321,-32.966622],[-70.89246,-32.96659],[-70.89248,-32.967492],[-70.894619,-32.967459],[-70.894638,-32.968361]]]},"properties":{"gridcode":1,"recurrencia":"Muy baja"}},{"type":"Feature","geometry":{"type":"Polygon","coordinates":[[[-70.946171,-32.976586],[-70.954728,-32.976453],[-70.954708,-32.975551],[-70.956847,-32.975518],[-70.956827,-32.974616],[-70.957897,-32.974599],[-70.957877,-32.973698],[-70.958946,-32.973681],[-70.958927,-32.97278],[-70.959996,-32.972763],[-70.959956,-32.97096],[-70.961026,-32.970943],[-70.960866,-32.963731],[-70.959797,-32.963748],[-70.959777,-32.962846],[-70.958708,-32.962863],[-70.958668,-32.96106],[-70.957598,-32.961077],[-70.957578,-32.960175],[-70.95544,-32.960209],[-70.95542,-32.959307],[-70.952212,-32.959357],[-70.952192,-32.958456],[-70.947915,-32.958523],[-70.947934,-32.959424],[-70.945796,-32.959457],[-70.945815,-32.960359],[-70.943677,-32.960392],[-70.943696,-32.961294],[-70.942627,-32.96131],[-70.942647,-32.962212],[-70.941577,-32.962229],[-70.941617,-32.964032],[-70.940547,-32.964048],[-70.940587,-32.965851],[-70.939517,-32.965868],[-70.939596,-32.969474],[-70.940666,-32.969457],[-70.940725,-32.972162],[-70.941794,-32.972145],[-70.941834,-32.973948],[-70.942903,-32.973932],[-70.942923,-32.974833],[-70.945062,-32.9748],[-70.945082,-32.975701],[-70.946151,-32.975685],[-70.946171,-32.976586]]]},"properties":{"gridcode":1,"recurrencia":"Muy baja"}},{"type":"Feature","geometry":{"type":"Polygon","coordinates":[[[-70.833916,-32.980991],[-70.838195,-32.980928],[-70.838177,-32.980027],[-70.841386,-32.97998],[-70.841367,-32.979078],[-70.842437,-32.979062],[-70.842418,-32.978161],[-70.844557,-32.978129],[-70.84452,-32.976326],[-70.845589,-32.97631],[-70.845552,-32.974507],[-70.846621,-32.974491],[-70.84649,-32.96818],[-70.845421,-32.968196],[-70.845383,-32.966393],[-70.844314,-32.966409],[-70.844295,-32.965507],[-70.843225,-32.965523],[-70.843207,-32.964621],[-70.842137,-32.964637],[-70.842118,-32.963735],[-70.839979,-32.963767],[-70.839961,-32.962865],[-70.831405,-32.962991],[-70.831423,-32.963893],[-70.830354,-32.963908],[-70.830372,-32.96481],[-70.828233,-32.964841],[-70.828252,-32.965743],[-70.827183,-32.965759],[-70.82722,-32.967562],[-70.82615,-32.967577],[-70.826187,-32.969381],[-70.825118,-32.969396],[-70.82521,-32.973904],[-70.82628,-32.973888],[-70.826336,-32.976593],[-70.827405,-32.976578],[-70.827424,-32.977479],[-70.828494,-32.977464],[-70.828512,-32.978365],[-70.829582,-32.978349],[-70.8296,-32.979251],[-70.83067,-32.979235],[-70.830689,-32.980137],[-70.833898,-32.98009],[-70.833916,-32.980991]]]},"properties":{"gridcode":1,"recurrencia":"Muy baja"}},{"type":"Feature","geometry":{"type":"Polygon","coordinates":[[[-70.97856,-32.989605],[-70.981769,-32.989554],[-70.981749,-32.988652],[-70.984958,-32.988601],[-70.984938,-32.9877],[-70.987077,-32.987666],[-70.987057,-32.986764],[-70.988127,-32.986747],[-70.988107,-32.985846],[-70.989176,-32.985829],[-70.989136,-32.984026],[-70.990205,-32.984008],[-70.990145,-32.981304],[-70.991214,-32.981287],[-70.991174,-32.979484],[-70.990104,-32.979501],[-70.990023,-32.975895],[-70.988954,-32.975912],[-70.988934,-32.975011],[-70.987864,-32.975028],[-70.987844,-32.974126],[-70.986774,-32.974143],[-70.986754,-32.973242],[-70.985685,-32.973259],[-70.985664,-32.972357],[-70.983525,-32.972391],[-70.983505,-32.97149],[-70.976019,-32.971608],[-70.976039,-32.97251],[-70.9739,-32.972544],[-70.97392,-32.973445],[-70.97285,-32.973462],[-70.97287,-32.974364],[-70.971801,-32.974381],[-70.971821,-32.975282],[-70.970751,-32.975299],[-70.970771,-32.9762],[-70.969702,-32.976217],[-70.969882,-32.984331],[-70.970952,-32.984314],[-70.970992,-32.986117],[-70.972061,-32.9861],[-70.972082,-32.987002],[-70.973151,-32.986985],[-70.973171,-32.987886],[-70.975311,-32.987852],[-70.975331,-32.988754],[-70.97854,-32.988703],[-70.97856,-32.989605]]]},"properties":{"gridcode":1,"recurrencia":"Muy baja"}},{"type":"Feature","geometry":{"type":"Polygon","coordinates":[[[-70.948925,-33.0045],[-70.953204,-33.004433],[-70.953185,-33.003532],[-70.955324,-33.003498],[-70.955304,-33.002597],[-70.956374,-33.00258],[-70.956315,-32.999875],[-70.955245,-32.999892],[-70.955225,-32.99899],[-70.953085,-32.999024],[-70.953065,-32.998122],[-70.949856,-32.998173],[-70.949876,-32.999074],[-70.947736,-32.999108],[-70.947756,-33.000009],[-70.946686,-33.000026],[-70.946745,-33.00273],[-70.947815,-33.002714],[-70.947835,-33.003615],[-70.948905,-33.003598],[-70.948925,-33.0045]]]},"properties":{"gridcode":2,"recurrencia":"Baja"}},{"type":"Feature","geometry":{"type":"Polygon","coordinates":[[[-70.946924,-33.010844],[-70.947994,-33.010827],[-70.947974,-33.009926],[-70.954394,-33.009825],[-70.954414,-33.010727],[-70.957624,-33.010677],[-70.957604,-33.009775],[-70.960813,-33.009725],[-70.960794,-33.008823],[-70.962933,-33.008789],[-70.962913,-33.007888],[-70.963983,-33.007871],[-70.963963,-33.00697],[-70.965033,-33.006953],[-70.964993,-33.00515],[-70.966063,-33.005133],[-70.965983,-33.001527],[-70.967053,-33.00151],[-70.967033,-33.000609],[-70.965963,-33.000625],[-70.965883,-32.997019],[-70.964813,-32.997036],[-70.964793,-32.996135],[-70.963724,-32.996152],[-70.963704,-32.99525],[-70.962634,-32.995267],[-70.962614,-32.994365],[-70.961544,-32.994382],[-70.961524,-32.993481],[-70.960454,-32.993497],[-70.960434,-32.992596],[-70.942248,-32.99288],[-70.942268,-32.993782],[-70.940129,-32.993815],[-70.940148,-32.994717],[-70.939078,-32.994733],[-70.939098,-32.995635],[-70.938028,-32.995651],[-70.938068,-32.997454],[-70.936998,-32.997471],[-70.937037,-32.999274],[-70.935968,-32.999291],[-70.936066,-33.003798],[-70.937136,-33.003782],[-70.937175,-33.005585],[-70.938245,-33.005568],[-70.938285,-33.007371],[-70.939355,-33.007355],[-70.939374,-33.008256],[-70.940444,-33.008239],[-70.940464,-33.009141],[-70.942604,-33.009108],[-70.942624,-33.010009],[-70.946904,-33.009942],[-70.946924,-33.010844]],[[-70.948925,-33.0045],[-70.948905,-33.003598],[-70.947835,-33.003615],[-70.947815,-33.002714],[-70.946745,-33.00273],[-70.946686,-33.000026],[-70.947756,-33.000009],[-70.947736,-32.999108],[-70.949876,-32.999074],[-70.949856,-32.998173],[-70.953065,-32.998122],[-70.953085,-32.999024],[-70.955225,-32.99899],[-70.955245,-32.999892],[-70.956315,-32.999875],[-70.956374,-33.00258],[-70.955304,-33.002597],[-70.955324,-33.003498],[-70.953185,-33.003532],[-70.953204,-33.004433],[-70.948925,-33.0045]]]},"properties":{"gridcode":1,"recurrencia":"Muy baja"}},{"type":"Feature","geometry":{"type":"Polygon","coordinates":[[[-70.885971,-33.013584],[-70.893461,-33.01347],[-70.893442,-33.012569],[-70.895582,-33.012536],[-70.895563,-33.011635],[-70.896633,-33.011619],[-70.896556,-33.008012],[-70.894416,-33.008045],[-70.894396,-33.007143],[-70.893327,-33.00716],[-70.893307,-33.006258],[-70.889027,-33.006323],[-70.889008,-33.005421],[-70.884728,-33.005486],[-70.884747,-33.006388],[-70.883677,-33.006404],[-70.883773,-33.010912],[-70.884843,-33.010895],[-70.884882,-33.012698],[-70.885952,-33.012682],[-70.885971,-33.013584]]]},"properties":{"gridcode":2,"recurrencia":"Baja"}},{"type":"Feature","geometry":{"type":"Polygon","coordinates":[[[-70.884003,-33.02173],[-70.893635,-33.021584],[-70.893616,-33.020683],[-70.895756,-33.02065],[-70.895737,-33.019749],[-70.896807,-33.019732],[-70.896787,-33.018831],[-70.897858,-33.018815],[-70.897819,-33.017011],[-70.901029,-33.016963],[-70.90101,-33.016061],[-70.90315,-33.016028],[-70.903131,-33.015127],[-70.904201,-33.015111],[-70.904181,-33.014209],[-70.905251,-33.014193],[-70.905232,-33.013291],[-70.906302,-33.013275],[-70.906263,-33.011472],[-70.907333,-33.011455],[-70.907178,-33.004243],[-70.906108,-33.004259],[-70.906089,-33.003358],[-70.905019,-33.003374],[-70.90498,-33.001571],[-70.90391,-33.001588],[-70.903891,-33.000686],[-70.901751,-33.000719],[-70.901732,-32.999817],[-70.898522,-32.999866],[-70.898503,-32.998964],[-70.895293,-32.999013],[-70.895312,-32.999915],[-70.892103,-32.999963],[-70.892083,-32.999062],[-70.891013,-32.999078],[-70.890994,-32.998177],[-70.888854,-32.998209],[-70.888835,-32.997307],[-70.881346,-32.997421],[-70.881365,-32.998322],[-70.879225,-32.998354],[-70.879245,-32.999256],[-70.878175,-32.999272],[-70.878194,-33.000174],[-70.877124,-33.00019],[-70.877143,-33.001091],[-70.876073,-33.001107],[-70.876092,-33.002009],[-70.875022,-33.002025],[-70.875194,-33.010139],[-70.876264,-33.010123],[-70.876302,-33.011926],[-70.877372,-33.01191],[-70.877391,-33.012811],[-70.878461,-33.012795],[-70.878538,-33.016401],[-70.879608,-33.016385],[-70.879646,-33.018188],[-70.880716,-33.018172],[-70.880736,-33.019074],[-70.881806,-33.019058],[-70.881825,-33.019959],[-70.882895,-33.019943],[-70.882914,-33.020845],[-70.883984,-33.020829],[-70.884003,-33.02173]],[[-70.885971,-33.013584],[-70.885952,-33.012682],[-70.884882,-33.012698],[-70.884843,-33.010895],[-70.883773,-33.010912],[-70.883677,-33.006404],[-70.884747,-33.006388],[-70.884728,-33.005486],[-70.889008,-33.005421],[-70.889027,-33.006323],[-70.893307,-33.006258],[-70.893327,-33.00716],[-70.894396,-33.007143],[-70.894416,-33.008045],[-70.896556,-33.008012],[-70.896633,-33.011619],[-70.895563,-33.011635],[-70.895582,-33.012536],[-70.893442,-33.012569],[-70.893461,-33.01347],[-70.885971,-33.013584]]]},"properties":{"gridcode":1,"recurrencia":"Muy baja"}},{"type":"Feature","geometry":{"type":"Polygon","coordinates":[[[-70.921831,-33.038288],[-70.928253,-33.038189],[-70.928233,-33.037287],[-70.930374,-33.037254],[-70.930354,-33.036353],[-70.932495,-33.036319],[-70.932475,-33.035418],[-70.933545,-33.035401],[-70.933506,-33.033598],[-70.934576,-33.033582],[-70.934537,-33.031779],[-70.935607,-33.031762],[-70.935469,-33.025451],[-70.934399,-33.025468],[-70.934359,-33.023665],[-70.933289,-33.023682],[-70.933269,-33.02278],[-70.932199,-33.022797],[-70.93218,-33.021895],[-70.93111,-33.021912],[-70.93109,-33.02101],[-70.927879,-33.02106],[-70.92786,-33.020158],[-70.921439,-33.020257],[-70.921459,-33.021159],[-70.919318,-33.021192],[-70.919338,-33.022093],[-70.917198,-33.022126],[-70.917217,-33.023028],[-70.916147,-33.023044],[-70.916186,-33.024847],[-70.915116,-33.024864],[-70.915155,-33.026667],[-70.914085,-33.026683],[-70.914202,-33.032092],[-70.915272,-33.032076],[-70.915311,-33.033879],[-70.916381,-33.033862],[-70.916401,-33.034764],[-70.917471,-33.034748],[-70.917491,-33.035649],[-70.918561,-33.035633],[-70.91858,-33.036534],[-70.919651,-33.036518],[-70.91967,-33.037419],[-70.921811,-33.037386],[-70.921831,-33.038288]]]},"properties":{"gridcode":1,"recurrencia":"Muy baja"}},{"type":"Feature","geometry":{"type":"Polygon","coordinates":[[[-71.009821,-33.046821],[-71.014102,-33.046752],[-71.014082,-33.04585],[-71.017293,-33.045798],[-71.017272,-33.044897],[-71.018343,-33.04488],[-71.018322,-33.043978],[-71.020463,-33.043943],[-71.020422,-33.04214],[-71.021492,-33.042123],[-71.021451,-33.04032],[-71.022521,-33.040303],[-71.022377,-33.033993],[-71.021307,-33.03401],[-71.021265,-33.032207],[-71.020195,-33.032224],[-71.020175,-33.031323],[-71.019104,-33.03134],[-71.019084,-33.030439],[-71.018014,-33.030456],[-71.017993,-33.029555],[-71.019063,-33.029537],[-71.019022,-33.027734],[-71.020092,-33.027717],[-71.020051,-33.025914],[-71.021121,-33.025897],[-71.020998,-33.020488],[-71.019928,-33.020505],[-71.019887,-33.018702],[-71.018817,-33.01872],[-71.018796,-33.017818],[-71.017726,-33.017835],[-71.017706,-33.016934],[-71.016635,-33.016951],[-71.016615,-33.01605],[-71.015545,-33.016067],[-71.015524,-33.015166],[-71.012314,-33.015217],[-71.012294,-33.014316],[-71.008014,-33.014385],[-71.008034,-33.015286],[-71.004824,-33.015338],[-71.004845,-33.016239],[-71.003775,-33.016257],[-71.003795,-33.017158],[-71.002725,-33.017175],[-71.002746,-33.018077],[-71.001675,-33.018094],[-71.001696,-33.018995],[-71.000626,-33.019013],[-71.000667,-33.020816],[-70.999596,-33.020833],[-70.999739,-33.027143],[-71.000809,-33.027126],[-71.00085,-33.028929],[-71.00192,-33.028912],[-71.00194,-33.029813],[-71.003011,-33.029796],[-71.003031,-33.030697],[-71.004101,-33.03068],[-71.004122,-33.031582],[-71.003051,-33.031599],[-71.003092,-33.033402],[-71.002022,-33.033419],[-71.002063,-33.035222],[-71.000993,-33.035239],[-71.001095,-33.039747],[-71.002165,-33.039729],[-71.002226,-33.042434],[-71.003296,-33.042417],[-71.003317,-33.043318],[-71.004387,-33.043301],[-71.004408,-33.044202],[-71.005478,-33.044185],[-71.005498,-33.045087],[-71.006569,-33.04507],[-71.006589,-33.045971],[-71.0098,-33.045919],[-71.009821,-33.046821]]]},"properties":{"gridcode":1,"recurrencia":"Muy baja"}},{"type":"Feature","geometry":{"type":"Polygon","coordinates":[[[-71.038128,-33.067103],[-71.04,-33.067072],[-71.04,-33.049036],[-71.035572,-33.049108],[-71.035593,-33.05001],[-71.033452,-33.050045],[-71.033473,-33.050946],[-71.032402,-33.050964],[-71.032423,-33.051865],[-71.031353,-33.051883],[-71.031373,-33.052784],[-71.030303,-33.052802],[-71.030344,-33.054604],[-71.029274,-33.054622],[-71.029439,-33.061834],[-71.03051,-33.061816],[-71.030531,-33.062718],[-71.031601,-33.0627],[-71.031643,-33.064503],[-71.032713,-33.064486],[-71.032734,-33.065387],[-71.034875,-33.065352],[-71.034896,-33.066254],[-71.038108,-33.066201],[-71.038128,-33.067103]]]},"properties":{"gridcode":1,"recurrencia":"Muy baja"}},{"type":"Feature","geometry":{"type":"Polygon","coordinates":[[[-70.918429,-33.078922],[-70.922713,-33.078856],[-70.922693,-33.077955],[-70.924835,-33.077922],[-70.924815,-33.07702],[-70.925886,-33.077004],[-70.925807,-33.073397],[-70.924736,-33.073414],[-70.924717,-33.072513],[-70.923646,-33.072529],[-70.923626,-33.071628],[-70.917202,-33.071726],[-70.917221,-33.072628],[-70.916151,-33.072644],[-70.916248,-33.077152],[-70.917319,-33.077136],[-70.917339,-33.078037],[-70.91841,-33.078021],[-70.918429,-33.078922]]]},"properties":{"gridcode":2,"recurrencia":"Baja"}},{"type":"Feature","geometry":{"type":"Polygon","coordinates":[[[-70.965585,-33.079991],[-70.973081,-33.079873],[-70.973061,-33.078971],[-70.975202,-33.078937],[-70.975182,-33.078036],[-70.976253,-33.078019],[-70.976233,-33.077117],[-70.977304,-33.0771],[-70.977283,-33.076199],[-70.978354,-33.076182],[-70.978334,-33.07528],[-70.979405,-33.075263],[-70.979324,-33.071657],[-70.980395,-33.07164],[-70.980354,-33.069837],[-70.979284,-33.069854],[-70.979223,-33.06715],[-70.978152,-33.067167],[-70.978112,-33.065364],[-70.977041,-33.065381],[-70.977021,-33.064479],[-70.975951,-33.064496],[-70.975931,-33.063595],[-70.973789,-33.063629],[-70.973769,-33.062727],[-70.971628,-33.062761],[-70.971608,-33.06186],[-70.966255,-33.061944],[-70.966275,-33.062846],[-70.964134,-33.06288],[-70.964154,-33.063781],[-70.962012,-33.063815],[-70.962032,-33.064716],[-70.960962,-33.064733],[-70.960982,-33.065635],[-70.959911,-33.065651],[-70.959951,-33.067454],[-70.958881,-33.067471],[-70.95906,-33.075585],[-70.960131,-33.075568],[-70.960151,-33.076469],[-70.961222,-33.076453],[-70.961242,-33.077354],[-70.962313,-33.077337],[-70.962333,-33.078239],[-70.963404,-33.078222],[-70.963424,-33.079123],[-70.965565,-33.07909],[-70.965585,-33.079991]]]},"properties":{"gridcode":1,"recurrencia":"Muy baja"}},{"type":"Feature","geometry":{"type":"Polygon","coordinates":[[[-70.91773,-33.096067],[-70.920943,-33.096018],[-70.920826,-33.090609],[-70.921897,-33.090592],[-70.921877,-33.089691],[-70.920806,-33.089707],[-70.920689,-33.084298],[-70.919618,-33.084315],[-70.919598,-33.083413],[-70.918527,-33.08343],[-70.918508,-33.082528],[-70.914224,-33.082594],[-70.914244,-33.083496],[-70.912102,-33.083529],[-70.912141,-33.085332],[-70.91107,-33.085348],[-70.911167,-33.089856],[-70.912238,-33.089839],[-70.912258,-33.090741],[-70.913329,-33.090724],[-70.913368,-33.092527],[-70.914439,-33.092511],[-70.914459,-33.093412],[-70.91553,-33.093396],[-70.915549,-33.094297],[-70.91662,-33.094281],[-70.91664,-33.095182],[-70.917711,-33.095166],[-70.91773,-33.096067]]]},"properties":{"gridcode":2,"recurrencia":"Baja"}},{"type":"Feature","geometry":{"type":"Polygon","coordinates":[[[-70.728143,-33.098841],[-70.731356,-33.098796],[-70.731338,-33.097895],[-70.734552,-33.09785],[-70.734534,-33.096948],[-70.735605,-33.096933],[-70.735588,-33.096032],[-70.736659,-33.096017],[-70.736641,-33.095115],[-70.737712,-33.0951],[-70.737694,-33.094199],[-70.738766,-33.094184],[-70.73873,-33.092381],[-70.739801,-33.092366],[-70.739819,-33.093267],[-70.74089,-33.093252],[-70.740908,-33.094154],[-70.741979,-33.094139],[-70.742015,-33.095942],[-70.743086,-33.095927],[-70.743103,-33.096829],[-70.745246,-33.096799],[-70.745264,-33.0977],[-70.747406,-33.09767],[-70.747424,-33.098572],[-70.753851,-33.098482],[-70.753833,-33.09758],[-70.755975,-33.09755],[-70.755957,-33.096648],[-70.757028,-33.096633],[-70.757011,-33.095732],[-70.758082,-33.095717],[-70.758064,-33.094815],[-70.759135,-33.0948],[-70.759117,-33.093898],[-70.760188,-33.093883],[-70.760134,-33.091178],[-70.761205,-33.091163],[-70.761115,-33.086655],[-70.760044,-33.08667],[-70.760008,-33.084867],[-70.758937,-33.084882],[-70.758919,-33.083981],[-70.757848,-33.083996],[-70.757812,-33.082193],[-70.755671,-33.082223],[-70.755653,-33.081321],[-70.753511,-33.081351],[-70.753493,-33.08045],[-70.745996,-33.080555],[-70.746014,-33.081457],[-70.743872,-33.081487],[-70.74389,-33.082388],[-70.742819,-33.082403],[-70.742837,-33.083305],[-70.741766,-33.08332],[-70.741783,-33.084221],[-70.740712,-33.084236],[-70.740748,-33.086039],[-70.738606,-33.086069],[-70.73857,-33.084266],[-70.737499,-33.084281],[-70.737482,-33.083379],[-70.736411,-33.083394],[-70.736393,-33.082493],[-70.735322,-33.082508],[-70.735304,-33.081606],[-70.733162,-33.081636],[-70.733145,-33.080734],[-70.731003,-33.080764],[-70.730985,-33.079862],[-70.732056,-33.079848],[-70.732038,-33.078946],[-70.733109,-33.078931],[-70.733074,-33.077128],[-70.734145,-33.077113],[-70.733985,-33.068998],[-70.732915,-33.069013],[-70.732897,-33.068112],[-70.731826,-33.068127],[-70.731808,-33.067225],[-70.730738,-33.06724],[-70.73072,-33.066338],[-70.729649,-33.066353],[-70.729632,-33.065451],[-70.728561,-33.065466],[-70.728543,-33.064565],[-70.718906,-33.064698],[-70.718924,-33.0656],[-70.717853,-33.065614],[-70.71787,-33.066516],[-70.7168,-33.066531],[-70.716817,-33.067432],[-70.715746,-33.067447],[-70.715764,-33.068349],[-70.714693,-33.068363],[-70.714711,-33.069265],[-70.71364,-33.06928],[-70.71371,-33.072886],[-70.712639,-33.072901],[-70.712656,-33.073803],[-70.713727,-33.073788],[-70.713797,-33.077394],[-70.714868,-33.07738],[-70.714903,-33.079183],[-70.715974,-33.079168],[-70.715991,-33.08007],[-70.717062,-33.080055],[-70.71708,-33.080957],[-70.719222,-33.080927],[-70.719239,-33.081829],[-70.722452,-33.081784],[-70.72247,-33.082686],[-70.721399,-33.082701],[-70.721417,-33.083602],[-70.720346,-33.083617],[-70.720381,-33.08542],[-70.71931,-33.085435],[-70.719345,-33.087238],[-70.718274,-33.087253],[-70.718361,-33.091761],[-70.719432,-33.091747],[-70.719485,-33.094451],[-70.720556,-33.094437],[-70.720574,-33.095338],[-70.721645,-33.095323],[-70.721663,-33.096225],[-70.722734,-33.09621],[-70.722751,-33.097112],[-70.724894,-33.097082],[-70.724911,-33.097984],[-70.728125,-33.097939],[-70.728143,-33.098841]]]},"properties":{"gridcode":1,"recurrencia":"Muy baja"}},{"type":"Feature","geometry":{"type":"Polygon","coordinates":[[[-70.765922,-33.112741],[-70.770208,-33.11268],[-70.770171,-33.110877],[-70.771243,-33.110862],[-70.771207,-33.109058],[-70.772278,-33.109043],[-70.772242,-33.10724],[-70.773313,-33.107225],[-70.773295,-33.106323],[-70.774366,-33.106308],[-70.77433,-33.104505],[-70.775401,-33.104489],[-70.775383,-33.103588],[-70.776454,-33.103573],[-70.776418,-33.101769],[-70.777489,-33.101754],[-70.777453,-33.099951],[-70.776382,-33.099966],[-70.776363,-33.099065],[-70.766723,-33.099202],[-70.766741,-33.100103],[-70.764599,-33.100134],[-70.764617,-33.101035],[-70.763545,-33.10105],[-70.763581,-33.102854],[-70.76251,-33.102869],[-70.762564,-33.105574],[-70.763635,-33.105558],[-70.763689,-33.108263],[-70.764761,-33.108248],[-70.764815,-33.110953],[-70.765886,-33.110938],[-70.765922,-33.112741]]]},"properties":{"gridcode":2,"recurrencia":"Baja"}},{"type":"Feature","geometry":{"type":"Polygon","coordinates":[[[-70.771351,-33.116271],[-70.775637,-33.11621],[-70.775601,-33.114407],[-70.774529,-33.114422],[-70.774511,-33.113521],[-70.770226,-33.113582],[-70.770262,-33.115385],[-70.771333,-33.11537],[-70.771351,-33.116271]]]},"properties":{"gridcode":2,"recurrencia":"Baja"}},{"type":"Feature","geometry":{"type":"Polygon","coordinates":[[[-70.801368,-33.116743],[-70.806725,-33.116665],[-70.806706,-33.115763],[-70.807778,-33.115748],[-70.807759,-33.114846],[-70.808831,-33.114831],[-70.808812,-33.113929],[-70.809883,-33.113914],[-70.809828,-33.111209],[-70.808757,-33.111224],[-70.80872,-33.109421],[-70.807648,-33.109437],[-70.80763,-33.108535],[-70.806559,-33.108551],[-70.80654,-33.107649],[-70.801184,-33.107727],[-70.801202,-33.108628],[-70.800131,-33.108644],[-70.800149,-33.109545],[-70.799078,-33.109561],[-70.799097,-33.110463],[-70.798025,-33.110478],[-70.798099,-33.114084],[-70.79917,-33.114069],[-70.799207,-33.115872],[-70.80135,-33.115841],[-70.801368,-33.116743]]]},"properties":{"gridcode":2,"recurrencia":"Baja"}},{"type":"Feature","geometry":{"type":"Polygon","coordinates":[[[-70.916136,-33.121343],[-70.924707,-33.121211],[-70.924687,-33.120309],[-70.92683,-33.120276],[-70.92681,-33.119375],[-70.927882,-33.119358],[-70.927862,-33.118457],[-70.928933,-33.11844],[-70.928914,-33.117538],[-70.929985,-33.117522],[-70.929945,-33.115719],[-70.931017,-33.115702],[-70.930879,-33.109392],[-70.929807,-33.109408],[-70.929768,-33.107605],[-70.928697,-33.107622],[-70.928677,-33.10672],[-70.927606,-33.106737],[-70.927586,-33.105835],[-70.926515,-33.105852],[-70.926495,-33.10495],[-70.925424,-33.104967],[-70.925405,-33.104066],[-70.926476,-33.104049],[-70.926456,-33.103147],[-70.927527,-33.103131],[-70.927507,-33.102229],[-70.928579,-33.102213],[-70.928559,-33.101311],[-70.92963,-33.101295],[-70.929591,-33.099492],[-70.930662,-33.099475],[-70.930602,-33.096771],[-70.931674,-33.096754],[-70.931614,-33.094049],[-70.930543,-33.094066],[-70.930484,-33.091361],[-70.929413,-33.091378],[-70.929394,-33.090477],[-70.928323,-33.090493],[-70.928303,-33.089592],[-70.927232,-33.089608],[-70.927114,-33.084199],[-70.929256,-33.084166],[-70.929236,-33.083264],[-70.931378,-33.083231],[-70.931358,-33.08233],[-70.932429,-33.082313],[-70.932409,-33.081412],[-70.93348,-33.081395],[-70.93346,-33.080494],[-70.934531,-33.080477],[-70.934472,-33.077772],[-70.935543,-33.077756],[-70.935405,-33.071445],[-70.937546,-33.071412],[-70.937526,-33.07051],[-70.938597,-33.070494],[-70.938557,-33.068691],[-70.939628,-33.068674],[-70.939589,-33.066871],[-70.940659,-33.066854],[-70.94056,-33.062347],[-70.93949,-33.062364],[-70.93943,-33.059659],[-70.93836,-33.059676],[-70.93834,-33.058774],[-70.937269,-33.058791],[-70.93725,-33.057889],[-70.936179,-33.057906],[-70.936159,-33.057004],[-70.935089,-33.057021],[-70.935069,-33.05612],[-70.931857,-33.056169],[-70.931838,-33.055268],[-70.926485,-33.055351],[-70.926505,-33.056252],[-70.924363,-33.056285],[-70.924383,-33.057187],[-70.922242,-33.05722],[-70.922262,-33.058121],[-70.921191,-33.058138],[-70.92123,-33.059941],[-70.92016,-33.059957],[-70.920199,-33.06176],[-70.919128,-33.061777],[-70.919206,-33.065383],[-70.913853,-33.065465],[-70.913873,-33.066367],[-70.91066,-33.066416],[-70.91068,-33.067318],[-70.909609,-33.067334],[-70.909629,-33.068235],[-70.908558,-33.068252],[-70.908577,-33.069153],[-70.907507,-33.06917],[-70.907546,-33.070973],[-70.906475,-33.070989],[-70.906631,-33.078201],[-70.907701,-33.078185],[-70.907779,-33.081791],[-70.906708,-33.081807],[-70.906747,-33.083611],[-70.905676,-33.083627],[-70.905715,-33.08543],[-70.904644,-33.085446],[-70.9048,-33.092659],[-70.905871,-33.092642],[-70.90591,-33.094445],[-70.906981,-33.094429],[-70.907,-33.09533],[-70.908071,-33.095314],[-70.908091,-33.096215],[-70.909162,-33.096199],[-70.909181,-33.097101],[-70.910253,-33.097084],[-70.910311,-33.099789],[-70.911382,-33.099772],[-70.911421,-33.101575],[-70.912492,-33.101559],[-70.912512,-33.10246],[-70.913583,-33.102444],[-70.913602,-33.103346],[-70.915745,-33.103313],[-70.915764,-33.104214],[-70.914693,-33.104231],[-70.914713,-33.105132],[-70.913642,-33.105149],[-70.913661,-33.10605],[-70.91259,-33.106067],[-70.912609,-33.106968],[-70.911538,-33.106984],[-70.911558,-33.107886],[-70.910487,-33.107902],[-70.910526,-33.109705],[-70.909454,-33.109722],[-70.909572,-33.115131],[-70.910643,-33.115115],[-70.910682,-33.116918],[-70.911753,-33.116901],[-70.911792,-33.118704],[-70.912864,-33.118688],[-70.912883,-33.119589],[-70.913954,-33.119573],[-70.913974,-33.120474],[-70.916117,-33.120441],[-70.916136,-33.121343]],[[-70.918429,-33.078922],[-70.91841,-33.078021],[-70.917339,-33.078037],[-70.917319,-33.077136],[-70.916248,-33.077152],[-70.916151,-33.072644],[-70.917221,-33.072628],[-70.917202,-33.071726],[-70.923626,-33.071628],[-70.923646,-33.072529],[-70.924717,-33.072513],[-70.924736,-33.073414],[-70.925807,-33.073397],[-70.925886,-33.077004],[-70.924815,-33.07702],[-70.924835,-33.077922],[-70.922693,-33.077955],[-70.922713,-33.078856],[-70.918429,-33.078922]],[[-70.91773,-33.096067],[-70.917711,-33.095166],[-70.91664,-33.095182],[-70.91662,-33.094281],[-70.915549,-33.094297],[-70.91553,-33.093396],[-70.914459,-33.093412],[-70.914439,-33.092511],[-70.913368,-33.092527],[-70.913329,-33.090724],[-70.912258,-33.090741],[-70.912238,-33.089839],[-70.911167,-33.089856],[-70.91107,-33.085348],[-70.912141,-33.085332],[-70.912102,-33.083529],[-70.914244,-33.083496],[-70.914224,-33.082594],[-70.918508,-33.082528],[-70.918527,-33.08343],[-70.919598,-33.083413],[-70.919618,-33.084315],[-70.920689,-33.084298],[-70.920806,-33.089707],[-70.921877,-33.089691],[-70.921897,-33.090592],[-70.920826,-33.090609],[-70.920943,-33.096018],[-70.91773,-33.096067]]]},"properties":{"gridcode":1,"recurrencia":"Muy baja"}},{"type":"Feature","geometry":{"type":"Polygon","coordinates":[[[-70.77689,-33.125211],[-70.780104,-33.125165],[-70.780086,-33.124263],[-70.7833,-33.124217],[-70.783282,-33.123316],[-70.785425,-33.123285],[-70.785407,-33.122383],[-70.786478,-33.122368],[-70.78646,-33.121466],[-70.787532,-33.121451],[-70.787495,-33.119648],[-70.788566,-33.119633],[-70.788493,-33.116026],[-70.789565,-33.116011],[-70.789546,-33.115109],[-70.788475,-33.115125],[-70.788402,-33.111518],[-70.787331,-33.111534],[-70.787312,-33.110632],[-70.786241,-33.110647],[-70.786205,-33.108844],[-70.784062,-33.108875],[-70.784026,-33.107072],[-70.785097,-33.107057],[-70.785079,-33.106155],[-70.78615,-33.10614],[-70.786132,-33.105238],[-70.787203,-33.105223],[-70.787185,-33.104321],[-70.788256,-33.104306],[-70.788219,-33.102503],[-70.78929,-33.102487],[-70.789162,-33.096176],[-70.788091,-33.096191],[-70.788055,-33.094388],[-70.786984,-33.094404],[-70.786965,-33.093502],[-70.785894,-33.093517],[-70.785876,-33.092616],[-70.784805,-33.092631],[-70.784787,-33.09173],[-70.782645,-33.09176],[-70.782627,-33.090859],[-70.774058,-33.090981],[-70.774076,-33.091882],[-70.771934,-33.091913],[-70.771952,-33.092815],[-70.770881,-33.09283],[-70.770899,-33.093731],[-70.766615,-33.093792],[-70.766633,-33.094694],[-70.763419,-33.094739],[-70.763437,-33.095641],[-70.762366,-33.095656],[-70.762384,-33.096558],[-70.761313,-33.096573],[-70.761331,-33.097474],[-70.76026,-33.09749],[-70.760278,-33.098391],[-70.759207,-33.098406],[-70.759243,-33.100209],[-70.758171,-33.100225],[-70.758207,-33.102028],[-70.757136,-33.102043],[-70.757262,-33.108354],[-70.758333,-33.108339],[-70.758369,-33.110142],[-70.757298,-33.110157],[-70.757441,-33.11737],[-70.758513,-33.117355],[-70.758549,-33.119158],[-70.75962,-33.119143],[-70.759638,-33.120045],[-70.76071,-33.120029],[-70.760728,-33.120931],[-70.761799,-33.120916],[-70.761817,-33.121817],[-70.76396,-33.121787],[-70.763978,-33.122689],[-70.771478,-33.122582],[-70.771496,-33.123484],[-70.773639,-33.123453],[-70.773657,-33.124355],[-70.776872,-33.124309],[-70.77689,-33.125211]],[[-70.765922,-33.112741],[-70.765886,-33.110938],[-70.764815,-33.110953],[-70.764761,-33.108248],[-70.763689,-33.108263],[-70.763635,-33.105558],[-70.762564,-33.105574],[-70.76251,-33.102869],[-70.763581,-33.102854],[-70.763545,-33.10105],[-70.764617,-33.101035],[-70.764599,-33.100134],[-70.766741,-33.100103],[-70.766723,-33.099202],[-70.776363,-33.099065],[-70.776382,-33.099966],[-70.777453,-33.099951],[-70.777489,-33.101754],[-70.776418,-33.101769],[-70.776454,-33.103573],[-70.775383,-33.103588],[-70.775401,-33.104489],[-70.77433,-33.104505],[-70.774366,-33.106308],[-70.773295,-33.106323],[-70.773313,-33.107225],[-70.772242,-33.10724],[-70.772278,-33.109043],[-70.771207,-33.109058],[-70.771243,-33.110862],[-70.770171,-33.110877],[-70.770208,-33.11268],[-70.765922,-33.112741]],[[-70.771351,-33.116271],[-70.771333,-33.11537],[-70.770262,-33.115385],[-70.770226,-33.113582],[-70.774511,-33.113521],[-70.774529,-33.114422],[-70.775601,-33.114407],[-70.775637,-33.11621],[-70.771351,-33.116271]]]},"properties":{"gridcode":1,"recurrencia":"Muy baja"}},{"type":"Feature","geometry":{"type":"Polygon","coordinates":[[[-70.820857,-33.126379],[-70.826214,-33.126301],[-70.826196,-33.125399],[-70.828339,-33.125368],[-70.82832,-33.124466],[-70.829391,-33.124451],[-70.829354,-33.122648],[-70.830425,-33.122632],[-70.830351,-33.119026],[-70.829279,-33.119041],[-70.829242,-33.117238],[-70.828171,-33.117254],[-70.828152,-33.116352],[-70.82708,-33.116368],[-70.827062,-33.115467],[-70.819562,-33.115576],[-70.819581,-33.116478],[-70.81851,-33.116494],[-70.818528,-33.117395],[-70.817457,-33.117411],[-70.817475,-33.118312],[-70.816404,-33.118328],[-70.816497,-33.122836],[-70.817568,-33.12282],[-70.817606,-33.124623],[-70.818677,-33.124608],[-70.818696,-33.125509],[-70.820839,-33.125478],[-70.820857,-33.126379]]]},"properties":{"gridcode":2,"recurrencia":"Baja"}},{"type":"Feature","geometry":{"type":"Polygon","coordinates":[[[-70.817717,-33.130033],[-70.828432,-33.129876],[-70.828413,-33.128974],[-70.830556,-33.128943],[-70.830538,-33.128041],[-70.832681,-33.12801],[-70.832643,-33.126207],[-70.833715,-33.126191],[-70.833696,-33.125289],[-70.834767,-33.125273],[-70.834711,-33.122569],[-70.835783,-33.122553],[-70.835708,-33.118947],[-70.834636,-33.118963],[-70.83458,-33.116258],[-70.833509,-33.116274],[-70.83349,-33.115372],[-70.832418,-33.115388],[-70.832381,-33.113585],[-70.83131,-33.113601],[-70.831291,-33.112699],[-70.829148,-33.11273],[-70.82913,-33.111829],[-70.826987,-33.11186],[-70.826968,-33.110959],[-70.820541,-33.111053],[-70.820559,-33.111954],[-70.818417,-33.111986],[-70.818435,-33.112887],[-70.816293,-33.112919],[-70.816311,-33.11382],[-70.81524,-33.113836],[-70.815147,-33.109328],[-70.814076,-33.109343],[-70.814039,-33.10754],[-70.812968,-33.107556],[-70.812949,-33.106654],[-70.811878,-33.10667],[-70.811859,-33.105768],[-70.810788,-33.105784],[-70.81077,-33.104882],[-70.809698,-33.104898],[-70.80968,-33.103996],[-70.806466,-33.104043],[-70.806448,-33.103141],[-70.800021,-33.103234],[-70.800039,-33.104136],[-70.796825,-33.104182],[-70.796844,-33.105084],[-70.795773,-33.105099],[-70.795791,-33.106001],[-70.79472,-33.106016],[-70.794738,-33.106918],[-70.793667,-33.106933],[-70.793703,-33.108737],[-70.792632,-33.108752],[-70.792779,-33.115965],[-70.79385,-33.115949],[-70.793887,-33.117752],[-70.794958,-33.117737],[-70.794976,-33.118639],[-70.796048,-33.118623],[-70.796066,-33.119525],[-70.797138,-33.119509],[-70.797156,-33.120411],[-70.799299,-33.12038],[-70.799317,-33.121281],[-70.80896,-33.121142],[-70.808941,-33.12024],[-70.811084,-33.120209],[-70.811177,-33.124717],[-70.812248,-33.124701],[-70.812285,-33.126504],[-70.813357,-33.126489],[-70.813375,-33.12739],[-70.814447,-33.127375],[-70.814465,-33.128276],[-70.815537,-33.128261],[-70.815555,-33.129162],[-70.817698,-33.129131],[-70.817717,-33.130033]],[[-70.801368,-33.116743],[-70.80135,-33.115841],[-70.799207,-33.115872],[-70.79917,-33.114069],[-70.798099,-33.114084],[-70.798025,-33.110478],[-70.799097,-33.110463],[-70.799078,-33.109561],[-70.800149,-33.109545],[-70.800131,-33.108644],[-70.801202,-33.108628],[-70.801184,-33.107727],[-70.80654,-33.107649],[-70.806559,-33.108551],[-70.80763,-33.108535],[-70.807648,-33.109437],[-70.80872,-33.109421],[-70.808757,-33.111224],[-70.809828,-33.111209],[-70.809883,-33.113914],[-70.808812,-33.113929],[-70.808831,-33.114831],[-70.807759,-33.114846],[-70.807778,-33.115748],[-70.806706,-33.115763],[-70.806725,-33.116665],[-70.801368,-33.116743]],[[-70.820857,-33.126379],[-70.820839,-33.125478],[-70.818696,-33.125509],[-70.818677,-33.124608],[-70.817606,-33.124623],[-70.817568,-33.12282],[-70.816497,-33.122836],[-70.816404,-33.118328],[-70.817475,-33.118312],[-70.817457,-33.117411],[-70.818528,-33.117395],[-70.81851,-33.116494],[-70.819581,-33.116478],[-70.819562,-33.115576],[-70.827062,-33.115467],[-70.82708,-33.116368],[-70.828152,-33.116352],[-70.828171,-33.117254],[-70.829242,-33.117238],[-70.829279,-33.119041],[-70.830351,-33.119026],[-70.830425,-33.122632],[-70.829354,-33.122648],[-70.829391,-33.124451],[-70.82832,-33.124466],[-70.828339,-33.125368],[-70.826196,-33.125399],[-70.826214,-33.126301],[-70.820857,-33.126379]]]},"properties":{"gridcode":1,"recurrencia":"Muy baja"}},{"type":"Feature","geometry":{"type":"Polygon","coordinates":[[[-70.964587,-33.13141],[-70.96673,-33.131376],[-70.96671,-33.130475],[-70.969924,-33.130424],[-70.969904,-33.129522],[-70.973118,-33.129471],[-70.973098,-33.12857],[-70.976312,-33.128519],[-70.976292,-33.127617],[-70.977364,-33.1276],[-70.977303,-33.124896],[-70.976232,-33.124913],[-70.976211,-33.124012],[-70.97514,-33.124029],[-70.97512,-33.123127],[-70.974048,-33.123144],[-70.974028,-33.122243],[-70.968672,-33.122327],[-70.968692,-33.123229],[-70.96762,-33.123246],[-70.967641,-33.124147],[-70.966569,-33.124164],[-70.966589,-33.125066],[-70.965518,-33.125083],[-70.965558,-33.126885],[-70.964487,-33.126902],[-70.964587,-33.13141]]]},"properties":{"gridcode":2,"recurrencia":"Baja"}},{"type":"Feature","geometry":{"type":"Polygon","coordinates":[[[-70.963737,-33.141343],[-70.96588,-33.141309],[-70.96586,-33.140408],[-70.970146,-33.14034],[-70.970126,-33.139439],[-70.971197,-33.139422],[-70.971177,-33.13852],[-70.972249,-33.138503],[-70.972228,-33.137602],[-70.9733,-33.137585],[-70.97328,-33.136683],[-70.974351,-33.136666],[-70.974331,-33.135765],[-70.98076,-33.135663],[-70.98074,-33.134761],[-70.982883,-33.134727],[-70.982862,-33.133826],[-70.983934,-33.133809],[-70.983914,-33.132907],[-70.984985,-33.13289],[-70.984965,-33.131989],[-70.986036,-33.131971],[-70.985996,-33.130168],[-70.987067,-33.130151],[-70.986904,-33.12294],[-70.985833,-33.122957],[-70.985793,-33.121154],[-70.984721,-33.121171],[-70.984701,-33.120269],[-70.98363,-33.120286],[-70.983609,-33.119385],[-70.981467,-33.119419],[-70.981447,-33.118518],[-70.979304,-33.118552],[-70.979284,-33.11765],[-70.97607,-33.117701],[-70.97605,-33.1168],[-70.974978,-33.116817],[-70.974958,-33.115915],[-70.972816,-33.115949],[-70.972796,-33.115048],[-70.964226,-33.115183],[-70.964246,-33.116085],[-70.962103,-33.116118],[-70.962123,-33.11702],[-70.961052,-33.117037],[-70.961072,-33.117938],[-70.960001,-33.117955],[-70.960021,-33.118856],[-70.95895,-33.118873],[-70.95899,-33.120676],[-70.957918,-33.120693],[-70.958018,-33.125201],[-70.956947,-33.125217],[-70.956967,-33.126119],[-70.955896,-33.126136],[-70.955936,-33.127939],[-70.954864,-33.127956],[-70.954904,-33.129759],[-70.953833,-33.129775],[-70.953933,-33.134283],[-70.955004,-33.134266],[-70.955064,-33.136971],[-70.956136,-33.136954],[-70.956156,-33.137855],[-70.957227,-33.137838],[-70.957247,-33.13874],[-70.958319,-33.138723],[-70.958339,-33.139624],[-70.960482,-33.139591],[-70.960502,-33.140492],[-70.963717,-33.140442],[-70.963737,-33.141343]],[[-70.964587,-33.13141],[-70.964487,-33.126902],[-70.965558,-33.126885],[-70.965518,-33.125083],[-70.966589,-33.125066],[-70.966569,-33.124164],[-70.967641,-33.124147],[-70.96762,-33.123246],[-70.968692,-33.123229],[-70.968672,-33.122327],[-70.974028,-33.122243],[-70.974048,-33.123144],[-70.97512,-33.123127],[-70.97514,-33.124029],[-70.976211,-33.124012],[-70.976232,-33.124913],[-70.977303,-33.124896],[-70.977364,-33.1276],[-70.976292,-33.127617],[-70.976312,-33.128519],[-70.973098,-33.12857],[-70.973118,-33.129471],[-70.969904,-33.129522],[-70.969924,-33.130424],[-70.96671,-33.130475],[-70.96673,-33.131376],[-70.964587,-33.13141]]]},"properties":{"gridcode":1,"recurrencia":"Muy baja"}},{"type":"Feature","geometry":{"type":"Polygon","coordinates":[[[-70.793567,-33.154732],[-70.794639,-33.154717],[-70.794621,-33.153815],[-70.798908,-33.153753],[-70.79889,-33.152852],[-70.801033,-33.152821],[-70.801015,-33.151919],[-70.802087,-33.151904],[-70.802068,-33.151002],[-70.80314,-33.150987],[-70.803103,-33.149184],[-70.804175,-33.149168],[-70.804138,-33.147365],[-70.80521,-33.147349],[-70.805117,-33.142842],[-70.804046,-33.142857],[-70.804009,-33.141054],[-70.802937,-33.14107],[-70.8029,-33.139266],[-70.801828,-33.139282],[-70.80181,-33.13838],[-70.800738,-33.138396],[-70.80072,-33.137494],[-70.798577,-33.137525],[-70.798558,-33.136624],[-70.788914,-33.136763],[-70.788932,-33.137664],[-70.787861,-33.13768],[-70.787879,-33.138581],[-70.786807,-33.138596],[-70.786825,-33.139498],[-70.785754,-33.139513],[-70.785772,-33.140415],[-70.7847,-33.14043],[-70.784737,-33.142234],[-70.783665,-33.142249],[-70.783793,-33.14856],[-70.784865,-33.148545],[-70.784901,-33.150348],[-70.785973,-33.150332],[-70.785991,-33.151234],[-70.787063,-33.151219],[-70.787081,-33.15212],[-70.788153,-33.152105],[-70.788171,-33.153006],[-70.789243,-33.152991],[-70.789262,-33.153892],[-70.793549,-33.153831],[-70.793567,-33.154732]]]},"properties":{"gridcode":1,"recurrencia":"Muy baja"}},{"type":"Feature","geometry":{"type":"Polygon","coordinates":[[[-70.888214,-33.168664],[-70.89143,-33.168615],[-70.89141,-33.167713],[-70.892482,-33.167697],[-70.892463,-33.166796],[-70.891391,-33.166812],[-70.891371,-33.16591],[-70.888156,-33.165959],[-70.888214,-33.168664]]]},"properties":{"gridcode":3,"recurrencia":"Media"}},{"type":"Feature","geometry":{"type":"Polygon","coordinates":[[[-70.887238,-33.173188],[-70.895814,-33.173057],[-70.895795,-33.172156],[-70.896867,-33.17214],[-70.896828,-33.170336],[-70.8979,-33.17032],[-70.897803,-33.165813],[-70.896731,-33.165829],[-70.896692,-33.164026],[-70.89562,-33.164042],[-70.895601,-33.163141],[-70.894529,-33.163157],[-70.89451,-33.162255],[-70.892366,-33.162288],[-70.892346,-33.161387],[-70.890203,-33.161419],[-70.890183,-33.160518],[-70.886968,-33.160566],[-70.886987,-33.161468],[-70.884843,-33.1615],[-70.884863,-33.162402],[-70.883791,-33.162418],[-70.88381,-33.16332],[-70.882738,-33.163336],[-70.882758,-33.164237],[-70.881686,-33.164254],[-70.881705,-33.165155],[-70.880633,-33.165171],[-70.88071,-33.168777],[-70.881782,-33.168761],[-70.881801,-33.169663],[-70.882873,-33.169647],[-70.882893,-33.170548],[-70.883965,-33.170532],[-70.883984,-33.171433],[-70.886128,-33.171401],[-70.886147,-33.172302],[-70.887219,-33.172286],[-70.887238,-33.173188]],[[-70.888214,-33.168664],[-70.888156,-33.165959],[-70.891371,-33.16591],[-70.891391,-33.166812],[-70.892463,-33.166796],[-70.892482,-33.167697],[-70.89141,-33.167713],[-70.89143,-33.168615],[-70.888214,-33.168664]]]},"properties":{"gridcode":2,"recurrencia":"Baja"}},{"type":"Feature","geometry":{"type":"Polygon","coordinates":[[[-70.890571,-33.178548],[-70.898075,-33.178434],[-70.898056,-33.177532],[-70.9002,-33.1775],[-70.90018,-33.176598],[-70.901252,-33.176582],[-70.901233,-33.17568],[-70.902305,-33.175664],[-70.902285,-33.174762],[-70.903357,-33.174746],[-70.903338,-33.173844],[-70.90441,-33.173828],[-70.904332,-33.170222],[-70.905404,-33.170206],[-70.905365,-33.168402],[-70.904293,-33.168419],[-70.904234,-33.165714],[-70.903162,-33.165731],[-70.903123,-33.163928],[-70.902052,-33.163944],[-70.902032,-33.163043],[-70.90096,-33.163059],[-70.900941,-33.162157],[-70.898797,-33.16219],[-70.898778,-33.161289],[-70.897706,-33.161305],[-70.897686,-33.160403],[-70.896614,-33.16042],[-70.896595,-33.159518],[-70.895523,-33.159535],[-70.895504,-33.158633],[-70.89336,-33.158666],[-70.893341,-33.157764],[-70.892269,-33.15778],[-70.89225,-33.156879],[-70.889034,-33.156928],[-70.889015,-33.156026],[-70.884728,-33.156091],[-70.884747,-33.156993],[-70.881532,-33.157041],[-70.881551,-33.157943],[-70.880479,-33.157959],[-70.880498,-33.158861],[-70.879426,-33.158877],[-70.879446,-33.159778],[-70.870871,-33.159908],[-70.87089,-33.160809],[-70.869818,-33.160825],[-70.869837,-33.161727],[-70.867694,-33.161759],[-70.867713,-33.16266],[-70.866641,-33.162676],[-70.866679,-33.16448],[-70.865607,-33.164496],[-70.865645,-33.166299],[-70.864573,-33.166315],[-70.864669,-33.170822],[-70.865741,-33.170806],[-70.865798,-33.173511],[-70.86687,-33.173495],[-70.866889,-33.174396],[-70.867961,-33.17438],[-70.867981,-33.175282],[-70.869053,-33.175266],[-70.869072,-33.176167],[-70.870144,-33.176151],[-70.870163,-33.177053],[-70.873379,-33.177004],[-70.873398,-33.177906],[-70.877687,-33.177841],[-70.877667,-33.17694],[-70.880883,-33.176891],[-70.880864,-33.17599],[-70.881936,-33.175973],[-70.881917,-33.175072],[-70.884061,-33.175039],[-70.88408,-33.175941],[-70.887296,-33.175892],[-70.887316,-33.176794],[-70.888388,-33.176778],[-70.888407,-33.177679],[-70.890551,-33.177647],[-70.890571,-33.178548]],[[-70.887238,-33.173188],[-70.887219,-33.172286],[-70.886147,-33.172302],[-70.886128,-33.171401],[-70.883984,-33.171433],[-70.883965,-33.170532],[-70.882893,-33.170548],[-70.882873,-33.169647],[-70.881801,-33.169663],[-70.881782,-33.168761],[-70.88071,-33.168777],[-70.880633,-33.165171],[-70.881705,-33.165155],[-70.881686,-33.164254],[-70.882758,-33.164237],[-70.882738,-33.163336],[-70.88381,-33.16332],[-70.883791,-33.162418],[-70.884863,-33.162402],[-70.884843,-33.1615],[-70.886987,-33.161468],[-70.886968,-33.160566],[-70.890183,-33.160518],[-70.890203,-33.161419],[-70.892346,-33.161387],[-70.892366,-33.162288],[-70.89451,-33.162255],[-70.894529,-33.163157],[-70.895601,-33.163141],[-70.89562,-33.164042],[-70.896692,-33.164026],[-70.896731,-33.165829],[-70.897803,-33.165813],[-70.8979,-33.17032],[-70.896828,-33.170336],[-70.896867,-33.17214],[-70.895795,-33.172156],[-70.895814,-33.173057],[-70.887238,-33.173188]]]},"properties":{"gridcode":1,"recurrencia":"Muy baja"}},{"type":"Feature","geometry":{"type":"Polygon","coordinates":[[[-70.780326,-33.189192],[-70.78676,-33.1891],[-70.786723,-33.187297],[-70.784579,-33.187328],[-70.78456,-33.186426],[-70.780271,-33.186487],[-70.78029,-33.187389],[-70.779217,-33.187404],[-70.779236,-33.188306],[-70.780308,-33.188291],[-70.780326,-33.189192]]]},"properties":{"gridcode":2,"recurrencia":"Baja"}},{"type":"Feature","geometry":{"type":"Polygon","coordinates":[[[-70.834164,-33.199232],[-70.840598,-33.199137],[-70.840579,-33.198236],[-70.841651,-33.19822],[-70.841594,-33.195515],[-70.840522,-33.195531],[-70.840503,-33.194629],[-70.839431,-33.194645],[-70.839412,-33.193744],[-70.832978,-33.193839],[-70.832997,-33.19474],[-70.831925,-33.194756],[-70.831981,-33.197461],[-70.833054,-33.197445],[-70.833072,-33.198346],[-70.834145,-33.198331],[-70.834164,-33.199232]]]},"properties":{"gridcode":2,"recurrencia":"Baja"}},{"type":"Feature","geometry":{"type":"Polygon","coordinates":[[[-70.777437,-33.205467],[-70.77851,-33.205451],[-70.778491,-33.20455],[-70.779564,-33.204534],[-70.779527,-33.202731],[-70.775238,-33.202792],[-70.775274,-33.204596],[-70.777419,-33.204565],[-70.777437,-33.205467]]]},"properties":{"gridcode":3,"recurrencia":"Media"}},{"type":"Feature","geometry":{"type":"Polygon","coordinates":[[[-70.773238,-33.210036],[-70.780746,-33.209928],[-70.780728,-33.209027],[-70.783945,-33.208981],[-70.783927,-33.208079],[-70.786072,-33.208048],[-70.786054,-33.207147],[-70.787126,-33.207131],[-70.787089,-33.205328],[-70.788162,-33.205313],[-70.788088,-33.201707],[-70.787016,-33.201722],[-70.786998,-33.20082],[-70.785925,-33.200836],[-70.785907,-33.199934],[-70.784835,-33.19995],[-70.784816,-33.199048],[-70.782672,-33.199079],[-70.782653,-33.198177],[-70.778364,-33.198239],[-70.778346,-33.197337],[-70.774056,-33.197398],[-70.774074,-33.1983],[-70.768712,-33.198376],[-70.768731,-33.199278],[-70.767658,-33.199293],[-70.767676,-33.200195],[-70.766604,-33.20021],[-70.76664,-33.202013],[-70.767713,-33.201998],[-70.767767,-33.204702],[-70.768839,-33.204687],[-70.768894,-33.207392],[-70.769966,-33.207377],[-70.769984,-33.208278],[-70.771057,-33.208263],[-70.771075,-33.209165],[-70.77322,-33.209134],[-70.773238,-33.210036]],[[-70.777437,-33.205467],[-70.777419,-33.204565],[-70.775274,-33.204596],[-70.775238,-33.202792],[-70.779527,-33.202731],[-70.779564,-33.204534],[-70.778491,-33.20455],[-70.77851,-33.205451],[-70.777437,-33.205467]]]},"properties":{"gridcode":2,"recurrencia":"Baja"}},{"type":"Feature","geometry":{"type":"Polygon","coordinates":[[[-70.91925,-33.215083],[-70.92354,-33.215017],[-70.923521,-33.214115],[-70.925665,-33.214082],[-70.925567,-33.209575],[-70.924494,-33.209591],[-70.924475,-33.20869],[-70.92233,-33.208723],[-70.92231,-33.207821],[-70.91802,-33.207888],[-70.91804,-33.208789],[-70.916968,-33.208806],[-70.916987,-33.209707],[-70.915915,-33.209724],[-70.915974,-33.212428],[-70.917046,-33.212412],[-70.917066,-33.213313],[-70.918138,-33.213297],[-70.918158,-33.214198],[-70.919231,-33.214182],[-70.91925,-33.215083]]]},"properties":{"gridcode":2,"recurrencia":"Baja"}},{"type":"Feature","geometry":{"type":"Polygon","coordinates":[[[-70.990053,-33.214872],[-70.99327,-33.214821],[-70.99325,-33.213919],[-70.994322,-33.213902],[-70.994302,-33.213001],[-70.995374,-33.212983],[-70.995272,-33.208476],[-70.9942,-33.208493],[-70.994179,-33.207592],[-70.993107,-33.207609],[-70.993086,-33.206708],[-70.992014,-33.206725],[-70.991994,-33.205823],[-70.988777,-33.205875],[-70.988797,-33.206776],[-70.987725,-33.206793],[-70.987745,-33.207695],[-70.986673,-33.207712],[-70.986775,-33.212219],[-70.987847,-33.212202],[-70.987867,-33.213104],[-70.98894,-33.213086],[-70.98896,-33.213988],[-70.990033,-33.213971],[-70.990053,-33.214872]]]},"properties":{"gridcode":2,"recurrencia":"Baja"}},{"type":"Feature","geometry":{"type":"Polygon","coordinates":[[[-70.8067,-33.22],[-70.806671,-33.218573],[-70.805599,-33.218588],[-70.80558,-33.217687],[-70.804508,-33.217702],[-70.804471,-33.215899],[-70.803398,-33.215915],[-70.803361,-33.214112],[-70.802288,-33.214127],[-70.80227,-33.213226],[-70.801197,-33.213241],[-70.801179,-33.21234],[-70.800106,-33.212355],[-70.800088,-33.211454],[-70.794725,-33.211531],[-70.794744,-33.212433],[-70.793671,-33.212448],[-70.79369,-33.21335],[-70.792617,-33.213365],[-70.792727,-33.218775],[-70.7938,-33.218759],[-70.793818,-33.219661],[-70.794891,-33.219645],[-70.794898,-33.22],[-70.8067,-33.22]]]},"properties":{"gridcode":2,"recurrencia":"Baja"}},{"type":"Feature","geometry":{"type":"Polygon","coordinates":[[[-70.999825,-33.22],[-70.999808,-33.219225],[-71.00088,-33.219207],[-71.00086,-33.218306],[-71.001932,-33.218289],[-71.001891,-33.216486],[-71.002963,-33.216469],[-71.00282,-33.210158],[-71.001747,-33.210176],[-71.001706,-33.208373],[-71.000634,-33.20839],[-71.000552,-33.204784],[-70.999479,-33.204801],[-70.999418,-33.202097],[-70.998346,-33.202114],[-70.998325,-33.201213],[-70.997253,-33.20123],[-70.997232,-33.200329],[-70.99616,-33.200346],[-70.99614,-33.199444],[-70.993995,-33.199479],[-70.993975,-33.198577],[-70.985397,-33.198714],[-70.985417,-33.199616],[-70.983273,-33.19965],[-70.983293,-33.200552],[-70.982221,-33.200569],[-70.982241,-33.20147],[-70.981169,-33.201487],[-70.981189,-33.202389],[-70.980117,-33.202406],[-70.980157,-33.204209],[-70.979085,-33.204226],[-70.979227,-33.210536],[-70.9803,-33.210519],[-70.98034,-33.212322],[-70.981413,-33.212305],[-70.981494,-33.215911],[-70.982566,-33.215894],[-70.982627,-33.218598],[-70.9837,-33.218581],[-70.98372,-33.219482],[-70.984793,-33.219465],[-70.984805,-33.22],[-70.999825,-33.22]],[[-70.990053,-33.214872],[-70.990033,-33.213971],[-70.98896,-33.213988],[-70.98894,-33.213086],[-70.987867,-33.213104],[-70.987847,-33.212202],[-70.986775,-33.212219],[-70.986673,-33.207712],[-70.987745,-33.207695],[-70.987725,-33.206793],[-70.988797,-33.206776],[-70.988777,-33.205875],[-70.991994,-33.205823],[-70.992014,-33.206725],[-70.993086,-33.206708],[-70.993107,-33.207609],[-70.994179,-33.207592],[-70.9942,-33.208493],[-70.995272,-33.208476],[-70.995374,-33.212983],[-70.994302,-33.213001],[-70.994322,-33.213902],[-70.99325,-33.213919],[-70.99327,-33.214821],[-70.990053,-33.214872]]]},"properties":{"gridcode":1,"recurrencia":"Muy baja"}},{"type":"Feature","geometry":{"type":"Polygon","coordinates":[[[-70.919358,-33.22],[-70.919349,-33.219591],[-70.917204,-33.219624],[-70.917212,-33.22],[-70.919358,-33.22]]]},"properties":{"gridcode":2,"recurrencia":"Baja"}},{"type":"Feature","geometry":{"type":"Polygon","coordinates":[[[-70.930087,-33.22],[-70.930074,-33.219425],[-70.932219,-33.219391],[-70.932199,-33.21849],[-70.933272,-33.218473],[-70.933232,-33.21667],[-70.934305,-33.216653],[-70.934265,-33.21485],[-70.935338,-33.214834],[-70.935199,-33.208523],[-70.934126,-33.20854],[-70.934087,-33.206737],[-70.933014,-33.206754],[-70.932994,-33.205852],[-70.931922,-33.205869],[-70.931902,-33.204967],[-70.93083,-33.204984],[-70.93081,-33.204083],[-70.928665,-33.204116],[-70.928646,-33.203214],[-70.923284,-33.203297],[-70.923264,-33.202396],[-70.920047,-33.202446],[-70.920027,-33.201544],[-70.913593,-33.201643],[-70.913613,-33.202545],[-70.911468,-33.202578],[-70.911488,-33.203479],[-70.910416,-33.203496],[-70.910435,-33.204397],[-70.909363,-33.204414],[-70.909382,-33.205315],[-70.90831,-33.205332],[-70.90833,-33.206233],[-70.907257,-33.206249],[-70.907316,-33.208954],[-70.906244,-33.20897],[-70.906322,-33.212576],[-70.907394,-33.21256],[-70.907453,-33.215265],[-70.908525,-33.215248],[-70.908545,-33.21615],[-70.909617,-33.216133],[-70.909657,-33.217936],[-70.908584,-33.217953],[-70.908604,-33.218854],[-70.907531,-33.218871],[-70.907551,-33.219772],[-70.906478,-33.219789],[-70.906483,-33.22],[-70.930087,-33.22]],[[-70.91925,-33.215083],[-70.919231,-33.214182],[-70.918158,-33.214198],[-70.918138,-33.213297],[-70.917066,-33.213313],[-70.917046,-33.212412],[-70.915974,-33.212428],[-70.915915,-33.209724],[-70.916987,-33.209707],[-70.916968,-33.208806],[-70.91804,-33.208789],[-70.91802,-33.207888],[-70.92231,-33.207821],[-70.92233,-33.208723],[-70.924475,-33.20869],[-70.924494,-33.209591],[-70.925567,-33.209575],[-70.925665,-33.214082],[-70.923521,-33.214115],[-70.92354,-33.215017],[-70.91925,-33.215083]],[[-70.917212,-33.22],[-70.917204,-33.219624],[-70.919349,-33.219591],[-70.919358,-33.22],[-70.917212,-33.22]]]},"properties":{"gridcode":1,"recurrencia":"Muy baja"}},{"type":"Feature","geometry":{"type":"Polygon","coordinates":[[[-70.838604,-33.206381],[-70.845038,-33.206286],[-70.845019,-33.205384],[-70.847164,-33.205353],[-70.847145,-33.204451],[-70.848218,-33.204435],[-70.848199,-33.203534],[-70.849271,-33.203518],[-70.849252,-33.202616],[-70.850325,-33.2026],[-70.850306,-33.201699],[-70.851378,-33.201683],[-70.851321,-33.198978],[-70.852393,-33.198962],[-70.852317,-33.195356],[-70.851245,-33.195372],[-70.851188,-33.192667],[-70.850116,-33.192683],[-70.850097,-33.191782],[-70.849025,-33.191798],[-70.848987,-33.189995],[-70.846842,-33.190026],[-70.846823,-33.189125],[-70.844679,-33.189157],[-70.84466,-33.188255],[-70.837155,-33.188366],[-70.837136,-33.187465],[-70.834991,-33.187496],[-70.834973,-33.186595],[-70.829612,-33.186674],[-70.82963,-33.187575],[-70.827486,-33.187607],[-70.827505,-33.188508],[-70.82536,-33.18854],[-70.825379,-33.189441],[-70.824307,-33.189457],[-70.824325,-33.190359],[-70.823253,-33.190374],[-70.82329,-33.192177],[-70.822218,-33.192193],[-70.822386,-33.200307],[-70.821314,-33.200323],[-70.821333,-33.201224],[-70.82026,-33.20124],[-70.820279,-33.202142],[-70.819207,-33.202157],[-70.819225,-33.203059],[-70.818153,-33.203075],[-70.81819,-33.204878],[-70.817118,-33.204893],[-70.817267,-33.212106],[-70.818339,-33.21209],[-70.818377,-33.213893],[-70.817304,-33.213909],[-70.81736,-33.216613],[-70.816287,-33.216629],[-70.816269,-33.215728],[-70.815196,-33.215743],[-70.815178,-33.214842],[-70.814105,-33.214857],[-70.814086,-33.213956],[-70.811941,-33.213987],[-70.811923,-33.213085],[-70.808705,-33.213132],[-70.808687,-33.212231],[-70.807614,-33.212246],[-70.807595,-33.211345],[-70.806523,-33.21136],[-70.806486,-33.209557],[-70.807558,-33.209542],[-70.80754,-33.20864],[-70.808612,-33.208625],[-70.808594,-33.207723],[-70.809666,-33.207707],[-70.809629,-33.205904],[-70.810702,-33.205889],[-70.810572,-33.199578],[-70.809499,-33.199593],[-70.809462,-33.19779],[-70.80839,-33.197806],[-70.808371,-33.196904],[-70.807299,-33.19692],[-70.80728,-33.196018],[-70.806208,-33.196034],[-70.80619,-33.195132],[-70.804045,-33.195163],[-70.804026,-33.194262],[-70.79652,-33.19437],[-70.796502,-33.193469],[-70.797574,-33.193453],[-70.797556,-33.192552],[-70.798628,-33.192536],[-70.798462,-33.184422],[-70.79739,-33.184438],[-70.797372,-33.183536],[-70.796299,-33.183552],[-70.796263,-33.181749],[-70.794118,-33.181779],[-70.7941,-33.180878],[-70.793028,-33.180893],[-70.793009,-33.179992],[-70.788721,-33.180053],[-70.788703,-33.179152],[-70.78763,-33.179167],[-70.787649,-33.180069],[-70.78336,-33.18013],[-70.783342,-33.179229],[-70.781198,-33.17926],[-70.781179,-33.178358],[-70.773674,-33.178465],[-70.773693,-33.179367],[-70.771548,-33.179397],[-70.771566,-33.180299],[-70.770494,-33.180314],[-70.770512,-33.181216],[-70.76944,-33.181231],[-70.769458,-33.182133],[-70.768386,-33.182148],[-70.768422,-33.183951],[-70.76735,-33.183966],[-70.767459,-33.189376],[-70.766387,-33.189391],[-70.766369,-33.188489],[-70.758863,-33.188596],[-70.758881,-33.189497],[-70.756736,-33.189527],[-70.756754,-33.190429],[-70.755682,-33.190444],[-70.7557,-33.191346],[-70.754628,-33.191361],[-70.754646,-33.192262],[-70.753573,-33.192278],[-70.753609,-33.194081],[-70.752537,-33.194096],[-70.752591,-33.196801],[-70.751518,-33.196816],[-70.751554,-33.198619],[-70.752627,-33.198604],[-70.752681,-33.201309],[-70.753753,-33.201293],[-70.753789,-33.203097],[-70.754861,-33.203081],[-70.754879,-33.203983],[-70.755952,-33.203968],[-70.75597,-33.20487],[-70.757042,-33.204854],[-70.75706,-33.205756],[-70.760278,-33.20571],[-70.760296,-33.206612],[-70.762441,-33.206582],[-70.762477,-33.208385],[-70.763549,-33.20837],[-70.763586,-33.210173],[-70.764658,-33.210158],[-70.764676,-33.211059],[-70.765749,-33.211044],[-70.765767,-33.211946],[-70.766839,-33.21193],[-70.766858,-33.212832],[-70.769003,-33.212801],[-70.769021,-33.213703],[-70.772239,-33.213657],[-70.772257,-33.214559],[-70.775474,-33.214513],[-70.775493,-33.215414],[-70.779783,-33.215353],[-70.779765,-33.214452],[-70.782982,-33.214405],[-70.782964,-33.213504],[-70.786182,-33.213458],[-70.786273,-33.217966],[-70.787346,-33.21795],[-70.787383,-33.219753],[-70.788455,-33.219738],[-70.788461,-33.22],[-70.852836,-33.22],[-70.85283,-33.219697],[-70.851758,-33.219713],[-70.851682,-33.216107],[-70.850609,-33.216123],[-70.85059,-33.215222],[-70.849518,-33.215238],[-70.849499,-33.214336],[-70.848426,-33.214352],[-70.848407,-33.213451],[-70.847335,-33.213466],[-70.847316,-33.212565],[-70.845171,-33.212597],[-70.845152,-33.211695],[-70.837644,-33.211806],[-70.837663,-33.212708],[-70.836591,-33.212724],[-70.836572,-33.211822],[-70.837644,-33.211806],[-70.837588,-33.209102],[-70.83866,-33.209086],[-70.838604,-33.206381],[-70.837531,-33.206397],[-70.837512,-33.205496],[-70.838585,-33.20548],[-70.838604,-33.206381]],[[-70.78676,-33.1891],[-70.780326,-33.189192],[-70.780308,-33.188291],[-70.779236,-33.188306],[-70.779217,-33.187404],[-70.78029,-33.187389],[-70.780271,-33.186487],[-70.78456,-33.186426],[-70.784579,-33.187328],[-70.786723,-33.187297],[-70.78676,-33.1891]],[[-70.840598,-33.199137],[-70.834164,-33.199232],[-70.834145,-33.198331],[-70.833072,-33.198346],[-70.833054,-33.197445],[-70.831981,-33.197461],[-70.831925,-33.194756],[-70.832997,-33.19474],[-70.832978,-33.193839],[-70.839412,-33.193744],[-70.839431,-33.194645],[-70.840503,-33.194629],[-70.840522,-33.195531],[-70.841594,-33.195515],[-70.841651,-33.19822],[-70.840579,-33.198236],[-70.840598,-33.199137]],[[-70.8067,-33.22],[-70.794898,-33.22],[-70.794891,-33.219645],[-70.793818,-33.219661],[-70.7938,-33.218759],[-70.792727,-33.218775],[-70.792617,-33.213365],[-70.79369,-33.21335],[-70.793671,-33.212448],[-70.794744,-33.212433],[-70.794725,-33.211531],[-70.800088,-33.211454],[-70.800106,-33.212355],[-70.801179,-33.21234],[-70.801197,-33.213241],[-70.80227,-33.213226],[-70.802288,-33.214127],[-70.803361,-33.214112],[-70.803398,-33.215915],[-70.804471,-33.215899],[-70.804508,-33.217702],[-70.80558,-33.217687],[-70.805599,-33.218588],[-70.806671,-33.218573],[-70.8067,-33.22]],[[-70.780746,-33.209928],[-70.773238,-33.210036],[-70.77322,-33.209134],[-70.771075,-33.209165],[-70.771057,-33.208263],[-70.769984,-33.208278],[-70.769966,-33.207377],[-70.768894,-33.207392],[-70.768839,-33.204687],[-70.767767,-33.204702],[-70.767713,-33.201998],[-70.76664,-33.202013],[-70.766604,-33.20021],[-70.767676,-33.200195],[-70.767658,-33.199293],[-70.768731,-33.199278],[-70.768712,-33.198376],[-70.774074,-33.1983],[-70.774056,-33.197398],[-70.778346,-33.197337],[-70.778364,-33.198239],[-70.782653,-33.198177],[-70.782672,-33.199079],[-70.784816,-33.199048],[-70.784835,-33.19995],[-70.785907,-33.199934],[-70.785925,-33.200836],[-70.786998,-33.20082],[-70.787016,-33.201722],[-70.788088,-33.201707],[-70.788162,-33.205313],[-70.787089,-33.205328],[-70.787126,-33.207131],[-70.786054,-33.207147],[-70.786072,-33.208048],[-70.783927,-33.208079],[-70.783945,-33.208981],[-70.780728,-33.209027],[-70.780746,-33.209928]]]},"properties":{"gridcode":1,"recurrencia":"Muy baja"}},{"type":"Feature","geometry":{"type":"Polygon","coordinates":[[[-70.783096,-33.22],[-70.783092,-33.219815],[-70.782019,-33.21983],[-70.782001,-33.218929],[-70.780929,-33.218944],[-70.78091,-33.218042],[-70.778765,-33.218073],[-70.778747,-33.217172],[-70.770166,-33.217294],[-70.770184,-33.218196],[-70.769112,-33.218211],[-70.769093,-33.217309],[-70.766948,-33.21734],[-70.76693,-33.216438],[-70.764785,-33.216469],[-70.764767,-33.215567],[-70.758331,-33.215658],[-70.758349,-33.21656],[-70.756204,-33.21659],[-70.756222,-33.217492],[-70.755149,-33.217507],[-70.755167,-33.218408],[-70.754095,-33.218424],[-70.754113,-33.219325],[-70.75304,-33.21934],[-70.753053,-33.22],[-70.783096,-33.22]]]},"properties":{"gridcode":1,"recurrencia":"Muy baja"}},{"type":"Feature","geometry":{"type":"Polygon","coordinates":[[[-70.742324,-33.22],[-70.742314,-33.219491],[-70.741241,-33.219506],[-70.741223,-33.218604],[-70.739078,-33.218634],[-70.73906,-33.217733],[-70.733697,-33.217808],[-70.733715,-33.218709],[-70.730497,-33.218754],[-70.730515,-33.219656],[-70.729442,-33.219671],[-70.729449,-33.22],[-70.723011,-33.22],[-70.723006,-33.21976],[-70.720861,-33.21979],[-70.720865,-33.22],[-70.705552,-33.22],[-70.705843,-33.219996],[-70.705826,-33.219095],[-70.707971,-33.219065],[-70.707953,-33.218164],[-70.709026,-33.218149],[-70.709009,-33.217247],[-70.710081,-33.217233],[-70.710064,-33.216331],[-70.711136,-33.216316],[-70.711101,-33.214513],[-70.712174,-33.214498],[-70.712051,-33.208187],[-70.710978,-33.208202],[-70.710943,-33.206399],[-70.709871,-33.206413],[-70.709853,-33.205512],[-70.708781,-33.205527],[-70.708763,-33.204625],[-70.707691,-33.20464],[-70.707673,-33.203738],[-70.706601,-33.203753],[-70.706583,-33.202851],[-70.703366,-33.202895],[-70.703348,-33.201994],[-70.705493,-33.201964],[-70.705476,-33.201063],[-70.706548,-33.201048],[-70.706531,-33.200146],[-70.707603,-33.200132],[-70.707568,-33.198328],[-70.708641,-33.198314],[-70.708483,-33.190199],[-70.707411,-33.190214],[-70.707393,-33.189312],[-70.706321,-33.189327],[-70.706286,-33.187524],[-70.704141,-33.187553],[-70.704124,-33.186652],[-70.703052,-33.186666],[-70.703034,-33.185765],[-70.7,-33.185806],[-70.7,-33.22],[-70.742324,-33.22]]]},"properties":{"gridcode":1,"recurrencia":"Muy baja"}}]}