{"type":"FeatureCollection","features":[{"type":"Feature","geometry":{"type":"Polygon","coordinates":[[[-70.602593,-33.568132],[-70.604191,-33.568603],[-70.608695,-33.569799],[-70.608671,-33.569299],[-70.608395,-33.567086],[-70.608302,-33.565497],[-70.608371,-33.564693],[-70.608344,-33.56469],[-70.608481,-33.563846],[-70.604951,-33.563517],[-70.604799,-33.564255],[-70.599794,-33.563784],[-70.599571,-33.565574],[-70.602823,-33.565943],[-70.602593,-33.568132]]]},"properties":{"ORD_1":"Artículo 8.2.1.2.De Derrumbes y Asentamiento del Suelo","ORD_2":"San Francisco"}},{"type":"Feature","geometry":{"type":"Polygon","coordinates":[[[-70.6041,-33.573711],[-70.604085,-33.572901],[-70.606507,-33.57325],[-70.606451,-33.570248],[-70.606477,-33.569592],[-70.604052,-33.568944],[-70.600326,-33.567833],[-70.599962,-33.573132],[-70.6041,-33.573711]]]},"properties":{"ORD_1":"Artículo 8.2.1.2.De Derrumbes y Asentamiento del Suelo","ORD_2":"San Francisco"}},{"type":"Feature","geometry":{"type":"Polygon","coordinates":[[[-70.597462,-33.568521],[-70.596485,-33.568958],[-70.592901,-33.570395],[-70.592719,-33.570516],[-70.592406,-33.570904],[-70.592019,-33.571244],[-70.59166,-33.571519],[-70.591265,-33.571706],[-70.590224,-33.571982],[-70.589474,-33.572392],[-70.588671,-33.572601],[-70.587649,-33.572981],[-70.587324,-33.574893],[-70.586907,-33.576985],[-70.589989,-33.577469],[-70.590681,-33.574231],[-70.590881,-33.574244],[-70.597015,-33.575622],[-70.597014,-33.574401],[-70.597082,-33.574413],[-70.597221,-33.573183],[-70.59725,-33.573187],[-70.597204,-33.572755],[-70.597254,-33.572762],[-70.597335,-33.571521],[-70.597245,-33.571447],[-70.597462,-33.568521]]]},"properties":{"ORD_1":"Artículo 8.2.1.2.De Derrumbes y Asentamiento del Suelo","ORD_2":"San Francisco"}},{"type":"Feature","geometry":{"type":"Polygon","coordinates":[[[-70.542003,-33.511465],[-70.542356,-33.51155],[-70.542485,-33.511225],[-70.54259,-33.51056],[-70.542751,-33.509839],[-70.542981,-33.509407],[-70.543323,-33.508636],[-70.54338,-33.508441],[-70.543575,-33.507541],[-70.543818,-33.50591],[-70.536327,-33.505513],[-70.535069,-33.509499],[-70.535444,-33.50958],[-70.535893,-33.509751],[-70.538141,-33.51041],[-70.539258,-33.510903],[-70.539693,-33.511016],[-70.54044,-33.511091],[-70.540868,-33.511175],[-70.541097,-33.511248],[-70.541614,-33.511344],[-70.542003,-33.511465]]]},"properties":{"ORD_1":"Artículo 8.2.1.2.De Derrumbes y Asentamiento del Suelo","ORD_2":"Quebrada Macul- Canal Las Predices"}}]}