{"type":"FeatureCollection","features":[{"type":"Feature","geometry":{"type":"Point","coordinates":[-70.548313,-33.513492]},"properties":{"sector":"Baden Las Perdices","causa_punt":"Flujos de barro/detritos (Aluvión)","nivel_de_riesgo_2022":"Muy Alto"}},{"type":"Feature","geometry":{"type":"Point","coordinates":[-70.507748,-33.500583]},"properties":{"sector":"Quebrada 0-11 de Macul","causa_punt":"Activación de quebradas","nivel_de_riesgo_2022":"Muy Alto"}},{"type":"Feature","geometry":{"type":"Point","coordinates":[-70.531692,-33.533994]},"properties":{"sector":"Quebrada 0-7 Sin Nombre","causa_punt":"Activación de quebradas","nivel_de_riesgo_2022":"Muy Alto"}},{"type":"Feature","geometry":{"type":"Point","coordinates":[-70.557171,-33.514906]},"properties":{"sector":"Campamento Quebrada de Macul 2","causa_punt":"Activación de quebradas","nivel_de_riesgo_2022":"Muy Alto"}},{"type":"Feature","geometry":{"type":"Point","coordinates":[-70.551748,-33.513228]},"properties":{"sector":"Campamento Santa Luisa 2","causa_punt":"Activación de quebradas","nivel_de_riesgo_2022":"Muy Alto"}},{"type":"Feature","geometry":{"type":"Point","coordinates":[-70.550256,-33.512767]},"properties":{"sector":"Campamento Santa Luisa","causa_punt":"Activación de quebradas","nivel_de_riesgo_2022":"Muy Alto"}},{"type":"Feature","geometry":{"type":"Point","coordinates":[-70.554236,-33.514604]},"properties":{"sector":"Campamento Dignidad","causa_punt":"Activación de quebradas","nivel_de_riesgo_2022":"Muy Alto"}},{"type":"Feature","geometry":{"type":"Point","coordinates":[-70.520073,-33.514205]},"properties":{"sector":"Quebrada 0-10 Las Perdices","causa_punt":"Activación de quebradas","nivel_de_riesgo_2022":"Muy Alto"}},{"type":"Feature","geometry":{"type":"Point","coordinates":[-70.527897,-33.514797]},"properties":{"sector":"Quebrada 0-9 Sin Nombre","causa_punt":"Activación de quebradas","nivel_de_riesgo_2022":"Muy Alto"}},{"type":"Feature","geometry":{"type":"Point","coordinates":[-70.513362,-33.52992]},"properties":{"sector":"Quebrada 0-8 Lo Cañass","causa_punt":"Activación de quebradas","nivel_de_riesgo_2022":"Muy Alto"}},{"type":"Feature","geometry":{"type":"Point","coordinates":[-70.55207,-33.513838]},"properties":{"sector":"Zona de Exclusion Poblacion La Higuera","causa_punt":"Activación de quebradas","nivel_de_riesgo_2022":"Muy Alto"}}]}