{"type":"FeatureCollection","features":[{"type":"Feature","geometry":{"type":"LineString","coordinates":[[-70.541957,-33.512867],[-70.542538,-33.513055],[-70.543513,-33.513036],[-70.544053,-33.513064],[-70.54442,-33.513],[-70.54515,-33.513148],[-70.545849,-33.51324],[-70.546249,-33.513354],[-70.546976,-33.513457],[-70.547665,-33.513701],[-70.547913,-33.513677],[-70.548259,-33.51375],[-70.54936,-33.514082],[-70.550315,-33.514202],[-70.550745,-33.514385],[-70.551122,-33.514481],[-70.551575,-33.514645],[-70.552062,-33.514997],[-70.552771,-33.515233],[-70.553222,-33.515303],[-70.553412,-33.515413],[-70.553676,-33.515498],[-70.554007,-33.515582],[-70.555376,-33.515753],[-70.556308,-33.515986],[-70.556824,-33.516194],[-70.557171,-33.516437],[-70.557373,-33.516664],[-70.557825,-33.51762],[-70.558052,-33.517778]]},"properties":{"NOMBRE":"Macul","TRAMO":"Desde Límite de Ext. Urbana Hasta Canal San Carlos","COMUNA":"La Florida"}},{"type":"Feature","geometry":{"type":"LineString","coordinates":[[-70.538086,-33.556071],[-70.53963,-33.555676],[-70.540798,-33.554825]]},"properties":{"NOMBRE":"Sin Nombre","TRAMO":"Desde Limite de Ext. Urbana Hasta Quebrada Morfilana","COMUNA":"Puente Alto"}},{"type":"Feature","geometry":{"type":"LineString","coordinates":[[-70.538086,-33.556071],[-70.536708,-33.556501],[-70.536324,-33.556737],[-70.535664,-33.556977],[-70.53506,-33.55731],[-70.53435,-33.557875],[-70.533523,-33.558071]]},"properties":{"NOMBRE":"Sin Nombre","TRAMO":"Desde Límite de Ext. Urbana Hasta Quebrada O-4","COMUNA":"Puente Alto"}},{"type":"Feature","geometry":{"type":"LineString","coordinates":[[-70.535426,-33.559469],[-70.536523,-33.55859],[-70.537231,-33.557886],[-70.537811,-33.556209]]},"properties":{"NOMBRE":"Sin Nombre","TRAMO":"Desde Limite de Ext. Urbana Hasta Quebrada Morfilana","COMUNA":"Puente Alto"}},{"type":"Feature","geometry":{"type":"LineString","coordinates":[[-70.529842,-33.563451],[-70.531054,-33.56289],[-70.531535,-33.562429],[-70.532119,-33.561592],[-70.533469,-33.56043],[-70.534888,-33.559682],[-70.535426,-33.559469]]},"properties":{"NOMBRE":"Sin Nombre","TRAMO":"Desde Limite de Ext. Urbana Hasta Quebrada Morfilana","COMUNA":"Puente Alto"}},{"type":"Feature","geometry":{"type":"LineString","coordinates":[[-70.518024,-33.591371],[-70.517965,-33.590921],[-70.517255,-33.590013],[-70.516956,-33.589532],[-70.516534,-33.58912],[-70.516437,-33.588767],[-70.516129,-33.588087],[-70.515766,-33.587638],[-70.515115,-33.587097],[-70.515067,-33.58692],[-70.515099,-33.586377],[-70.515078,-33.586198],[-70.514732,-33.585741],[-70.51474,-33.585198],[-70.514575,-33.584864],[-70.514261,-33.584388],[-70.514185,-33.584218],[-70.514157,-33.583856],[-70.514075,-33.583502],[-70.513709,-33.583055],[-70.513623,-33.582701],[-70.513491,-33.582559],[-70.51341,-33.582203],[-70.512917,-33.581198],[-70.51259,-33.580729],[-70.51221,-33.580288],[-70.512125,-33.579934],[-70.511775,-33.579721]]},"properties":{"NOMBRE":"Las Vizcachas","TRAMO":"Desde Limite de Ext. Urbana Hasta Canal de La Luz o Florida","COMUNA":"Puente Alto"}},{"type":"Feature","geometry":{"type":"LineString","coordinates":[[-70.527918,-33.563021],[-70.528163,-33.563062],[-70.528414,-33.563053],[-70.530071,-33.563286]]},"properties":{"NOMBRE":"Sin Nombre","TRAMO":"Desde Limite de Ext. Urbana Hasta Quebrada Morfilana","COMUNA":"Puente Alto"}},{"type":"Feature","geometry":{"type":"LineString","coordinates":[[-70.517272,-33.489589],[-70.518139,-33.489788],[-70.519156,-33.489693],[-70.519393,-33.489649],[-70.51962,-33.489563],[-70.520135,-33.489207],[-70.520385,-33.488941],[-70.520671,-33.488431],[-70.520816,-33.488287],[-70.52098,-33.487852],[-70.520996,-33.487634],[-70.521198,-33.487402],[-70.521438,-33.487265],[-70.52166,-33.487073],[-70.522375,-33.48679],[-70.52325,-33.486344],[-70.523929,-33.485857]]},"properties":{"NOMBRE":"Lo Hermida","TRAMO":"Desde Límite Extensión Urbana hasta calle Alvaro Casanova","COMUNA":"Peñalolén"}},{"type":"Feature","geometry":{"type":"LineString","coordinates":[[-70.530874,-33.516961],[-70.5308,-33.516739],[-70.530873,-33.516543],[-70.530904,-33.516314],[-70.530883,-33.516116],[-70.530919,-33.515891],[-70.53104,-33.515733],[-70.531445,-33.515486],[-70.531483,-33.515265],[-70.531583,-33.515058],[-70.531607,-33.514865],[-70.531722,-33.514652],[-70.531718,-33.514464],[-70.531852,-33.514321],[-70.531926,-33.514149],[-70.532157,-33.51404],[-70.532363,-33.514007]]},"properties":{"NOMBRE":"Las Perdices","TRAMO":"Desde Limite de Ext. Urbana Hasta Canal Las Perdices","COMUNA":"La Florida"}},{"type":"Feature","geometry":{"type":"LineString","coordinates":[[-70.533366,-33.524121],[-70.535179,-33.52331],[-70.53733,-33.52153],[-70.537436,-33.521306],[-70.537632,-33.521193],[-70.537776,-33.521035],[-70.537993,-33.520931],[-70.538192,-33.520788],[-70.538633,-33.520611],[-70.539134,-33.520139],[-70.539234,-33.519934],[-70.539656,-33.519654],[-70.539885,-33.519537],[-70.540141,-33.519536],[-70.540559,-33.519304],[-70.540784,-33.519217],[-70.540955,-33.519073],[-70.541143,-33.518976],[-70.542112,-33.518716]]},"properties":{"NOMBRE":"Lo Cañas","TRAMO":"Desde Limite de Ext. Urbana Hasta Canal Las Perdices","COMUNA":"La Florida"}},{"type":"Feature","geometry":{"type":"LineString","coordinates":[[-70.525348,-33.516555],[-70.525543,-33.516399],[-70.525611,-33.51617],[-70.525789,-33.516003],[-70.526276,-33.515799],[-70.526711,-33.51554],[-70.527499,-33.515474],[-70.527942,-33.515167],[-70.528254,-33.515071],[-70.52848,-33.515059],[-70.528727,-33.514973],[-70.529175,-33.514731],[-70.529368,-33.514566],[-70.52961,-33.514539],[-70.529771,-33.514366],[-70.529882,-33.514187],[-70.530162,-33.514128],[-70.530371,-33.514038],[-70.530868,-33.514021],[-70.531406,-33.513893],[-70.532118,-33.513919],[-70.532363,-33.514007],[-70.532645,-33.513904],[-70.53286,-33.513998],[-70.533158,-33.513978],[-70.533239,-33.513797],[-70.533499,-33.513769],[-70.533705,-33.51389],[-70.533952,-33.513919],[-70.534196,-33.513826],[-70.534416,-33.513792],[-70.535072,-33.513757],[-70.535989,-33.513759],[-70.53772,-33.513833],[-70.538039,-33.513849],[-70.53827,-33.5139],[-70.539317,-33.513877],[-70.540559,-33.513965]]},"properties":{"NOMBRE":"Las Perdices","TRAMO":"Desde Limite de Ext. Urbana Hasta Canal Las Perdices","COMUNA":"La Florida"}},{"type":"Feature","geometry":{"type":"LineString","coordinates":[[-70.52245,-33.522912],[-70.522567,-33.522734],[-70.522719,-33.522604],[-70.522986,-33.522448],[-70.523195,-33.522276],[-70.523317,-33.522123],[-70.52369,-33.521826],[-70.524511,-33.521292],[-70.525069,-33.520831],[-70.525343,-33.520677],[-70.526238,-33.520343],[-70.526523,-33.520266],[-70.527121,-33.520188],[-70.527395,-33.520089],[-70.528088,-33.520154],[-70.528377,-33.520101],[-70.528902,-33.51985],[-70.529331,-33.519167],[-70.529611,-33.519039]]},"properties":{"NOMBRE":"Sin Nombre","TRAMO":"Desde Limite de Ext. Urbana Hasta Canal Las Perdices","COMUNA":"La Florida"}},{"type":"Feature","geometry":{"type":"LineString","coordinates":[[-70.521371,-33.533141],[-70.521859,-33.533188],[-70.522345,-33.533154],[-70.522724,-33.533217],[-70.523057,-33.533172],[-70.5235,-33.532946],[-70.524277,-33.532865],[-70.524502,-33.532878],[-70.525063,-33.533019],[-70.52539,-33.533014],[-70.525842,-33.532857],[-70.526092,-33.532871],[-70.526346,-33.53305],[-70.526648,-33.533078],[-70.526972,-33.532924],[-70.527636,-33.53268],[-70.527878,-33.532635],[-70.528159,-33.532632],[-70.528496,-33.532692],[-70.528735,-33.532684],[-70.529996,-33.533307],[-70.530848,-33.534126],[-70.531095,-33.534267],[-70.531675,-33.534303],[-70.532016,-33.534459],[-70.532211,-33.534629],[-70.532499,-33.534776],[-70.532831,-33.534887],[-70.53314,-33.535172],[-70.533645,-33.535524],[-70.534598,-33.535941],[-70.535166,-33.536427]]},"properties":{"NOMBRE":"Sin Nombre","TRAMO":"Desde Límite de Ext. Urbana Hasta Canal San Carlos","COMUNA":"La Florida"}},{"type":"Feature","geometry":{"type":"LineString","coordinates":[[-70.528139,-33.559959],[-70.528555,-33.560267],[-70.528851,-33.560341],[-70.529477,-33.560334],[-70.529783,-33.560402],[-70.530084,-33.5604],[-70.530363,-33.560296],[-70.530666,-33.560244],[-70.531767,-33.560173],[-70.533157,-33.560395]]},"properties":{"NOMBRE":"Sin Nombre","TRAMO":"Desde Limite de Ext. Urbana Hasta Quebrada Morfilana","COMUNA":"Puente Alto"}},{"type":"Feature","geometry":{"type":"LineString","coordinates":[[-70.539548,-33.575332],[-70.53926,-33.575212],[-70.538843,-33.575112],[-70.538251,-33.575075],[-70.538013,-33.575104],[-70.537607,-33.575097],[-70.537451,-33.575165],[-70.536998,-33.575109],[-70.536021,-33.575115],[-70.535882,-33.575076],[-70.535496,-33.575158],[-70.534505,-33.574985],[-70.533901,-33.574699],[-70.533214,-33.574476],[-70.533129,-33.574377],[-70.532801,-33.574348],[-70.532208,-33.574161],[-70.531713,-33.574078],[-70.531508,-33.574003],[-70.531018,-33.573745],[-70.530631,-33.573482],[-70.530277,-33.573422],[-70.52925,-33.573066],[-70.52899,-33.57293],[-70.528868,-33.572824],[-70.528238,-33.57253],[-70.527725,-33.572382],[-70.527047,-33.572097]]},"properties":{"NOMBRE":"Sin Nombre","TRAMO":"Desde Limite de Ext. Urbana Hasta Canal de La Luz o Florida","COMUNA":"Puente Alto"}},{"type":"Feature","geometry":{"type":"LineString","coordinates":[[-70.541305,-33.517054],[-70.540603,-33.517459],[-70.539379,-33.517887],[-70.537817,-33.518319],[-70.535989,-33.51877],[-70.535543,-33.519034],[-70.535267,-33.519321],[-70.534764,-33.519516],[-70.534119,-33.519665],[-70.532517,-33.519756],[-70.53201,-33.519738],[-70.531446,-33.519674],[-70.530342,-33.519335],[-70.529577,-33.519014]]},"properties":{"NOMBRE":"Sin Nombre","TRAMO":"Desde Limite de Ext. Urbana Hasta Canal Las Perdices","COMUNA":"La Florida"}},{"type":"Feature","geometry":{"type":"LineString","coordinates":[[-70.535751,-33.521179],[-70.53405,-33.52225],[-70.533095,-33.522701],[-70.53142,-33.523601],[-70.530724,-33.52383],[-70.530061,-33.524229],[-70.529532,-33.524436],[-70.52897,-33.52449],[-70.528297,-33.524616],[-70.526892,-33.524775],[-70.526641,-33.524872],[-70.526346,-33.525251],[-70.52603,-33.525499],[-70.525613,-33.525663],[-70.525221,-33.525762],[-70.524041,-33.525894],[-70.523424,-33.525996],[-70.522861,-33.526003],[-70.521911,-33.526325],[-70.519496,-33.527045],[-70.518566,-33.527203],[-70.518186,-33.527159]]},"properties":{"NOMBRE":"Lo Cañas","TRAMO":"Desde Limite de Ext. Urbana Hasta Canal Las Perdices","COMUNA":"La Florida"}},{"type":"Feature","geometry":{"type":"LineString","coordinates":[[-70.521636,-33.529978],[-70.522509,-33.529991],[-70.524556,-33.529812],[-70.525372,-33.529579],[-70.526103,-33.529499],[-70.52714,-33.529274],[-70.527986,-33.529334],[-70.528492,-33.529328],[-70.529588,-33.529244],[-70.531614,-33.529195],[-70.536773,-33.529674],[-70.541528,-33.529601],[-70.542795,-33.529646],[-70.545073,-33.529547]]},"properties":{"NOMBRE":"Lo Cañas","TRAMO":"Desde Limite de Ext. Urbana Hasta Canal Las Perdices","COMUNA":"La Florida"}},{"type":"Feature","geometry":{"type":"LineString","coordinates":[[-70.531025,-33.509605],[-70.531716,-33.509855],[-70.532326,-33.510159],[-70.53277,-33.510203],[-70.533216,-33.510402],[-70.533612,-33.510426],[-70.533813,-33.51058],[-70.53413,-33.510752],[-70.534853,-33.51084],[-70.535295,-33.51101],[-70.535872,-33.511179],[-70.536106,-33.511234],[-70.536526,-33.511268],[-70.537077,-33.511515],[-70.537369,-33.511521],[-70.538391,-33.512064],[-70.538708,-33.512177],[-70.539421,-33.512364],[-70.540296,-33.51244],[-70.540706,-33.512572],[-70.541032,-33.512607],[-70.54198,-33.512878]]},"properties":{"NOMBRE":" ","TRAMO":"Desde Límite de Ext. Urbana Hasta Canal San Carlos","COMUNA":"La Florida"}},{"type":"Feature","geometry":{"type":"LineString","coordinates":[[-70.527729,-33.508493],[-70.528166,-33.508602],[-70.528833,-33.508827],[-70.52942,-33.509093],[-70.530274,-33.509307],[-70.530458,-33.50938]]},"properties":{"NOMBRE":" ","TRAMO":"Desde Límite de Ext. Urbana Hasta Canal San Carlos","COMUNA":"Peñalolén"}},{"type":"Feature","geometry":{"type":"LineString","coordinates":[[-70.524637,-33.508016],[-70.524837,-33.508009],[-70.525456,-33.508138],[-70.526004,-33.50818],[-70.526519,-33.5083],[-70.527065,-33.508264],[-70.527109,-33.508285]]},"properties":{"NOMBRE":" ","TRAMO":"Desde Límite de Ext. Urbana Hasta Canal San Carlos","COMUNA":"Peñalolén"}},{"type":"Feature","geometry":{"type":"LineString","coordinates":[[-70.523982,-33.507866],[-70.523549,-33.507595],[-70.522963,-33.507359],[-70.522479,-33.507067]]},"properties":{"NOMBRE":" ","TRAMO":"Desde Límite de Ext. Urbana Hasta Canal San Carlos","COMUNA":"Peñalolén"}},{"type":"Feature","geometry":{"type":"LineString","coordinates":[[-70.520634,-33.505963],[-70.520103,-33.505609],[-70.519881,-33.505512]]},"properties":{"NOMBRE":" ","TRAMO":"Desde Límite de Ext. Urbana Hasta Canal San Carlos","COMUNA":"La Florida"}},{"type":"Feature","geometry":{"type":"LineString","coordinates":[[-70.521993,-33.506791],[-70.521268,-33.506297],[-70.521067,-33.506191]]},"properties":{"NOMBRE":" ","TRAMO":"Desde Límite de Ext. Urbana Hasta Canal San Carlos","COMUNA":"Peñalolén"}},{"type":"Feature","geometry":{"type":"LineString","coordinates":[[-70.522636,-33.516584],[-70.523169,-33.516552],[-70.523675,-33.516707],[-70.5239,-33.516731],[-70.524269,-33.51671],[-70.524544,-33.516564],[-70.524906,-33.51651],[-70.525138,-33.516507],[-70.525348,-33.516555]]},"properties":{"NOMBRE":"Las Perdices","TRAMO":"Desde Limite de Ext. Urbana Hasta Canal Las Perdices","COMUNA":"La Florida"}},{"type":"Feature","geometry":{"type":"LineString","coordinates":[[-70.517048,-33.580679],[-70.516811,-33.580602],[-70.51666,-33.580473],[-70.516401,-33.580185],[-70.516003,-33.579543],[-70.515321,-33.578841],[-70.51502,-33.57858],[-70.515023,-33.578398],[-70.515092,-33.578227],[-70.515109,-33.577686],[-70.515083,-33.577506],[-70.51493,-33.577168],[-70.514857,-33.577075]]},"properties":{"NOMBRE":"Las Vizcachas","TRAMO":"Desde Limite de Ext. Urbana Hasta Canal de La Luz o Florida","COMUNA":"Puente Alto"}},{"type":"Feature","geometry":{"type":"LineString","coordinates":[[-70.506817,-33.579057],[-70.506736,-33.579738],[-70.506544,-33.579916]]},"properties":{"NOMBRE":"Las Vizcachas","TRAMO":"Desde Limite de Ext. Urbana Hasta Canal de La Luz o Florida","COMUNA":"Puente Alto"}},{"type":"Feature","geometry":{"type":"LineString","coordinates":[[-70.505956,-33.579149],[-70.506544,-33.579916],[-70.506753,-33.58043],[-70.507135,-33.580869],[-70.507447,-33.581118],[-70.507831,-33.581271],[-70.508039,-33.581321],[-70.508224,-33.581414],[-70.508417,-33.581737],[-70.508588,-33.581848],[-70.508905,-33.582319],[-70.509075,-33.582429],[-70.509147,-33.5826],[-70.509167,-33.58278],[-70.509148,-33.583324],[-70.509208,-33.583499],[-70.509571,-33.583949],[-70.509742,-33.584284],[-70.509781,-33.584646],[-70.509773,-33.585009],[-70.509912,-33.585147],[-70.510092,-33.585248],[-70.510298,-33.585303],[-70.510495,-33.585625],[-70.510829,-33.585856],[-70.511123,-33.586121],[-70.511473,-33.586574],[-70.511763,-33.586844],[-70.512182,-33.586933],[-70.512316,-33.587076],[-70.512736,-33.587908],[-70.512854,-33.588059],[-70.512958,-33.588412],[-70.513424,-33.588773]]},"properties":{"NOMBRE":"Las Vizcachas","TRAMO":"Desde Limite de Ext. Urbana Hasta Canal de La Luz o Florida","COMUNA":"Puente Alto"}},{"type":"Feature","geometry":{"type":"LineString","coordinates":[[-70.516115,-33.576526],[-70.516174,-33.576777],[-70.516309,-33.576918],[-70.516462,-33.577255],[-70.516488,-33.577615],[-70.516864,-33.578059],[-70.516898,-33.578419],[-70.516966,-33.57859],[-70.516974,-33.578952],[-70.51688,-33.579305],[-70.516781,-33.579466],[-70.516728,-33.579642],[-70.51691,-33.579969],[-70.516929,-33.580331],[-70.517048,-33.580679],[-70.51707,-33.58122],[-70.517138,-33.581392],[-70.517277,-33.581531],[-70.517266,-33.581713],[-70.517141,-33.58206],[-70.51716,-33.58224],[-70.517261,-33.582402],[-70.517284,-33.582582],[-70.517185,-33.582743],[-70.517128,-33.582917],[-70.517141,-33.583097],[-70.517186,-33.583274],[-70.517277,-33.583438],[-70.517304,-33.583617],[-70.517245,-33.583791],[-70.517278,-33.58397],[-70.517488,-33.584483],[-70.51761,-33.585016],[-70.517843,-33.585323],[-70.518039,-33.585839],[-70.518273,-33.586142],[-70.518304,-33.586321],[-70.518384,-33.586489],[-70.518914,-33.587061],[-70.519096,-33.587392],[-70.519433,-33.587857],[-70.519723,-33.588342],[-70.5199,-33.588673],[-70.519877,-33.588852],[-70.520008,-33.588997],[-70.520206,-33.589067],[-70.520177,-33.590631],[-70.520006,-33.590742],[-70.519748,-33.591032],[-70.519661,-33.591198],[-70.519495,-33.591314],[-70.51944,-33.59149],[-70.519432,-33.591672],[-70.519344,-33.59186]]},"properties":{"NOMBRE":"Las Vizcachas","TRAMO":"Desde Limite de Ext. Urbana Hasta Canal de La Luz o Florida","COMUNA":"Puente Alto"}},{"type":"Feature","geometry":{"type":"LineString","coordinates":[[-70.539583,-33.56574],[-70.538189,-33.565447],[-70.537777,-33.565407],[-70.53755,-33.565251],[-70.53707,-33.565056],[-70.536673,-33.565072],[-70.535987,-33.564907],[-70.535719,-33.564812],[-70.535371,-33.564821],[-70.53506,-33.564911],[-70.534843,-33.564926],[-70.534352,-33.564844],[-70.533765,-33.564844],[-70.532209,-33.565293],[-70.530993,-33.5656],[-70.53047,-33.566151],[-70.529129,-33.566744],[-70.528916,-33.566972],[-70.528818,-33.567153],[-70.528544,-33.56798],[-70.52836,-33.568145],[-70.528128,-33.568227],[-70.52777,-33.568152],[-70.527276,-33.567891],[-70.526738,-33.567694],[-70.526668,-33.567713]]},"properties":{"NOMBRE":"Sin Nombre","TRAMO":"Desde Limite de Ext. Urbana Hasta Canal de La Luz o Florida","COMUNA":"Puente Alto"}},{"type":"Feature","geometry":{"type":"LineString","coordinates":[[-70.527701,-33.564344],[-70.527839,-33.56434],[-70.52804,-33.564248],[-70.528321,-33.564183],[-70.528558,-33.564055],[-70.52879,-33.564007],[-70.529297,-33.563747],[-70.52986,-33.563388],[-70.530243,-33.563222],[-70.530578,-33.563127]]},"properties":{"NOMBRE":"Sin Nombre","TRAMO":"Desde Limite de Ext. Urbana Hasta Quebrada Morfilana","COMUNA":"Puente Alto"}},{"type":"Feature","geometry":{"type":"LineString","coordinates":[[-70.527764,-33.561445],[-70.528,-33.561299],[-70.52824,-33.561215],[-70.529223,-33.560715],[-70.530084,-33.5604]]},"properties":{"NOMBRE":"Sin Nombre","TRAMO":"Desde Limite de Ext. Urbana Hasta Quebrada Morfilana","COMUNA":"Puente Alto"}},{"type":"Feature","geometry":{"type":"LineString","coordinates":[[-70.525881,-33.559584],[-70.526785,-33.559556],[-70.526998,-33.559634],[-70.527276,-33.55965],[-70.527488,-33.559711],[-70.527718,-33.559732],[-70.527967,-33.559825],[-70.528139,-33.559959]]},"properties":{"NOMBRE":"Sin Nombre","TRAMO":"Desde Limite de Ext. Urbana Hasta Quebrada Morfilana","COMUNA":"Puente Alto"}},{"type":"Feature","geometry":{"type":"LineString","coordinates":[[-70.525961,-33.559924],[-70.526107,-33.559918],[-70.526603,-33.559775],[-70.526823,-33.559801],[-70.527325,-33.559777],[-70.527488,-33.559711]]},"properties":{"NOMBRE":"Sin Nombre","TRAMO":"Desde Limite de Ext. Urbana Hasta Quebrada Morfilana","COMUNA":"Puente Alto"}},{"type":"Feature","geometry":{"type":"LineString","coordinates":[[-70.525518,-33.555565],[-70.526532,-33.55593],[-70.527353,-33.556285],[-70.527687,-33.556264],[-70.527875,-33.556158],[-70.528617,-33.556066],[-70.529184,-33.556102],[-70.529716,-33.556367],[-70.529973,-33.556435],[-70.530279,-33.556572],[-70.530723,-33.556909],[-70.530994,-33.557123],[-70.531183,-33.557616],[-70.531302,-33.557768],[-70.531606,-33.557845],[-70.531853,-33.5578],[-70.532494,-33.557839],[-70.532934,-33.557831],[-70.533208,-33.557935],[-70.533491,-33.558094]]},"properties":{"NOMBRE":"Sin Nombre","TRAMO":"Desde Límite de Ext. Urbana Hasta Quebrada O-4","COMUNA":"Puente Alto"}},{"type":"Feature","geometry":{"type":"LineString","coordinates":[[-70.538674,-33.554152],[-70.53894,-33.554393],[-70.539193,-33.554466],[-70.539804,-33.554477],[-70.540253,-33.554672],[-70.540753,-33.554819]]},"properties":{"NOMBRE":"Morfilana","TRAMO":"Desde Límite de Ext. Urbana Hasta Canal San Carlos","COMUNA":"Puente Alto"}},{"type":"Feature","geometry":{"type":"LineString","coordinates":[[-70.540753,-33.554819],[-70.541075,-33.554926],[-70.541392,-33.555077],[-70.54164,-33.555144],[-70.542109,-33.555169],[-70.542683,-33.555128],[-70.543024,-33.555162],[-70.543433,-33.555319],[-70.543989,-33.555438],[-70.544529,-33.555614],[-70.545009,-33.555555],[-70.545307,-33.555605],[-70.545755,-33.555809],[-70.545988,-33.555817],[-70.546201,-33.555695],[-70.546621,-33.555847],[-70.546838,-33.555807],[-70.54705,-33.555693],[-70.547392,-33.555715],[-70.547587,-33.555822],[-70.548558,-33.555739],[-70.548838,-33.555652],[-70.549397,-33.555568],[-70.549847,-33.555403],[-70.550614,-33.555321],[-70.552743,-33.555182],[-70.553465,-33.555175]]},"properties":{"NOMBRE":"Morfilana","TRAMO":"Desde Límite de Ext. Urbana Hasta Canal San Carlos","COMUNA":"Puente Alto"}},{"type":"Feature","geometry":{"type":"LineString","coordinates":[[-70.526173,-33.557858],[-70.526329,-33.557791],[-70.526813,-33.557687],[-70.527085,-33.557678],[-70.527356,-33.55773],[-70.527558,-33.557859],[-70.528673,-33.557807],[-70.5298,-33.557634],[-70.530798,-33.557877],[-70.531302,-33.557768]]},"properties":{"NOMBRE":"Sin Nombre","TRAMO":"Desde Límite de Ext. Urbana Hasta Quebrada O-4","COMUNA":"Puente Alto"}},{"type":"Feature","geometry":{"type":"LineString","coordinates":[[-70.528392,-33.548808],[-70.528343,-33.549604],[-70.528366,-33.549796],[-70.528601,-33.55027],[-70.5288,-33.550526],[-70.52914,-33.55079],[-70.529347,-33.550895],[-70.529611,-33.550929],[-70.529882,-33.551011],[-70.530003,-33.551133],[-70.53014,-33.551361],[-70.530287,-33.551636],[-70.530359,-33.551863],[-70.530593,-33.551993],[-70.530774,-33.552163],[-70.53092,-33.552377],[-70.531235,-33.552392],[-70.531533,-33.552518],[-70.531732,-33.552654],[-70.531979,-33.55266],[-70.532231,-33.552827],[-70.532557,-33.552826],[-70.53289,-33.552739],[-70.533575,-33.552706],[-70.533871,-33.552754],[-70.534369,-33.552731],[-70.53495,-33.552764],[-70.535386,-33.552891],[-70.536297,-33.553049],[-70.536698,-33.553161],[-70.537321,-33.553223],[-70.53777,-33.553541],[-70.537983,-33.553466],[-70.538259,-33.553448],[-70.538475,-33.553522],[-70.538682,-33.553674],[-70.538858,-33.553719]]},"properties":{"NOMBRE":"Morfilana","TRAMO":"Desde Límite de Ext. Urbana Hasta Canal San Carlos","COMUNA":"Puente Alto"}},{"type":"Feature","geometry":{"type":"LineString","coordinates":[[-70.526106,-33.552838],[-70.526467,-33.55316],[-70.526691,-33.553146],[-70.526833,-33.553006],[-70.527062,-33.552941],[-70.527326,-33.552973],[-70.5276,-33.552941],[-70.528085,-33.552796],[-70.528276,-33.552888],[-70.528727,-33.552909],[-70.528906,-33.553022],[-70.529068,-33.552872],[-70.529198,-33.552681],[-70.529733,-33.552457],[-70.530151,-33.552472],[-70.53092,-33.552377]]},"properties":{"NOMBRE":"Morfilana","TRAMO":"Desde Límite de Ext. Urbana Hasta Canal San Carlos","COMUNA":"Puente Alto"}},{"type":"Feature","geometry":{"type":"LineString","coordinates":[[-70.526207,-33.539273],[-70.526807,-33.539271],[-70.527159,-33.539218],[-70.527423,-33.539133],[-70.527623,-33.539028],[-70.527943,-33.539019],[-70.528298,-33.53892],[-70.528588,-33.538766],[-70.529164,-33.538565],[-70.529456,-33.538537],[-70.529756,-33.538596],[-70.52998,-33.538691],[-70.530212,-33.538862],[-70.530765,-33.539037],[-70.531251,-33.539102],[-70.531678,-33.539087],[-70.532431,-33.538894]]},"properties":{"NOMBRE":"Sin Nombre","TRAMO":"Desde Límite de Ext. Urbana Hasta Canal San Carlos","COMUNA":"La Florida"}},{"type":"Feature","geometry":{"type":"LineString","coordinates":[[-70.533343,-33.540605],[-70.53299,-33.540468],[-70.532521,-33.540354],[-70.532465,-33.540297],[-70.532424,-33.540144],[-70.532468,-33.539743],[-70.532427,-33.539051],[-70.532492,-33.538582],[-70.532562,-33.538388],[-70.533031,-33.537988],[-70.533233,-33.537922],[-70.533519,-33.53794],[-70.534238,-33.537698],[-70.534372,-33.537472],[-70.534379,-33.537244],[-70.534692,-33.536885],[-70.534695,-33.536615],[-70.534897,-33.536511],[-70.535166,-33.536427],[-70.535792,-33.536395],[-70.536073,-33.536516],[-70.536245,-33.53667],[-70.536677,-33.536907],[-70.536872,-33.53708],[-70.537175,-33.537239],[-70.537391,-33.537314],[-70.53765,-33.537298],[-70.537957,-33.53735],[-70.538201,-33.537296],[-70.538783,-33.537294],[-70.539115,-33.537346],[-70.539369,-33.537477],[-70.539642,-33.537483],[-70.539766,-33.537674],[-70.539782,-33.537868],[-70.539927,-33.538192],[-70.540101,-33.538381],[-70.54028,-33.53856],[-70.540956,-33.539017],[-70.541347,-33.539327]]},"properties":{"NOMBRE":"Sin Nombre","TRAMO":"Desde Límite de Ext. Urbana Hasta Canal San Carlos","COMUNA":"La Florida"}},{"type":"Feature","geometry":{"type":"LineString","coordinates":[[-70.520098,-33.529092],[-70.520319,-33.529085],[-70.520686,-33.529008],[-70.520937,-33.529023],[-70.521181,-33.529087],[-70.521432,-33.529081],[-70.522739,-33.528793],[-70.523365,-33.52863],[-70.523854,-33.528366],[-70.524357,-33.528249],[-70.524557,-33.528162],[-70.524964,-33.527861],[-70.525099,-33.527805],[-70.525421,-33.527729],[-70.52567,-33.527733],[-70.525911,-33.527681],[-70.526829,-33.5272],[-70.527744,-33.526801],[-70.527947,-33.52661],[-70.528575,-33.526273],[-70.53024,-33.525792],[-70.530688,-33.525584],[-70.530922,-33.525401],[-70.531689,-33.525132],[-70.532151,-33.524841],[-70.532645,-33.524644],[-70.533032,-33.52436],[-70.533162,-33.524211],[-70.533368,-33.524142]]},"properties":{"NOMBRE":"Lo Cañas","TRAMO":"Desde Limite de Ext. Urbana Hasta Canal Las Perdices","COMUNA":"La Florida"}},{"type":"Feature","geometry":{"type":"LineString","coordinates":[[-70.522381,-33.52298],[-70.520774,-33.523919],[-70.520087,-33.524132],[-70.519683,-33.524405],[-70.519483,-33.524652],[-70.518766,-33.52532]]},"properties":{"NOMBRE":"Sin Nombre","TRAMO":"Desde Limite de Ext. Urbana Hasta Canal Las Perdices","COMUNA":"La Florida"}},{"type":"Feature","geometry":{"type":"LineString","coordinates":[[-70.518558,-33.514441],[-70.519022,-33.514403],[-70.5193,-33.514477],[-70.520028,-33.514541],[-70.520435,-33.514715],[-70.520721,-33.514745],[-70.520969,-33.514927],[-70.52125,-33.514946],[-70.521853,-33.514918],[-70.522347,-33.514788],[-70.522703,-33.514736],[-70.522987,-33.514721],[-70.523628,-33.51478],[-70.523911,-33.514734],[-70.524422,-33.514758],[-70.525364,-33.515203],[-70.525637,-33.515288],[-70.526076,-33.51534],[-70.526278,-33.515445],[-70.526453,-33.515585],[-70.52661,-33.515595]]},"properties":{"NOMBRE":"Las Perdices","TRAMO":"Desde Limite de Ext. Urbana Hasta Canal Las Perdices","COMUNA":"La Florida"}},{"type":"Feature","geometry":{"type":"LineString","coordinates":[[-70.518736,-33.516074],[-70.519059,-33.516113],[-70.519537,-33.516278],[-70.520151,-33.51634],[-70.520447,-33.516433],[-70.52061,-33.516554]]},"properties":{"NOMBRE":"Las Perdices","TRAMO":"Desde Limite de Ext. Urbana Hasta Canal Las Perdices","COMUNA":"La Florida"}},{"type":"Feature","geometry":{"type":"LineString","coordinates":[[-70.518844,-33.51655],[-70.519503,-33.516725],[-70.519807,-33.516754],[-70.520311,-33.516689],[-70.520613,-33.516554],[-70.521049,-33.516515],[-70.521625,-33.516511],[-70.521924,-33.516548],[-70.522148,-33.516613],[-70.522636,-33.516584]]},"properties":{"NOMBRE":"Las Perdices","TRAMO":"Desde Limite de Ext. Urbana Hasta Canal Las Perdices","COMUNA":"La Florida"}},{"type":"Feature","geometry":{"type":"LineString","coordinates":[[-70.519228,-33.519732],[-70.519334,-33.519658],[-70.519848,-33.519118],[-70.520047,-33.518949],[-70.520171,-33.518707],[-70.520399,-33.518502],[-70.521035,-33.518175],[-70.521417,-33.517722],[-70.521766,-33.517156],[-70.521896,-33.516997],[-70.522335,-33.516724],[-70.522612,-33.516598]]},"properties":{"NOMBRE":"Las Perdices","TRAMO":"Desde Limite de Ext. Urbana Hasta Canal Las Perdices","COMUNA":"La Florida"}},{"type":"Feature","geometry":{"type":"LineString","coordinates":[[-70.519435,-33.505316],[-70.519258,-33.505239],[-70.518926,-33.504843],[-70.518692,-33.504631]]},"properties":{"NOMBRE":" ","TRAMO":"Desde Límite de Ext. Urbana Hasta Canal San Carlos","COMUNA":"Peñalolén"}},{"type":"Feature","geometry":{"type":"LineString","coordinates":[[-70.529087,-33.483254],[-70.528617,-33.483319],[-70.528298,-33.483449],[-70.528101,-33.483636],[-70.527615,-33.483716],[-70.527095,-33.483984]]},"properties":{"NOMBRE":"Lo Hermida","TRAMO":"Desde Calle Alvaro Casanova Hasta Canal las Perdices","COMUNA":"Peñalolén"}},{"type":"Feature","geometry":{"type":"LineString","coordinates":[[-70.527075,-33.483993],[-70.526025,-33.48439],[-70.525584,-33.484649],[-70.524884,-33.484776],[-70.524697,-33.484929],[-70.52457,-33.485124],[-70.524408,-33.485604],[-70.523838,-33.485902]]},"properties":{"NOMBRE":"Lo Hermida","TRAMO":"Desde Límite Extensión Urbana hasta calle Alvaro Casanova","COMUNA":"Peñalolén"}},{"type":"Feature","geometry":{"type":"LineString","coordinates":[[-70.543775,-33.502162],[-70.543413,-33.502192],[-70.543127,-33.502139],[-70.54249,-33.5021],[-70.540154,-33.501989],[-70.538612,-33.501952],[-70.537002,-33.50186],[-70.536377,-33.501849],[-70.535841,-33.501893],[-70.531122,-33.503383],[-70.530595,-33.503268],[-70.528938,-33.502437],[-70.527473,-33.50165],[-70.527137,-33.501598],[-70.526847,-33.501602],[-70.525966,-33.501233],[-70.525569,-33.501128],[-70.523332,-33.501767],[-70.522051,-33.501979],[-70.52156,-33.501985],[-70.520802,-33.502069],[-70.520383,-33.502168]]},"properties":{"NOMBRE":" ","TRAMO":"Desde Límite de Ext. Urbana Hasta Canal Las Perdices","COMUNA":"Peñalolén"}},{"type":"Feature","geometry":{"type":"LineString","coordinates":[[-70.541124,-33.539184],[-70.541281,-33.539305],[-70.541469,-33.539334],[-70.54149,-33.539456],[-70.541955,-33.539895],[-70.541939,-33.540017],[-70.542436,-33.540226],[-70.542895,-33.540297],[-70.543044,-33.540463],[-70.54323,-33.540583],[-70.54378,-33.540653],[-70.544129,-33.540741],[-70.544461,-33.54089],[-70.544702,-33.541071],[-70.545461,-33.541306],[-70.545775,-33.541486],[-70.546141,-33.541512],[-70.546328,-33.541709],[-70.54673,-33.541674],[-70.54728,-33.541774],[-70.548096,-33.542101],[-70.548554,-33.542126],[-70.549177,-33.54221],[-70.549781,-33.542233],[-70.550798,-33.542802],[-70.551592,-33.542976],[-70.552164,-33.543199]]},"properties":{"NOMBRE":"Sin Nombre","TRAMO":"Desde Límite de Ext. Urbana Hasta Canal San Carlos","COMUNA":"La Florida"}}]}