{"type":"FeatureCollection","features":[{"type":"Feature","geometry":{"type":"Polygon","coordinates":[[[-70.459706,-33.452204],[-70.467235,-33.452115],[-70.46722,-33.451213],[-70.469371,-33.451188],[-70.469356,-33.450286],[-70.470432,-33.450273],[-70.470427,-33.45],[-70.456441,-33.45],[-70.456449,-33.450438],[-70.457524,-33.450426],[-70.457539,-33.451327],[-70.459691,-33.451302],[-70.459706,-33.452204]]]},"properties":{"gridcode":1,"recurrencia":"Muy baja"}},{"type":"Feature","geometry":{"type":"Polygon","coordinates":[[[-70.514736,-33.461464],[-70.520114,-33.461398],[-70.520099,-33.460496],[-70.52225,-33.46047],[-70.522219,-33.458667],[-70.523294,-33.458654],[-70.523263,-33.45685],[-70.524338,-33.456837],[-70.524307,-33.455034],[-70.523231,-33.455047],[-70.523184,-33.452342],[-70.522108,-33.452355],[-70.522092,-33.451454],[-70.521017,-33.451467],[-70.521001,-33.450565],[-70.517774,-33.450605],[-70.517764,-33.45],[-70.515612,-33.45],[-70.515623,-33.450631],[-70.512396,-33.45067],[-70.512412,-33.451572],[-70.511336,-33.451585],[-70.511368,-33.453388],[-70.510292,-33.453402],[-70.51037,-33.45791],[-70.511446,-33.457897],[-70.511477,-33.4597],[-70.512553,-33.459687],[-70.512568,-33.460589],[-70.51472,-33.460562],[-70.514736,-33.461464]]]},"properties":{"gridcode":2,"recurrencia":"Baja"}},{"type":"Feature","geometry":{"type":"Polygon","coordinates":[[[-70.51589,-33.465959],[-70.522345,-33.46588],[-70.522329,-33.464978],[-70.525556,-33.464939],[-70.52554,-33.464037],[-70.526616,-33.464024],[-70.5266,-33.463122],[-70.527676,-33.463109],[-70.52766,-33.462207],[-70.528736,-33.462194],[-70.528704,-33.460391],[-70.52978,-33.460377],[-70.529653,-33.453164],[-70.528578,-33.453177],[-70.528546,-33.451374],[-70.527471,-33.451387],[-70.527455,-33.450486],[-70.526379,-33.450499],[-70.52637,-33.45],[-70.50593,-33.45],[-70.505974,-33.452552],[-70.504898,-33.452565],[-70.504976,-33.457074],[-70.506052,-33.457061],[-70.506098,-33.459766],[-70.507174,-33.459752],[-70.507205,-33.461556],[-70.508281,-33.461543],[-70.508297,-33.462444],[-70.509373,-33.462431],[-70.509388,-33.463333],[-70.510464,-33.46332],[-70.51048,-33.464221],[-70.513707,-33.464182],[-70.513723,-33.465084],[-70.515874,-33.465057],[-70.51589,-33.465959]],[[-70.514736,-33.461464],[-70.51472,-33.460562],[-70.512568,-33.460589],[-70.512553,-33.459687],[-70.511477,-33.4597],[-70.511446,-33.457897],[-70.51037,-33.45791],[-70.510292,-33.453402],[-70.511368,-33.453388],[-70.511336,-33.451585],[-70.512412,-33.451572],[-70.512396,-33.45067],[-70.515623,-33.450631],[-70.515612,-33.45],[-70.517764,-33.45],[-70.517774,-33.450605],[-70.521001,-33.450565],[-70.521017,-33.451467],[-70.522092,-33.451454],[-70.522108,-33.452355],[-70.523184,-33.452342],[-70.523231,-33.455047],[-70.524307,-33.455034],[-70.524338,-33.456837],[-70.523263,-33.45685],[-70.523294,-33.458654],[-70.522219,-33.458667],[-70.52225,-33.46047],[-70.520099,-33.460496],[-70.520114,-33.461398],[-70.514736,-33.461464]]]},"properties":{"gridcode":1,"recurrencia":"Muy baja"}},{"type":"Feature","geometry":{"type":"Polygon","coordinates":[[[-70.548372,-33.477281],[-70.556979,-33.477174],[-70.556963,-33.476272],[-70.559115,-33.476245],[-70.559099,-33.475343],[-70.560175,-33.47533],[-70.560159,-33.474428],[-70.561234,-33.474415],[-70.561218,-33.473513],[-70.562294,-33.473499],[-70.562262,-33.471696],[-70.563338,-33.471683],[-70.563224,-33.465371],[-70.562148,-33.465385],[-70.562116,-33.463581],[-70.56104,-33.463595],[-70.561024,-33.462693],[-70.563176,-33.462666],[-70.563159,-33.461765],[-70.564235,-33.461751],[-70.564219,-33.460849],[-70.565295,-33.460836],[-70.565279,-33.459934],[-70.566354,-33.459921],[-70.566322,-33.458117],[-70.567397,-33.458104],[-70.567268,-33.450891],[-70.566192,-33.450904],[-70.566176,-33.45],[-70.547887,-33.45],[-70.547891,-33.450232],[-70.546815,-33.450246],[-70.546863,-33.452951],[-70.545788,-33.452964],[-70.545852,-33.456571],[-70.546927,-33.456557],[-70.546976,-33.459262],[-70.548051,-33.459249],[-70.548083,-33.461052],[-70.545932,-33.461079],[-70.545948,-33.46198],[-70.544872,-33.461994],[-70.544888,-33.462895],[-70.543812,-33.462909],[-70.543828,-33.463811],[-70.542753,-33.463824],[-70.542785,-33.465627],[-70.541709,-33.465641],[-70.541821,-33.471952],[-70.542896,-33.471939],[-70.542928,-33.473742],[-70.544004,-33.473729],[-70.54402,-33.47463],[-70.545096,-33.474617],[-70.545112,-33.475518],[-70.546188,-33.475505],[-70.546204,-33.476407],[-70.548356,-33.47638],[-70.548372,-33.477281]]]},"properties":{"gridcode":1,"recurrencia":"Muy baja"}},{"type":"Feature","geometry":{"type":"Polygon","coordinates":[[[-70.488227,-33.484331],[-70.496836,-33.484228],[-70.49682,-33.483326],[-70.498972,-33.4833],[-70.498957,-33.482398],[-70.500033,-33.482385],[-70.500017,-33.481484],[-70.501093,-33.481471],[-70.501077,-33.480569],[-70.502153,-33.480556],[-70.502122,-33.478753],[-70.503198,-33.47874],[-70.503074,-33.471526],[-70.501998,-33.471539],[-70.501982,-33.470638],[-70.500906,-33.470651],[-70.500875,-33.468847],[-70.499799,-33.46886],[-70.499784,-33.467959],[-70.497632,-33.467985],[-70.497617,-33.467083],[-70.494389,-33.467122],[-70.494374,-33.46622],[-70.491146,-33.466259],[-70.491162,-33.467161],[-70.487934,-33.4672],[-70.48795,-33.468101],[-70.485798,-33.468127],[-70.485813,-33.469029],[-70.484738,-33.469042],[-70.484753,-33.469943],[-70.483677,-33.469956],[-70.483708,-33.47176],[-70.482632,-33.471772],[-70.482678,-33.474477],[-70.481602,-33.47449],[-70.481648,-33.477195],[-70.482724,-33.477182],[-70.48277,-33.479887],[-70.483846,-33.479875],[-70.483877,-33.481678],[-70.484953,-33.481665],[-70.484968,-33.482567],[-70.48712,-33.482541],[-70.487136,-33.483443],[-70.488212,-33.48343],[-70.488227,-33.484331]]]},"properties":{"gridcode":1,"recurrencia":"Muy baja"}},{"type":"Feature","geometry":{"type":"Polygon","coordinates":[[[-70.518482,-33.491179],[-70.522786,-33.491126],[-70.522771,-33.490224],[-70.523847,-33.490211],[-70.523831,-33.48931],[-70.524907,-33.489296],[-70.524828,-33.484788],[-70.523752,-33.484801],[-70.523736,-33.4839],[-70.52266,-33.483913],[-70.522644,-33.483011],[-70.519416,-33.483051],[-70.519432,-33.483953],[-70.51728,-33.483979],[-70.517296,-33.484881],[-70.51622,-33.484894],[-70.516298,-33.489402],[-70.517374,-33.489389],[-70.51739,-33.49029],[-70.518466,-33.490277],[-70.518482,-33.491179]]]},"properties":{"gridcode":3,"recurrencia":"Media"}},{"type":"Feature","geometry":{"type":"Polygon","coordinates":[[[-70.517453,-33.493897],[-70.52391,-33.493818],[-70.523894,-33.492916],[-70.526046,-33.49289],[-70.52603,-33.491988],[-70.527107,-33.491975],[-70.527075,-33.490172],[-70.528151,-33.490158],[-70.52804,-33.483847],[-70.526964,-33.48386],[-70.526948,-33.482958],[-70.525872,-33.482972],[-70.525857,-33.48207],[-70.524781,-33.482083],[-70.524765,-33.481182],[-70.523689,-33.481195],[-70.523673,-33.480293],[-70.517217,-33.480372],[-70.517233,-33.481274],[-70.516157,-33.481287],[-70.516173,-33.482189],[-70.515097,-33.482202],[-70.515112,-33.483104],[-70.514036,-33.483117],[-70.514068,-33.48492],[-70.512992,-33.484933],[-70.513086,-33.490343],[-70.514162,-33.49033],[-70.514177,-33.491232],[-70.515254,-33.491218],[-70.515285,-33.493022],[-70.517437,-33.492995],[-70.517453,-33.493897]],[[-70.518482,-33.491179],[-70.518466,-33.490277],[-70.51739,-33.49029],[-70.517374,-33.489389],[-70.516298,-33.489402],[-70.51622,-33.484894],[-70.517296,-33.484881],[-70.51728,-33.483979],[-70.519432,-33.483953],[-70.519416,-33.483051],[-70.522644,-33.483011],[-70.52266,-33.483913],[-70.523736,-33.4839],[-70.523752,-33.484801],[-70.524828,-33.484788],[-70.524907,-33.489296],[-70.523831,-33.48931],[-70.523847,-33.490211],[-70.522771,-33.490224],[-70.522786,-33.491126],[-70.518482,-33.491179]]]},"properties":{"gridcode":2,"recurrencia":"Baja"}},{"type":"Feature","geometry":{"type":"Polygon","coordinates":[[[-70.570313,-33.500453],[-70.576771,-33.500371],[-70.576754,-33.499469],[-70.578907,-33.499442],[-70.57889,-33.49854],[-70.579966,-33.498527],[-70.57995,-33.497625],[-70.581026,-33.497611],[-70.58101,-33.49671],[-70.583162,-33.496682],[-70.583178,-33.497584],[-70.584255,-33.49757],[-70.584271,-33.498472],[-70.585347,-33.498458],[-70.585364,-33.499359],[-70.587516,-33.499332],[-70.587532,-33.500234],[-70.593989,-33.500151],[-70.593973,-33.499249],[-70.596125,-33.499221],[-70.596109,-33.49832],[-70.598261,-33.498292],[-70.598244,-33.49739],[-70.599321,-33.497376],[-70.599304,-33.496475],[-70.6,-33.496466],[-70.6,-33.485644],[-70.599105,-33.485655],[-70.599089,-33.484754],[-70.598013,-33.484768],[-70.597996,-33.483866],[-70.59692,-33.48388],[-70.596903,-33.482978],[-70.594752,-33.483006],[-70.594735,-33.482104],[-70.587203,-33.482201],[-70.58722,-33.483103],[-70.585068,-33.48313],[-70.585084,-33.484032],[-70.584008,-33.484046],[-70.584025,-33.484947],[-70.582949,-33.484961],[-70.582965,-33.485863],[-70.580813,-33.48589],[-70.580797,-33.484989],[-70.579721,-33.485002],[-70.579704,-33.484101],[-70.578628,-33.484114],[-70.578612,-33.483213],[-70.57646,-33.48324],[-70.576444,-33.482339],[-70.569988,-33.48242],[-70.570004,-33.483322],[-70.566776,-33.483363],[-70.566792,-33.484265],[-70.565716,-33.484278],[-70.565733,-33.48518],[-70.564657,-33.485193],[-70.564673,-33.486095],[-70.563597,-33.486109],[-70.563629,-33.487912],[-70.562553,-33.487925],[-70.562683,-33.495139],[-70.563759,-33.495125],[-70.563791,-33.496928],[-70.564867,-33.496915],[-70.564884,-33.497816],[-70.56596,-33.497803],[-70.565976,-33.498704],[-70.567052,-33.498691],[-70.567069,-33.499592],[-70.570297,-33.499551],[-70.570313,-33.500453]]]},"properties":{"gridcode":1,"recurrencia":"Muy baja"}},{"type":"Feature","geometry":{"type":"Polygon","coordinates":[[[-70.539119,-33.501746],[-70.542348,-33.501706],[-70.542332,-33.500805],[-70.544484,-33.500778],[-70.544436,-33.498073],[-70.542284,-33.4981],[-70.542268,-33.497198],[-70.53904,-33.497238],[-70.539055,-33.49814],[-70.536903,-33.498167],[-70.536951,-33.500871],[-70.539103,-33.500845],[-70.539119,-33.501746]]]},"properties":{"gridcode":2,"recurrencia":"Baja"}},{"type":"Feature","geometry":{"type":"Polygon","coordinates":[[[-70.552363,-33.52],[-70.552356,-33.519618],[-70.553432,-33.519604],[-70.553416,-33.518703],[-70.554493,-33.518689],[-70.554461,-33.516886],[-70.555537,-33.516872],[-70.555424,-33.510561],[-70.554348,-33.510575],[-70.554315,-33.508771],[-70.553239,-33.508785],[-70.553223,-33.507883],[-70.552147,-33.507897],[-70.552114,-33.506093],[-70.553191,-33.50608],[-70.553175,-33.505178],[-70.554251,-33.505165],[-70.554235,-33.504263],[-70.555311,-33.50425],[-70.555279,-33.502446],[-70.556355,-33.502433],[-70.556242,-33.496121],[-70.555166,-33.496135],[-70.555134,-33.494332],[-70.554058,-33.494345],[-70.554041,-33.493444],[-70.552965,-33.493457],[-70.552949,-33.492555],[-70.551873,-33.492569],[-70.551857,-33.491667],[-70.550781,-33.491681],[-70.550765,-33.490779],[-70.54108,-33.4909],[-70.541096,-33.491802],[-70.54002,-33.491815],[-70.540004,-33.490913],[-70.536776,-33.490953],[-70.53676,-33.490052],[-70.533531,-33.490092],[-70.533547,-33.490993],[-70.531395,-33.49102],[-70.531363,-33.489217],[-70.532439,-33.489203],[-70.53236,-33.484695],[-70.531284,-33.484709],[-70.531221,-33.481102],[-70.530145,-33.481115],[-70.530113,-33.479312],[-70.529037,-33.479325],[-70.529005,-33.477522],[-70.527929,-33.477535],[-70.527913,-33.476634],[-70.526838,-33.476647],[-70.526822,-33.475745],[-70.52467,-33.475772],[-70.524654,-33.47487],[-70.516047,-33.474976],[-70.516063,-33.475877],[-70.513911,-33.475904],[-70.513926,-33.476805],[-70.512851,-33.476818],[-70.512866,-33.47772],[-70.51179,-33.477733],[-70.511806,-33.478635],[-70.51073,-33.478648],[-70.510761,-33.480451],[-70.509685,-33.480464],[-70.509873,-33.491284],[-70.510949,-33.491271],[-70.51098,-33.493074],[-70.512057,-33.493061],[-70.512072,-33.493963],[-70.50992,-33.493989],[-70.509904,-33.493087],[-70.506676,-33.493127],[-70.506692,-33.494028],[-70.503463,-33.494068],[-70.503479,-33.494969],[-70.501326,-33.494995],[-70.501342,-33.495897],[-70.500266,-33.49591],[-70.500281,-33.496812],[-70.499205,-33.496825],[-70.499236,-33.498628],[-70.49816,-33.498641],[-70.498207,-33.501346],[-70.49713,-33.501359],[-70.497177,-33.504064],[-70.498253,-33.504051],[-70.4983,-33.506756],[-70.499376,-33.506743],[-70.499407,-33.508546],[-70.500484,-33.508533],[-70.500499,-33.509435],[-70.502652,-33.509409],[-70.502667,-33.51031],[-70.503744,-33.510297],[-70.503759,-33.511199],[-70.510218,-33.51112],[-70.510233,-33.512022],[-70.51131,-33.512009],[-70.511341,-33.513812],[-70.512417,-33.513799],[-70.512433,-33.514701],[-70.513509,-33.514688],[-70.513525,-33.515589],[-70.515678,-33.515563],[-70.515694,-33.516465],[-70.525381,-33.516346],[-70.525366,-33.515444],[-70.526442,-33.515431],[-70.526426,-33.514529],[-70.527503,-33.514516],[-70.527487,-33.513614],[-70.528563,-33.513601],[-70.528547,-33.512699],[-70.529624,-33.512686],[-70.529608,-33.511784],[-70.530684,-33.511771],[-70.530605,-33.507263],[-70.531681,-33.50725],[-70.531697,-33.508151],[-70.536002,-33.508098],[-70.536034,-33.509901],[-70.534958,-33.509915],[-70.53499,-33.511718],[-70.533913,-33.511731],[-70.533993,-33.516239],[-70.535069,-33.516226],[-70.535101,-33.518029],[-70.536177,-33.518016],[-70.536209,-33.519819],[-70.537286,-33.519806],[-70.537289,-33.52],[-70.552363,-33.52]],[[-70.517453,-33.493897],[-70.517437,-33.492995],[-70.515285,-33.493022],[-70.515254,-33.491218],[-70.514177,-33.491232],[-70.514162,-33.49033],[-70.513086,-33.490343],[-70.512992,-33.484933],[-70.514068,-33.48492],[-70.514036,-33.483117],[-70.515112,-33.483104],[-70.515097,-33.482202],[-70.516173,-33.482189],[-70.516157,-33.481287],[-70.517233,-33.481274],[-70.517217,-33.480372],[-70.523673,-33.480293],[-70.523689,-33.481195],[-70.524765,-33.481182],[-70.524781,-33.482083],[-70.525857,-33.48207],[-70.525872,-33.482972],[-70.526948,-33.482958],[-70.526964,-33.48386],[-70.52804,-33.483847],[-70.528151,-33.490158],[-70.527075,-33.490172],[-70.527107,-33.491975],[-70.52603,-33.491988],[-70.526046,-33.49289],[-70.523894,-33.492916],[-70.52391,-33.493818],[-70.517453,-33.493897]],[[-70.521852,-33.499254],[-70.521836,-33.498353],[-70.517532,-33.498405],[-70.517516,-33.497504],[-70.51644,-33.497517],[-70.516424,-33.496615],[-70.518576,-33.496589],[-70.518592,-33.49749],[-70.523973,-33.497424],[-70.523957,-33.496523],[-70.525033,-33.49651],[-70.525081,-33.499214],[-70.521852,-33.499254]],[[-70.539119,-33.501746],[-70.539103,-33.500845],[-70.536951,-33.500871],[-70.536903,-33.498167],[-70.539055,-33.49814],[-70.53904,-33.497238],[-70.542268,-33.497198],[-70.542284,-33.4981],[-70.544436,-33.498073],[-70.544484,-33.500778],[-70.542332,-33.500805],[-70.542348,-33.501706],[-70.539119,-33.501746]]]},"properties":{"gridcode":1,"recurrencia":"Muy baja"}},{"type":"Feature","geometry":{"type":"Polygon","coordinates":[[[-70.530829,-33.52],[-70.530827,-33.519886],[-70.528674,-33.519912],[-70.528658,-33.519011],[-70.525429,-33.519051],[-70.525413,-33.518149],[-70.520031,-33.518215],[-70.520015,-33.517314],[-70.516786,-33.517353],[-70.516802,-33.518255],[-70.513572,-33.518294],[-70.513588,-33.519196],[-70.511435,-33.519222],[-70.511449,-33.52],[-70.530829,-33.52]]]},"properties":{"gridcode":1,"recurrencia":"Muy baja"}}]}