{"type":"FeatureCollection","features":[{"type":"Feature","geometry":{"type":"Point","coordinates":[-70.77223,-33.075337]},"properties":{"sector":"HUECHÚN","causa_punt":"Anegamiento de caminos/pasos a desnivel","nivel_de_riesgo_2022":"Medio"}},{"type":"Feature","geometry":{"type":"Point","coordinates":[-70.929906,-33.104766]},"properties":{"sector":"PUENTE VENTARRON (reconstruccion de puente)","causa_punt":"Interrupción de caminos","nivel_de_riesgo_2022":"Alto"}},{"type":"Feature","geometry":{"type":"Point","coordinates":[-70.928339,-33.071828]},"properties":{"sector":"Puente El Asiento (construcción)","causa_punt":"Interrupción de caminos","nivel_de_riesgo_2022":"Medio"}},{"type":"Feature","geometry":{"type":"Point","coordinates":[-70.796477,-33.151189]},"properties":{"sector":"Huertos Familiares / 5 norte con comino Santa Teresa.","causa_punt":"Inundación por desborde de cauce","nivel_de_riesgo_2022":"Bajo"}},{"type":"Feature","geometry":{"type":"Point","coordinates":[-70.811266,-33.133815]},"properties":{"sector":"Huertos Familiares Inicio Frei Montalva con Nueva San Martín","causa_punt":"Anegamiento de caminos/pasos a desnivel","nivel_de_riesgo_2022":"Bajo"}},{"type":"Feature","geometry":{"type":"Point","coordinates":[-70.824721,-33.114878]},"properties":{"sector":"Punta de Peuco, frente a sede social.","causa_punt":"Anegamiento de caminos/pasos a desnivel","nivel_de_riesgo_2022":"Bajo"}},{"type":"Feature","geometry":{"type":"Point","coordinates":[-70.802047,-33.055304]},"properties":{"sector":"Tranque de relave Ovejeria, CODELCO","causa_punt":"Deslizamiento/Derrumbe/Rodado/Caída","nivel_de_riesgo_2022":"Alto"}},{"type":"Feature","geometry":{"type":"Point","coordinates":[-70.75678,-33.129175]},"properties":{"sector":"Muro Oeste del Tranque Relave Las Tortolas, Anglo American","causa_punt":"Deslizamiento/Derrumbe/Rodado/Caída","nivel_de_riesgo_2022":"Alto"}},{"type":"Feature","geometry":{"type":"Point","coordinates":[-70.889562,-33.009842]},"properties":{"sector":"Rungue, Calle Eleodoro Moreno","causa_punt":"Anegamiento de caminos/pasos a desnivel","nivel_de_riesgo_2022":"Muy Alto"}},{"type":"Feature","geometry":{"type":"Point","coordinates":[-70.892659,-33.008347]},"properties":{"sector":"Rungue, Calle Estación con Calle Caldera","causa_punt":"Anegamiento de caminos/pasos a desnivel","nivel_de_riesgo_2022":"Muy Alto"}},{"type":"Feature","geometry":{"type":"Point","coordinates":[-70.99516,-33.002803]},"properties":{"sector":"Caleu, Capilla","causa_punt":"Acumulación de nieve","nivel_de_riesgo_2022":"Alto"}},{"type":"Feature","geometry":{"type":"Point","coordinates":[-70.995455,-33.055955]},"properties":{"sector":"Caleu, ruta G-102 camino al Llano de Caleu","causa_punt":"Acumulación de nieve","nivel_de_riesgo_2022":"Alto"}},{"type":"Feature","geometry":{"type":"Point","coordinates":[-70.977534,-33.024372]},"properties":{"sector":"Caleu, El Llano","causa_punt":"Acumulación de nieve","nivel_de_riesgo_2022":"Alto"}},{"type":"Feature","geometry":{"type":"Point","coordinates":[-71.006012,-33.058016]},"properties":{"sector":"Cuesta La Dormida, desde la cumbre hasta km. 5","causa_punt":"Acumulación de nieve","nivel_de_riesgo_2022":"Alto"}},{"type":"Feature","geometry":{"type":"Point","coordinates":[-70.967784,-33.071424]},"properties":{"sector":"Cuesta La Dormida Sector La Laja","causa_punt":"Deslizamiento/Derrumbe/Rodado/Caída","nivel_de_riesgo_2022":"Medio"}},{"type":"Feature","geometry":{"type":"Point","coordinates":[-70.996278,-33.061825]},"properties":{"sector":"Cuesta La Dormida con Ruta G-102","causa_punt":"Deslizamiento/Derrumbe/Rodado/Caída","nivel_de_riesgo_2022":"Medio"}},{"type":"Feature","geometry":{"type":"Point","coordinates":[-70.928111,-33.082762]},"properties":{"sector":"Emilio Valle con Arturo Prat (Frente a COPEC)","causa_punt":"Colapso colectores de aguas lluvia/alcantarillados","nivel_de_riesgo_2022":"Muy Alto"}},{"type":"Feature","geometry":{"type":"Point","coordinates":[-70.926907,-33.084098]},"properties":{"sector":"Calle Manuel Rodríguez,con Dario ovalle (pavimentación de calzada proyecto en ejecución)","causa_punt":"Inundación por desborde de cauce","nivel_de_riesgo_2022":"Muy Alto"}},{"type":"Feature","geometry":{"type":"Point","coordinates":[-70.927851,-33.08613]},"properties":{"sector":"Manuel Rodríguez con Daniel Moya","causa_punt":"Anegamiento de caminos/pasos a desnivel","nivel_de_riesgo_2022":"Muy Alto"}},{"type":"Feature","geometry":{"type":"Point","coordinates":[-70.929074,-33.08657]},"properties":{"sector":"Arturo Prat con El Atajo","causa_punt":"Anegamiento de caminos/pasos a desnivel","nivel_de_riesgo_2022":"Muy Alto"}},{"type":"Feature","geometry":{"type":"Point","coordinates":[-70.922869,-33.083654]},"properties":{"sector":"Barros Arana con Victor Moya (Callejón del Diablo)","causa_punt":"Inundación por desborde de cauce","nivel_de_riesgo_2022":"Muy Alto"}},{"type":"Feature","geometry":{"type":"Point","coordinates":[-70.923632,-33.090158]},"properties":{"sector":"El Roble con Los Almendros (Villa Los Olivos)","causa_punt":"Anegamiento de caminos/pasos a desnivel","nivel_de_riesgo_2022":"Muy Alto"}},{"type":"Feature","geometry":{"type":"Point","coordinates":[-70.91809,-33.091078]},"properties":{"sector":"Barros Arana con Santa Teresita","causa_punt":"Anegamiento de caminos/pasos a desnivel","nivel_de_riesgo_2022":"Alto"}},{"type":"Feature","geometry":{"type":"Point","coordinates":[-70.915583,-33.09372]},"properties":{"sector":"Los Litres","causa_punt":"Anegamiento de caminos/pasos a desnivel","nivel_de_riesgo_2022":"Muy Alto"}},{"type":"Feature","geometry":{"type":"Point","coordinates":[-70.919542,-33.089568]},"properties":{"sector":"Andrés Bello costado de la Corporación","causa_punt":"Colapso colectores de aguas lluvia/alcantarillados","nivel_de_riesgo_2022":"Muy Alto"}},{"type":"Feature","geometry":{"type":"Point","coordinates":[-70.926113,-33.085662]},"properties":{"sector":"Daniel Moya con Manuel Rodríguez","causa_punt":"Anegamiento de caminos/pasos a desnivel","nivel_de_riesgo_2022":"Muy Alto"}},{"type":"Feature","geometry":{"type":"Point","coordinates":[-70.922912,-33.085426]},"properties":{"sector":"Independencia con José Manuel Aguilar","causa_punt":"Anegamiento de caminos/pasos a desnivel","nivel_de_riesgo_2022":"Muy Alto"}},{"type":"Feature","geometry":{"type":"Point","coordinates":[-70.888058,-33.167791]},"properties":{"sector":"Dario Ovalle entre linea férrea y Jorge Alessandri","causa_punt":"Anegamiento de caminos/pasos a desnivel","nivel_de_riesgo_2022":"Bajo"}},{"type":"Feature","geometry":{"type":"Point","coordinates":[-70.991723,-33.06578]},"properties":{"sector":"Cuesta La Dormida","causa_punt":"Congelamiento de caminos","nivel_de_riesgo_2022":"Alto"}},{"type":"Feature","geometry":{"type":"Point","coordinates":[-70.914906,-33.094057]},"properties":{"sector":"ESTERO DE TIL TIL","causa_punt":"Inundación por desborde de cauce","nivel_de_riesgo_2022":"Solucionado"}},{"type":"Feature","geometry":{"type":"Point","coordinates":[-70.890187,-33.015787]},"properties":{"sector":"POLPAICO","causa_punt":"Inundación por desborde de cauce","nivel_de_riesgo_2022":"Solucionado"}},{"type":"Feature","geometry":{"type":"Point","coordinates":[-70.860661,-33.095783]},"properties":{"sector":"HUERTOS FAMILIARES","causa_punt":"Anegamiento de caminos/pasos a desnivel","nivel_de_riesgo_2022":"Solucionado"}},{"type":"Feature","geometry":{"type":"Point","coordinates":[-70.906666,-32.971442]},"properties":{"sector":"RUNGUE","causa_punt":"Anegamiento de caminos/pasos a desnivel","nivel_de_riesgo_2022":"Solucionado"}},{"type":"Feature","geometry":{"type":"Point","coordinates":[-70.864094,-33.055506]},"properties":{"sector":"SANTA MATILDE","causa_punt":"Anegamiento de caminos/pasos a desnivel","nivel_de_riesgo_2022":"Solucionado"}},{"type":"Feature","geometry":{"type":"Point","coordinates":[-70.89156,-33.037088]},"properties":{"sector":"LOS AROMOS","causa_punt":"Anegamiento de caminos/pasos a desnivel","nivel_de_riesgo_2022":"Solucionado"}},{"type":"Feature","geometry":{"type":"Point","coordinates":[-70.926579,-33.094344]},"properties":{"sector":"LOS LINGUES","causa_punt":"Anegamiento de caminos/pasos a desnivel","nivel_de_riesgo_2022":"Solucionado"}},{"type":"Feature","geometry":{"type":"Point","coordinates":[-70.943745,-33.089455]},"properties":{"sector":"Llano de Caleu","causa_punt":"Acumulación de nieve","nivel_de_riesgo_2022":"Solucionado"}},{"type":"Feature","geometry":{"type":"Point","coordinates":[-70.976704,-33.10096]},"properties":{"sector":"CAPILLA DE CALEU","causa_punt":"Acumulación de nieve","nivel_de_riesgo_2022":"Solucionado"}},{"type":"Feature","geometry":{"type":"Point","coordinates":[-70.930012,-33.112463]},"properties":{"sector":"EL ATAJO","causa_punt":"Inundación por desborde de cauce","nivel_de_riesgo_2022":"Solucionado"}},{"type":"Feature","geometry":{"type":"Point","coordinates":[-70.878514,-32.961073]},"properties":{"sector":"MONTENEGRO","causa_punt":"Inundación por desborde de cauce","nivel_de_riesgo_2022":"Solucionado"}},{"type":"Feature","geometry":{"type":"Point","coordinates":[-70.88538,-32.946668]},"properties":{"sector":"LA CUMBRE","causa_punt":"Anegamiento de caminos/pasos a desnivel","nivel_de_riesgo_2022":"Solucionado"}},{"type":"Feature","geometry":{"type":"Point","coordinates":[-70.851734,-33.045722]},"properties":{"sector":"PUNTA DE PEUCO","causa_punt":"Anegamiento de caminos/pasos a desnivel","nivel_de_riesgo_2022":"Solucionado"}},{"type":"Feature","geometry":{"type":"Point","coordinates":[-70.841435,-33.046873]},"properties":{"sector":"HUECHUN","causa_punt":"Anegamiento de caminos/pasos a desnivel","nivel_de_riesgo_2022":"Solucionado"}},{"type":"Feature","geometry":{"type":"Point","coordinates":[-70.869587,-32.962225]},"properties":{"sector":"RINCON DE LOS VALLES","causa_punt":"Anegamiento de caminos/pasos a desnivel","nivel_de_riesgo_2022":"Solucionado"}},{"type":"Feature","geometry":{"type":"Point","coordinates":[-70.899308,-33.064405]},"properties":{"sector":"CENTRO CALLE MANUL RODRIGUEZ","causa_punt":"Anegamiento de caminos/pasos a desnivel","nivel_de_riesgo_2022":"Solucionado"}},{"type":"Feature","geometry":{"type":"Point","coordinates":[-70.953358,-33.042269]},"properties":{"sector":"CUESTA LA DORMIDA","causa_punt":"Acumulación de nieve","nivel_de_riesgo_2022":"Solucionado"}},{"type":"Feature","geometry":{"type":"Point","coordinates":[-70.803669,-33.10326]},"properties":{"sector":"HUERTOS FAMILIARES","causa_punt":"Deslizamiento/Derrumbe/Rodado/Caída","nivel_de_riesgo_2022":"Solucionado"}},{"type":"Feature","geometry":{"type":"Point","coordinates":[-70.963658,-33.00312]},"properties":{"sector":"ESPINALILLO DE CALEU","causa_punt":"Deslizamiento/Derrumbe/Rodado/Caída","nivel_de_riesgo_2022":"Solucionado"}}]}