{"type":"FeatureCollection","features":[{"type":"Feature","properties":{"CUT_COM":"13122","COMUNA":"Peñalolén"},"geometry":{"type":"Polygon","coordinates":[[[-70.57265,-33.45892],[-70.56287,-33.4624],[-70.55201,-33.46251],[-70.54485,-33.46358],[-70.54399,-33.4635],[-70.54297,-33.463],[-70.54179,-33.46287],[-70.53932,-33.46327],[-70.53131,-33.46544],[-70.53079,-33.46463],[-70.53053,-33.46284],[-70.5297,-33.45903],[-70.48655,-33.45981],[-70.48639,-33.46061],[-70.48634,-33.46153],[-70.48648,-33.46264],[-70.48633,-33.46308],[-70.48595,-33.46334],[-70.48513,-33.46361],[-70.48241,-33.46525],[-70.4787,-33.46815],[-70.47741,-33.46929],[-70.47518,-33.47233],[-70.47386,-33.47381],[-70.47172,-33.47514],[-70.4715,-33.47539],[-70.47021,-33.47543],[-70.46858,-33.47514],[-70.46576,-33.47531],[-70.46365,-33.47554],[-70.46173,-33.47591],[-70.45898,-33.47714],[-70.45485,-33.48046],[-70.45158,-33.48268],[-70.45057,-33.48321],[-70.44681,-33.48478],[-70.44587,-33.48498],[-70.44404,-33.48517],[-70.44205,-33.48574],[-70.43985,-33.48607],[-70.43886,-33.48597],[-70.43886,-33.48626],[-70.43817,-33.48818],[-70.43736,-33.49136],[-70.43735,-33.49213],[-70.43948,-33.49208],[-70.44321,-33.49244],[-70.44634,-33.49351],[-70.44855,-33.49477],[-70.44996,-33.49543],[-70.4505,-33.49612],[-70.45299,-33.49575],[-70.45462,-33.49564],[-70.45651,-33.49529],[-70.45794,-33.49463],[-70.4594,-33.49427],[-70.4615,-33.49337],[-70.46261,-33.49261],[-70.46415,-33.49239],[-70.46668,-33.49232],[-70.46753,-33.49274],[-70.46938,-33.4949],[-70.47017,-33.49507],[-70.47034,-33.49494],[-70.47146,-33.49484],[-70.47321,-33.49505],[-70.47591,-33.49503],[-70.4768,-33.49527],[-70.47721,-33.49603],[-70.47798,-33.49645],[-70.47953,-33.49674],[-70.4809,-33.49753],[-70.48279,-33.49901],[-70.48439,-33.50049],[-70.48525,-33.50116],[-70.48862,-33.50098],[-70.48961,-33.50066],[-70.49026,-33.50061],[-70.49116,-33.50067],[-70.49403,-33.49931],[-70.4964,-33.49844],[-70.49854,-33.49716],[-70.49892,-33.49723],[-70.50056,-33.49907],[-70.50186,-33.49943],[-70.50353,-33.49979],[-70.50517,-33.49971],[-70.50824,-33.50075],[-70.50947,-33.50097],[-70.5102,-33.50108],[-70.51175,-33.50105],[-70.51468,-33.50154],[-70.51625,-33.50219],[-70.51765,-33.5036],[-70.51851,-33.5043],[-70.52122,-33.50628],[-70.52334,-33.50747],[-70.52552,-33.50823],[-70.52711,-33.5084],[-70.52817,-33.50861],[-70.52924,-33.50898],[-70.52983,-33.50931],[-70.537,-33.51161],[-70.53809,-33.51201],[-70.53891,-33.51241],[-70.54216,-33.51302],[-70.5436,-33.51276],[-70.54641,-33.51282],[-70.55672,-33.51228],[-70.56077,-33.51194],[-70.56967,-33.51179],[-70.58174,-33.51084],[-70.58356,-33.5106],[-70.58641,-33.51038],[-70.5885,-33.51029],[-70.58988,-33.51035],[-70.59056,-33.51016],[-70.58982,-33.50605],[-70.58919,-33.50395],[-70.58897,-33.50345],[-70.58739,-33.5003],[-70.58248,-33.49199],[-70.581,-33.48976],[-70.58072,-33.48918],[-70.58041,-33.48652],[-70.5777,-33.47383],[-70.57675,-33.46889],[-70.5743,-33.46228],[-70.57271,-33.4589],[-70.57265,-33.45892]]]}}]}