{"type":"FeatureCollection","features":[{"type":"Feature","geometry":{"type":"MultiPolygon","coordinates":[[[[-71.954779,-39.254231],[-71.925547,-39.254252],[-71.924831,-39.254752],[-71.921612,-39.25545],[-71.9204,-39.257462],[-71.919317,-39.25839],[-71.917115,-39.261265],[-71.916117,-39.262403],[-71.913397,-39.265353],[-71.912094,-39.266526],[-71.910235,-39.267581],[-71.907388,-39.268472],[-71.904106,-39.269869],[-71.901508,-39.271141],[-71.900618,-39.271731],[-71.900014,-39.27303],[-71.900005,-39.274156],[-71.898886,-39.274234],[-71.897965,-39.274018],[-71.897121,-39.273233],[-71.896651,-39.272262],[-71.896454,-39.271434],[-71.896135,-39.270847],[-71.895375,-39.270236],[-71.894675,-39.27001],[-71.894653,-39.268952],[-71.894305,-39.267447],[-71.894062,-39.266958],[-71.89372,-39.26657],[-71.893249,-39.266239],[-71.891819,-39.265572],[-71.89086,-39.265236],[-71.890152,-39.265091],[-71.889248,-39.264348],[-71.888579,-39.263567],[-71.887834,-39.26323],[-71.887157,-39.263152],[-71.883709,-39.263093],[-71.882476,-39.262768],[-71.87869,-39.260308],[-71.876881,-39.258997],[-71.874273,-39.25726],[-71.871542,-39.256724],[-71.870515,-39.256371],[-71.869595,-39.255821],[-71.869231,-39.255474],[-71.868662,-39.254259],[-71.848168,-39.254258],[-71.848738,-39.255158],[-71.849533,-39.256783],[-71.850131,-39.258768],[-71.850567,-39.261181],[-71.850543,-39.262091],[-71.850282,-39.262962],[-71.849695,-39.263571],[-71.849109,-39.263807],[-71.848294,-39.263899],[-71.847328,-39.263557],[-71.846439,-39.262791],[-71.845932,-39.261767],[-71.845538,-39.260493],[-71.844871,-39.258888],[-71.844378,-39.258157],[-71.844045,-39.257381],[-71.843864,-39.256435],[-71.843843,-39.255661],[-71.843983,-39.254257],[-71.835483,-39.254257],[-71.835177,-39.254904],[-71.834932,-39.255914],[-71.834846,-39.256687],[-71.833828,-39.259527],[-71.833017,-39.261335],[-71.832611,-39.262534],[-71.8327,-39.263635],[-71.833388,-39.265497],[-71.833195,-39.266902],[-71.833161,-39.268601],[-71.833325,-39.270237],[-71.833664,-39.271756],[-71.834102,-39.272948],[-71.834731,-39.274311],[-71.838108,-39.279422],[-71.840673,-39.282963],[-71.842828,-39.286441],[-71.845864,-39.291002],[-71.846943,-39.292237],[-71.84787,-39.293106],[-71.849794,-39.294541],[-71.849614,-39.296536],[-71.84911,-39.297125],[-71.847624,-39.298053],[-71.847212,-39.298451],[-71.846967,-39.298925],[-71.846912,-39.299963],[-71.846666,-39.300671],[-71.846697,-39.300914],[-71.847235,-39.301856],[-71.847562,-39.302271],[-71.84769,-39.302727],[-71.848404,-39.303872],[-71.848503,-39.304131],[-71.848395,-39.304827],[-71.847936,-39.305469],[-71.847288,-39.306043],[-71.845252,-39.307138],[-71.844985,-39.307307],[-71.844657,-39.307684],[-71.844473,-39.30813],[-71.844531,-39.309579],[-71.843965,-39.311133],[-71.84362,-39.311538],[-71.842675,-39.31221],[-71.840891,-39.312767],[-71.840091,-39.31321],[-71.8399,-39.313395],[-71.839243,-39.314258],[-71.83704,-39.318681],[-71.836643,-39.319366],[-71.836436,-39.319533],[-71.836008,-39.320192],[-71.835908,-39.320411],[-71.835854,-39.321151],[-71.835724,-39.321361],[-71.835168,-39.321618],[-71.834824,-39.322023],[-71.834175,-39.322534],[-71.833022,-39.324085],[-71.832677,-39.325071],[-71.832324,-39.325786],[-71.831515,-39.326581],[-71.830995,-39.327233],[-71.829722,-39.327976],[-71.82908,-39.328586],[-71.828562,-39.328905],[-71.827395,-39.32933],[-71.826869,-39.32964],[-71.826038,-39.32993],[-71.824749,-39.330232],[-71.823788,-39.330859],[-71.822866,-39.331142],[-71.819985,-39.331437],[-71.81865,-39.332163],[-71.818383,-39.332238],[-71.816395,-39.332209],[-71.812669,-39.332583],[-71.810345,-39.332729],[-71.808259,-39.332307],[-71.806385,-39.332172],[-71.80388,-39.331728],[-71.802965,-39.331849],[-71.800824,-39.331964],[-71.799559,-39.332147],[-71.7986,-39.332116],[-71.797084,-39.331928],[-71.79553,-39.331632],[-71.792676,-39.33098],[-71.789148,-39.331055],[-71.786931,-39.331361],[-71.78562,-39.331365],[-71.783938,-39.331126],[-71.781467,-39.329514],[-71.780752,-39.329148],[-71.780029,-39.328891],[-71.779253,-39.328729],[-71.776046,-39.328666],[-71.77235,-39.328926],[-71.76797,-39.328926],[-71.765579,-39.328839],[-71.765053,-39.328662],[-71.764559,-39.328269],[-71.764047,-39.326502],[-71.763959,-39.32572],[-71.763612,-39.324445],[-71.763272,-39.323745],[-71.762688,-39.32312],[-71.761433,-39.322321],[-71.760832,-39.322182],[-71.760435,-39.322209],[-71.759622,-39.321949],[-71.759096,-39.321908],[-71.758807,-39.322009],[-71.758333,-39.322358],[-71.757266,-39.322483],[-71.756688,-39.322334],[-71.756445,-39.322115],[-71.755479,-39.321606],[-71.755152,-39.321569],[-71.754833,-39.321585],[-71.753519,-39.32231],[-71.753138,-39.322373],[-71.753143,-39.358845],[-71.755606,-39.358548],[-71.757732,-39.358457],[-71.75867,-39.358061],[-71.759679,-39.357235],[-71.761367,-39.356159],[-71.762443,-39.35576],[-71.763663,-39.355397],[-71.765356,-39.355064],[-71.767055,-39.355037],[-71.768891,-39.355336],[-71.772843,-39.356426],[-71.77339,-39.356657],[-71.775178,-39.357695],[-71.776099,-39.358056],[-71.776974,-39.35853],[-71.777444,-39.359172],[-71.777602,-39.360033],[-71.777383,-39.361872],[-71.77719,-39.362687],[-71.777032,-39.364385],[-71.777364,-39.365593],[-71.77858,-39.369167],[-71.779512,-39.371073],[-71.780384,-39.372322],[-71.783563,-39.374769],[-71.783942,-39.375323],[-71.784131,-39.375845],[-71.784022,-39.376749],[-71.783683,-39.377775],[-71.78339,-39.379043],[-71.783039,-39.381686],[-71.783029,-39.385069],[-71.782683,-39.385717],[-71.7814,-39.38659],[-71.780346,-39.387192],[-71.779261,-39.388006],[-71.778107,-39.389047],[-71.77715,-39.390169],[-71.776598,-39.391209],[-71.776313,-39.391946],[-71.775787,-39.394377],[-71.775379,-39.395608],[-71.774675,-39.396404],[-71.771969,-39.398581],[-71.770791,-39.399627],[-71.770087,-39.400527],[-71.769411,-39.401876],[-71.76915,-39.402625],[-71.769041,-39.40338],[-71.769089,-39.404996],[-71.768669,-39.409592],[-71.768482,-39.410925],[-71.767528,-39.415655],[-71.767533,-39.416461],[-71.767889,-39.417276],[-71.768368,-39.417743],[-71.768757,-39.417922],[-71.773667,-39.418319],[-71.774948,-39.418527],[-71.776197,-39.419011],[-71.77835,-39.420707],[-71.779421,-39.422217],[-71.780188,-39.42355],[-71.781111,-39.425659],[-71.781764,-39.426819],[-71.782249,-39.427906],[-71.783534,-39.431758],[-71.784076,-39.434083],[-71.784141,-39.435131],[-71.78407,-39.436245],[-71.783678,-39.439466],[-71.783104,-39.442245],[-71.782885,-39.444147],[-71.782842,-39.445747],[-71.782962,-39.446465],[-71.783721,-39.447919],[-71.784998,-39.449105],[-71.786492,-39.449916],[-71.787437,-39.450222],[-71.788474,-39.450391],[-71.790733,-39.450458],[-71.793993,-39.450056],[-71.795343,-39.450406],[-71.796624,-39.450456],[-71.79786,-39.450751],[-71.799308,-39.451252],[-71.800138,-39.45166],[-71.801075,-39.452304],[-71.802118,-39.453211],[-71.802719,-39.453926],[-71.803877,-39.454786],[-71.804997,-39.455227],[-71.808018,-39.455735],[-71.809276,-39.45606],[-71.810397,-39.456475],[-71.811174,-39.457154],[-71.811889,-39.458006],[-71.812605,-39.458615],[-71.813191,-39.459056],[-71.814151,-39.459618],[-71.814852,-39.459903],[-71.815547,-39.46],[-71.815746,-39.46],[-71.816631,-39.459774],[-71.817565,-39.45886],[-71.818191,-39.458371],[-71.820453,-39.457609],[-71.821826,-39.457526],[-71.822467,-39.457641],[-71.823977,-39.458244],[-71.827347,-39.46],[-71.844171,-39.46],[-71.844328,-39.459847],[-71.844727,-39.458891],[-71.845248,-39.457914],[-71.846097,-39.456934],[-71.847335,-39.456165],[-71.850108,-39.455016],[-71.851743,-39.454111],[-71.853792,-39.452471],[-71.855182,-39.451797],[-71.855089,-39.452484],[-71.854558,-39.454551],[-71.853369,-39.457724],[-71.85261,-39.459004],[-71.851904,-39.46],[-72.02,-39.46],[-72.02,-39.331304],[-72.018432,-39.331512],[-72.017899,-39.331765],[-72.017327,-39.332496],[-72.017274,-39.332979],[-72.017419,-39.333629],[-72.018365,-39.336045],[-72.018525,-39.336717],[-72.018495,-39.33715],[-72.016583,-39.339686],[-72.016705,-39.340043],[-72.015059,-39.339631],[-72.014549,-39.339572],[-72.013383,-39.339539],[-72.01256,-39.339669],[-72.011988,-39.339891],[-72.011432,-39.339518],[-72.010488,-39.339177],[-72.0091,-39.33911],[-72.00792,-39.339289],[-72.007416,-39.339243],[-72.005161,-39.33805],[-72.004536,-39.337386],[-72.004262,-39.336785],[-72.004186,-39.336115],[-72.004589,-39.334466],[-72.005716,-39.332333],[-72.005998,-39.331618],[-72.00631,-39.329611],[-72.006317,-39.327912],[-72.00621,-39.326793],[-72.006294,-39.324922],[-72.006583,-39.323825],[-72.007345,-39.321999],[-72.008479,-39.319659],[-72.010138,-39.315287],[-72.011303,-39.314347],[-72.012461,-39.313011],[-72.015301,-39.30928],[-72.015628,-39.308411],[-72.015643,-39.307672],[-72.015574,-39.306778],[-72.015139,-39.304433],[-72.015306,-39.302735],[-72.015549,-39.301657],[-72.016249,-39.299657],[-72.016896,-39.29832],[-72.017992,-39.29695],[-72.015913,-39.295752],[-72.015898,-39.295662],[-72.013636,-39.294477],[-72.011991,-39.293822],[-72.010954,-39.293173],[-72.010025,-39.292521],[-72.009484,-39.29199],[-72.009005,-39.291332],[-72.008418,-39.290802],[-72.007756,-39.289914],[-72.006918,-39.289161],[-72.006666,-39.289028],[-72.006339,-39.288955],[-72.005151,-39.288981],[-72.003446,-39.288782],[-72.003157,-39.289015],[-72.002502,-39.288847],[-72.000591,-39.288004],[-71.999326,-39.288145],[-71.999022,-39.288135],[-71.998748,-39.288016],[-71.998573,-39.28784],[-71.998504,-39.287608],[-71.99861,-39.28692],[-71.998573,-39.286453],[-71.998489,-39.286239],[-71.997963,-39.285559],[-71.997682,-39.284845],[-71.997483,-39.284661],[-71.996045,-39.284113],[-71.995732,-39.283716],[-71.995504,-39.283559],[-71.994255,-39.283645],[-71.993044,-39.283911],[-71.992733,-39.283919],[-71.992466,-39.283773],[-71.991468,-39.282411],[-71.989344,-39.279772],[-71.988896,-39.279378],[-71.988096,-39.278957],[-71.986162,-39.278521],[-71.984876,-39.278436],[-71.984617,-39.278542],[-71.984068,-39.279182],[-71.982355,-39.279897],[-71.981404,-39.280102],[-71.980528,-39.279935],[-71.980307,-39.279752],[-71.979927,-39.278712],[-71.979866,-39.277988],[-71.980072,-39.277326],[-71.980544,-39.276611],[-71.981199,-39.276076],[-71.981564,-39.275868],[-71.982318,-39.275619],[-71.983429,-39.275501],[-71.985142,-39.275673],[-71.986147,-39.275999],[-71.988278,-39.277146],[-71.989047,-39.277284],[-71.987091,-39.276127],[-71.986878,-39.275885],[-71.986832,-39.275711],[-71.987022,-39.275147],[-71.981518,-39.273154],[-71.981328,-39.272167],[-71.980757,-39.272326],[-71.980476,-39.272216],[-71.980012,-39.271913],[-71.979319,-39.271102],[-71.978337,-39.270451],[-71.978215,-39.270243],[-71.978193,-39.269987],[-71.97804,-39.269765],[-71.976655,-39.268323],[-71.976183,-39.267669],[-71.976077,-39.267194],[-71.975932,-39.266973],[-71.975308,-39.266403],[-71.975027,-39.265708],[-71.974159,-39.264397],[-71.973528,-39.262485],[-71.973566,-39.262133],[-71.972721,-39.261001],[-71.972197,-39.260096],[-71.972288,-39.259607],[-71.973072,-39.259145],[-71.973156,-39.258927],[-71.973156,-39.258675],[-71.972882,-39.258267],[-71.972357,-39.258002],[-71.971428,-39.257746],[-71.970211,-39.257777],[-71.969655,-39.257999],[-71.969129,-39.258318],[-71.967912,-39.259466],[-71.967226,-39.259943],[-71.967021,-39.259967],[-71.965598,-39.258706],[-71.963224,-39.257766],[-71.961794,-39.256848],[-71.960218,-39.256753],[-71.958651,-39.256802],[-71.95747,-39.257142],[-71.956256,-39.256944],[-71.955598,-39.256384],[-71.955426,-39.256104],[-71.955277,-39.255608],[-71.95579,-39.25423],[-71.954779,-39.254231]]],[[[-71.864858,-39.275153],[-71.867618,-39.277112],[-71.868005,-39.277531],[-71.868104,-39.27815],[-71.868004,-39.278787],[-71.867629,-39.279378],[-71.866715,-39.279968],[-71.866022,-39.280147],[-71.865078,-39.280067],[-71.864401,-39.279678],[-71.863435,-39.279269],[-71.862248,-39.278983],[-71.861662,-39.278741],[-71.861221,-39.278504],[-71.86094,-39.278137],[-71.860667,-39.277536],[-71.860531,-39.276913],[-71.859955,-39.275689],[-71.858937,-39.275002],[-71.858168,-39.274683],[-71.856054,-39.273591],[-71.855051,-39.272922],[-71.853669,-39.271343],[-71.853137,-39.270442],[-71.853131,-39.269663],[-71.853383,-39.269323],[-71.853718,-39.269175],[-71.854472,-39.268981],[-71.855119,-39.26897],[-71.856169,-39.269142],[-71.858192,-39.269872],[-71.859151,-39.270452],[-71.859103,-39.271606],[-71.859276,-39.272534],[-71.86015,-39.273197],[-71.862539,-39.2739],[-71.863542,-39.27438],[-71.864858,-39.275153]]],[[[-71.936996,-39.300596],[-71.938717,-39.300791],[-71.942936,-39.300707],[-71.943934,-39.300772],[-71.946134,-39.301284],[-71.951579,-39.302123],[-71.954982,-39.303045],[-71.955972,-39.303385],[-71.956649,-39.303701],[-71.957586,-39.30433],[-71.958256,-39.304908],[-71.958796,-39.305498],[-71.960387,-39.307818],[-71.963006,-39.31062],[-71.963478,-39.311261],[-71.964719,-39.312274],[-71.965343,-39.312885],[-71.966371,-39.31434],[-71.966287,-39.31518],[-71.966028,-39.316155],[-71.965791,-39.31804],[-71.965623,-39.318656],[-71.965379,-39.319442],[-71.96419,-39.321612],[-71.963976,-39.322311],[-71.963938,-39.32305],[-71.964029,-39.32367],[-71.964676,-39.324725],[-71.965148,-39.325267],[-71.967783,-39.327375],[-71.969078,-39.329784],[-71.969276,-39.331107],[-71.96926,-39.332756],[-71.969007,-39.334177],[-71.967117,-39.337982],[-71.966347,-39.339709],[-71.965752,-39.340647],[-71.964639,-39.342144],[-71.963343,-39.343708],[-71.962435,-39.344677],[-71.95905,-39.347894],[-71.956344,-39.351467],[-71.954223,-39.354494],[-71.952613,-39.357224],[-71.951301,-39.359734],[-71.950386,-39.361267],[-71.9495,-39.363109],[-71.948859,-39.364048],[-71.94818,-39.364863],[-71.947249,-39.365864],[-71.945702,-39.367119],[-71.944962,-39.367552],[-71.944298,-39.367799],[-71.943071,-39.368028],[-71.941143,-39.36814],[-71.939374,-39.367856],[-71.938642,-39.368041],[-71.937651,-39.368904],[-71.936376,-39.370328],[-71.935148,-39.372048],[-71.934263,-39.373084],[-71.932661,-39.374507],[-71.931447,-39.375231],[-71.930365,-39.375727],[-71.929115,-39.375335],[-71.928483,-39.374311],[-71.928035,-39.372552],[-71.926467,-39.370402],[-71.924335,-39.368506],[-71.923451,-39.367618],[-71.92256,-39.36692],[-71.920931,-39.365249],[-71.920628,-39.362928],[-71.920942,-39.361794],[-71.920958,-39.361024],[-71.920897,-39.3608],[-71.920319,-39.359796],[-71.919718,-39.35905],[-71.918957,-39.358385],[-71.918165,-39.357472],[-71.917587,-39.35614],[-71.917451,-39.355306],[-71.917063,-39.353915],[-71.916713,-39.35341],[-71.915617,-39.35246],[-71.914886,-39.352001],[-71.914223,-39.351418],[-71.913584,-39.351083],[-71.911436,-39.350317],[-71.905836,-39.349484],[-71.904502,-39.34954],[-71.900548,-39.349472],[-71.897766,-39.349105],[-71.896357,-39.348798],[-71.895855,-39.348616],[-71.895047,-39.348127],[-71.893792,-39.346785],[-71.89316,-39.346346],[-71.890144,-39.344795],[-71.889536,-39.344274],[-71.88851,-39.342592],[-71.888351,-39.341939],[-71.888027,-39.339492],[-71.887618,-39.33779],[-71.886685,-39.334976],[-71.886451,-39.33377],[-71.885251,-39.331075],[-71.885116,-39.330092],[-71.885117,-39.329078],[-71.885248,-39.328192],[-71.885683,-39.327303],[-71.885441,-39.326458],[-71.884961,-39.326141],[-71.884384,-39.325223],[-71.884286,-39.324725],[-71.884387,-39.322939],[-71.884519,-39.32208],[-71.88471,-39.321462],[-71.885225,-39.318346],[-71.885508,-39.317474],[-71.886035,-39.316538],[-71.886897,-39.315656],[-71.887522,-39.315199],[-71.888384,-39.314354],[-71.889826,-39.312156],[-71.89043,-39.310979],[-71.891254,-39.309634],[-71.892101,-39.308356],[-71.892963,-39.307335],[-71.893971,-39.305855],[-71.894446,-39.304347],[-71.895231,-39.302796],[-71.895773,-39.302184],[-71.896292,-39.301743],[-71.896894,-39.301377],[-71.8979,-39.300996],[-71.898585,-39.300835],[-71.899491,-39.300843],[-71.900039,-39.301298],[-71.901742,-39.303003],[-71.90258,-39.303185],[-71.90344,-39.303213],[-71.90504,-39.303011],[-71.906715,-39.303208],[-71.90823,-39.303693],[-71.913215,-39.306306],[-71.916948,-39.305317],[-71.920537,-39.303114],[-71.922404,-39.302486],[-71.923622,-39.302347],[-71.926501,-39.302279],[-71.928139,-39.30213],[-71.931474,-39.301433],[-71.93465,-39.300655],[-71.935732,-39.300565],[-71.936996,-39.300596]]],[[[-71.884887,-39.344781],[-71.884163,-39.345006],[-71.883371,-39.344877],[-71.881596,-39.344183],[-71.880743,-39.343726],[-71.878978,-39.342311],[-71.878317,-39.341408],[-71.877869,-39.340559],[-71.877482,-39.339303],[-71.877478,-39.337407],[-71.877867,-39.336762],[-71.879629,-39.335205],[-71.880378,-39.334168],[-71.880577,-39.33333],[-71.880875,-39.332697],[-71.881477,-39.332429],[-71.88224,-39.332406],[-71.882795,-39.332581],[-71.883176,-39.332869],[-71.883404,-39.333314],[-71.883532,-39.333833],[-71.883577,-39.334639],[-71.883957,-39.335507],[-71.884733,-39.336533],[-71.885233,-39.337548],[-71.885185,-39.339026],[-71.885316,-39.343063],[-71.885269,-39.3442],[-71.884887,-39.344781]]],[[[-71.87399,-39.34492],[-71.876126,-39.348318],[-71.879023,-39.352359],[-71.880514,-39.354078],[-71.881921,-39.355435],[-71.883094,-39.356402],[-71.885187,-39.357818],[-71.890853,-39.360709],[-71.891394,-39.361164],[-71.892176,-39.36291],[-71.892845,-39.363587],[-71.893668,-39.364256],[-71.894139,-39.365221],[-71.894206,-39.365958],[-71.893653,-39.369044],[-71.893225,-39.370397],[-71.893162,-39.371389],[-71.893465,-39.37258],[-71.894521,-39.374909],[-71.896262,-39.37801],[-71.897038,-39.379225],[-71.898112,-39.38068],[-71.902778,-39.385865],[-71.903973,-39.387821],[-71.904009,-39.389194],[-71.90387,-39.390459],[-71.903004,-39.393746],[-71.902583,-39.394671],[-71.902224,-39.394784],[-71.901745,-39.394606],[-71.901219,-39.394259],[-71.90039,-39.392821],[-71.89922,-39.389386],[-71.898581,-39.388213],[-71.897615,-39.387201],[-71.89456,-39.384912],[-71.892816,-39.383911],[-71.892184,-39.383332],[-71.88949,-39.379985],[-71.888708,-39.378356],[-71.888275,-39.377011],[-71.887118,-39.375485],[-71.884134,-39.373055],[-71.881629,-39.371388],[-71.880319,-39.370627],[-71.878386,-39.369175],[-71.877106,-39.368374],[-71.876497,-39.367866],[-71.875341,-39.366463],[-71.874786,-39.365629],[-71.872975,-39.363562],[-71.872269,-39.362336],[-71.871588,-39.359353],[-71.870747,-39.356437],[-71.870279,-39.353633],[-71.870027,-39.349969],[-71.86983,-39.348974],[-71.869088,-39.346366],[-71.868063,-39.344756],[-71.867964,-39.34429],[-71.868018,-39.343982],[-71.868913,-39.342397],[-71.868944,-39.341951],[-71.868846,-39.341471],[-71.869183,-39.340391],[-71.869846,-39.340519],[-71.870386,-39.340974],[-71.870507,-39.34134],[-71.870857,-39.341755],[-71.871641,-39.342073],[-71.872387,-39.342271],[-71.872828,-39.34262],[-71.873171,-39.343107],[-71.87399,-39.34492]]],[[[-71.812235,-39.356079],[-71.811991,-39.356144],[-71.811397,-39.355942],[-71.811208,-39.355631],[-71.810034,-39.352732],[-71.809396,-39.351671],[-71.808751,-39.350943],[-71.807959,-39.350485],[-71.80531,-39.349522],[-71.80448,-39.349046],[-71.803919,-39.348524],[-71.803493,-39.347795],[-71.80335,-39.347294],[-71.803443,-39.346918],[-71.803925,-39.346289],[-71.804481,-39.346159],[-71.805495,-39.346193],[-71.807253,-39.346713],[-71.808601,-39.34692],[-71.809371,-39.346915],[-71.8096,-39.346747],[-71.80976,-39.346477],[-71.809809,-39.345409],[-71.809947,-39.345036],[-71.810168,-39.344918],[-71.810458,-39.344938],[-71.811052,-39.345086],[-71.811698,-39.345764],[-71.812329,-39.346289],[-71.814186,-39.347221],[-71.814642,-39.347575],[-71.814968,-39.348004],[-71.815021,-39.348544],[-71.81492,-39.349109],[-71.814752,-39.349586],[-71.813443,-39.351528],[-71.812731,-39.35291],[-71.812507,-39.353847],[-71.81258,-39.355328],[-71.812487,-39.355789],[-71.812235,-39.356079]]],[[[-71.95436,-39.381178],[-71.955559,-39.378909],[-71.956222,-39.378036],[-71.95874,-39.375116],[-71.961005,-39.372739],[-71.963217,-39.369674],[-71.964834,-39.366435],[-71.966429,-39.362056],[-71.968214,-39.359196],[-71.972926,-39.352058],[-71.975457,-39.349462],[-71.976479,-39.348048],[-71.977706,-39.34562],[-71.980465,-39.340658],[-71.981189,-39.338658],[-71.981525,-39.336429],[-71.981983,-39.334629],[-71.982288,-39.333779],[-71.982699,-39.333011],[-71.983499,-39.332113],[-71.986837,-39.328851],[-71.993038,-39.323985],[-71.994432,-39.323003],[-71.996412,-39.321349],[-71.997647,-39.320538],[-71.998873,-39.31997],[-72.000655,-39.319528],[-72.002629,-39.319333],[-72.001661,-39.320056],[-72.000244,-39.321277],[-71.997167,-39.324379],[-71.99591,-39.325343],[-71.993525,-39.327391],[-71.99201,-39.328934],[-71.990288,-39.330961],[-71.98932,-39.332819],[-71.988413,-39.334986],[-71.988284,-39.33571],[-71.98839,-39.337],[-71.988702,-39.337978],[-71.989061,-39.338866],[-71.989899,-39.340263],[-71.990425,-39.341456],[-71.9906,-39.342695],[-71.990478,-39.343279],[-71.989952,-39.344045],[-71.986897,-39.346168],[-71.98496,-39.347763],[-71.982765,-39.350085],[-71.980989,-39.351419],[-71.978101,-39.353137],[-71.972932,-39.356972],[-71.970393,-39.359807],[-71.969341,-39.361392],[-71.968785,-39.362739],[-71.967929,-39.365423],[-71.96764,-39.366674],[-71.967089,-39.37062],[-71.966578,-39.371903],[-71.964793,-39.374521],[-71.962276,-39.377499],[-71.960446,-39.379127],[-71.959317,-39.380245],[-71.957051,-39.38288],[-71.956028,-39.383892],[-71.954503,-39.384994],[-71.953947,-39.385071],[-71.953313,-39.38492],[-71.953138,-39.384596],[-71.953108,-39.383876],[-71.953208,-39.383275],[-71.953918,-39.382148],[-71.95436,-39.381178]]],[[[-72.02,-39.374267],[-72.018288,-39.375761],[-72.017449,-39.376354],[-72.015634,-39.376451],[-72.014407,-39.376091],[-72.014148,-39.375674],[-72.014087,-39.375397],[-72.014437,-39.374338],[-72.015763,-39.372205],[-72.016563,-39.371121],[-72.018918,-39.368434],[-72.019596,-39.367822],[-72.02,-39.367521],[-72.02,-39.374267]]],[[[-71.926169,-39.379008],[-71.925962,-39.379108],[-71.925437,-39.379067],[-71.923555,-39.378097],[-71.921521,-39.376936],[-71.920584,-39.376307],[-71.918725,-39.375304],[-71.917955,-39.375017],[-71.916499,-39.374725],[-71.914975,-39.374686],[-71.910707,-39.373649],[-71.909472,-39.373207],[-71.908444,-39.372675],[-71.907484,-39.372063],[-71.906662,-39.371192],[-71.905986,-39.36993],[-71.90553,-39.368378],[-71.905159,-39.366171],[-71.904727,-39.364741],[-71.904004,-39.36334],[-71.903213,-39.36218],[-71.902284,-39.361086],[-71.900366,-39.359548],[-71.899635,-39.358868],[-71.899119,-39.358039],[-71.898928,-39.357521],[-71.898922,-39.356954],[-71.89909,-39.356508],[-71.899456,-39.355945],[-71.900265,-39.355236],[-71.901516,-39.354533],[-71.902591,-39.354047],[-71.903468,-39.353458],[-71.904483,-39.352563],[-71.9052,-39.352176],[-71.905665,-39.352097],[-71.906373,-39.352137],[-71.908995,-39.352531],[-71.911456,-39.352537],[-71.914723,-39.354707],[-71.915672,-39.357913],[-71.916219,-39.359003],[-71.916676,-39.359694],[-71.917132,-39.360971],[-71.917374,-39.362109],[-71.917266,-39.363877],[-71.916769,-39.365606],[-71.916607,-39.366614],[-71.916751,-39.367286],[-71.917155,-39.36788],[-71.918381,-39.368772],[-71.919424,-39.370435],[-71.922545,-39.373528],[-71.925447,-39.376576],[-71.926239,-39.377669],[-71.926329,-39.378734],[-71.926169,-39.379008]]],[[[-71.828683,-39.415817],[-71.829527,-39.416652],[-71.8305,-39.417867],[-71.831429,-39.418795],[-71.832938,-39.419483],[-71.833715,-39.419649],[-71.834402,-39.419623],[-71.837601,-39.418212],[-71.839157,-39.417917],[-71.840637,-39.418147],[-71.841444,-39.418469],[-71.842732,-39.419465],[-71.843889,-39.420202],[-71.84597,-39.421021],[-71.848044,-39.421546],[-71.850911,-39.421998],[-71.852787,-39.42206],[-71.855007,-39.421916],[-71.855923,-39.421763],[-71.857152,-39.421142],[-71.858299,-39.420263],[-71.858711,-39.419757],[-71.859225,-39.418592],[-71.859258,-39.417253],[-71.859419,-39.416862],[-71.860045,-39.416459],[-71.864385,-39.416483],[-71.866887,-39.416736],[-71.872391,-39.417929],[-71.87493,-39.418357],[-71.876135,-39.418782],[-71.876454,-39.419464],[-71.876735,-39.419875],[-71.877056,-39.420165],[-71.877896,-39.423414],[-71.877872,-39.424496],[-71.877703,-39.425248],[-71.876555,-39.426902],[-71.876318,-39.427705],[-71.876247,-39.42863],[-71.875709,-39.430824],[-71.875613,-39.43333],[-71.875474,-39.434406],[-71.874938,-39.435604],[-71.874074,-39.436706],[-71.873264,-39.437352],[-71.871492,-39.438342],[-71.870507,-39.43874],[-71.86307,-39.441383],[-71.862238,-39.442079],[-71.859891,-39.443781],[-71.858074,-39.444821],[-71.856559,-39.446349],[-71.855328,-39.447821],[-71.853927,-39.449882],[-71.853453,-39.450308],[-71.851742,-39.4514],[-71.849304,-39.452428],[-71.847509,-39.453576],[-71.846087,-39.454651],[-71.843148,-39.458187],[-71.842307,-39.458946],[-71.839893,-39.459771],[-71.837565,-39.459895],[-71.837062,-39.46],[-71.83369,-39.46],[-71.831598,-39.459243],[-71.830578,-39.458372],[-71.829679,-39.457844],[-71.828848,-39.457473],[-71.827629,-39.456615],[-71.826281,-39.455526],[-71.825404,-39.455034],[-71.824307,-39.454696],[-71.823108,-39.454626],[-71.820886,-39.455108],[-71.818227,-39.456353],[-71.817279,-39.45702],[-71.816131,-39.458358],[-71.81549,-39.458486],[-71.814604,-39.458368],[-71.814155,-39.457861],[-71.813989,-39.457419],[-71.813688,-39.455679],[-71.813079,-39.455135],[-71.812401,-39.454778],[-71.812846,-39.453916],[-71.81419,-39.453491],[-71.81651,-39.453741],[-71.817944,-39.453747],[-71.820502,-39.453388],[-71.821533,-39.453025],[-71.822946,-39.452337],[-71.824337,-39.451515],[-71.826455,-39.450018],[-71.827066,-39.449323],[-71.827259,-39.448796],[-71.827268,-39.448295],[-71.827147,-39.447776],[-71.826912,-39.447246],[-71.826837,-39.446657],[-71.827,-39.445681],[-71.827554,-39.443712],[-71.827635,-39.441927],[-71.827599,-39.440725],[-71.827792,-39.439923],[-71.828251,-39.439394],[-71.828969,-39.439074],[-71.832328,-39.438317],[-71.835695,-39.437244],[-71.838232,-39.435844],[-71.838912,-39.435283],[-71.840518,-39.433689],[-71.841918,-39.431768],[-71.842355,-39.430865],[-71.842694,-39.429735],[-71.842821,-39.427106],[-71.84229,-39.426038],[-71.841217,-39.4247],[-71.839191,-39.423263],[-71.83785,-39.422661],[-71.836821,-39.422321],[-71.835998,-39.422188],[-71.831481,-39.422329],[-71.830574,-39.422252],[-71.829034,-39.421934],[-71.826527,-39.420892],[-71.82498,-39.420024],[-71.82373,-39.419563],[-71.821947,-39.419089],[-71.817722,-39.418723],[-71.816205,-39.418458],[-71.815146,-39.418051],[-71.814125,-39.417454],[-71.811581,-39.416214],[-71.808838,-39.415249],[-71.808534,-39.4149],[-71.808717,-39.414747],[-71.808984,-39.4147],[-71.809953,-39.414834],[-71.813764,-39.415796],[-71.814579,-39.415898],[-71.816303,-39.415906],[-71.819181,-39.414949],[-71.822961,-39.413353],[-71.823808,-39.413192],[-71.824775,-39.413394],[-71.826985,-39.414507],[-71.828683,-39.415817]]],[[[-71.871629,-39.442816],[-71.872988,-39.442638],[-71.874689,-39.442709],[-71.875993,-39.443104],[-71.877509,-39.4444],[-71.88275,-39.449968],[-71.885205,-39.451064],[-71.886663,-39.45119],[-71.887303,-39.451386],[-71.887806,-39.451738],[-71.888218,-39.452116],[-71.88887,-39.454653],[-71.888654,-39.456298],[-71.888162,-39.458436],[-71.887898,-39.46],[-71.857946,-39.46],[-71.85783,-39.459299],[-71.858085,-39.457996],[-71.858759,-39.456718],[-71.859335,-39.454663],[-71.859444,-39.453823],[-71.859408,-39.452923],[-71.859204,-39.451622],[-71.859113,-39.447809],[-71.859466,-39.446836],[-71.860016,-39.446102],[-71.861691,-39.444682],[-71.862768,-39.444147],[-71.864874,-39.443798],[-71.86756,-39.44356],[-71.871629,-39.442816]]],[[[-71.998647,-39.46],[-71.998619,-39.459835],[-71.997573,-39.458619],[-71.996459,-39.458071],[-71.995818,-39.456917],[-71.995528,-39.455861],[-71.993574,-39.4532],[-71.996238,-39.452798],[-71.997169,-39.452756],[-71.998184,-39.452923],[-71.99981,-39.453701],[-72.001412,-39.455128],[-72.002184,-39.455689],[-72.002924,-39.455954],[-72.004725,-39.455912],[-72.007236,-39.455392],[-72.008335,-39.454904],[-72.011022,-39.453326],[-72.011891,-39.453199],[-72.012929,-39.453366],[-72.016211,-39.454231],[-72.01731,-39.454793],[-72.018143,-39.455321],[-72.019189,-39.456226],[-72.02,-39.457361],[-72.02,-39.46],[-71.998647,-39.46]]],[[[-71.893301,-39.46],[-71.893886,-39.458343],[-71.894233,-39.456749],[-71.894203,-39.456029],[-71.894013,-39.455512],[-71.892597,-39.453349],[-71.892414,-39.452826],[-71.892431,-39.452092],[-71.892592,-39.451561],[-71.893088,-39.451102],[-71.89383,-39.450665],[-71.894608,-39.450623],[-71.895554,-39.450807],[-71.897491,-39.45147],[-71.899658,-39.451808],[-71.902161,-39.451736],[-71.903497,-39.45155],[-71.906153,-39.451619],[-71.906992,-39.451805],[-71.907625,-39.452172],[-71.907709,-39.452363],[-71.907716,-39.452859],[-71.907431,-39.455037],[-71.907429,-39.456068],[-71.907543,-39.457016],[-71.907518,-39.457926],[-71.907395,-39.458628],[-71.906974,-39.459598],[-71.906624,-39.46],[-71.893301,-39.46]]],[[[-71.852159,-39.26457],[-71.852328,-39.263493],[-71.852604,-39.262658],[-71.852802,-39.262333],[-71.853046,-39.262246],[-71.853587,-39.262354],[-71.854103,-39.262887],[-71.855164,-39.264888],[-71.855255,-39.265503],[-71.854699,-39.265859],[-71.853541,-39.265968],[-71.852522,-39.265849],[-71.852119,-39.265417],[-71.852159,-39.26457]]],[[[-71.97359,-39.259078],[-71.973528,-39.259242],[-71.973825,-39.259234],[-71.974107,-39.259159],[-71.974815,-39.258758],[-71.974054,-39.258282],[-71.973315,-39.257518],[-71.972151,-39.257367],[-71.971938,-39.257535],[-71.972189,-39.257682],[-71.973049,-39.257948],[-71.973247,-39.258141],[-71.973581,-39.258844],[-71.97359,-39.259078]]],[[[-71.965172,-39.258185],[-71.965469,-39.258249],[-71.965781,-39.258214],[-71.965994,-39.257939],[-71.965758,-39.257792],[-71.96349,-39.256985],[-71.963194,-39.256974],[-71.963003,-39.25715],[-71.964114,-39.257581],[-71.965172,-39.258185]]],[[[-71.974488,-39.256686],[-71.974032,-39.25704],[-71.974595,-39.257215],[-71.974769,-39.257399],[-71.974937,-39.257602],[-71.97499,-39.258069],[-71.975302,-39.258025],[-71.975393,-39.257798],[-71.976299,-39.256838],[-71.976033,-39.256709],[-71.975097,-39.256787],[-71.974488,-39.256686]]],[[[-71.967202,-39.254852],[-71.966634,-39.254932],[-71.965408,-39.254936],[-71.964625,-39.255289],[-71.96429,-39.255271],[-71.964077,-39.255114],[-71.963796,-39.255036],[-71.963491,-39.255048],[-71.962334,-39.255483],[-71.961687,-39.255986],[-71.961101,-39.256145],[-71.960956,-39.256365],[-71.961915,-39.256484],[-71.962494,-39.256659],[-71.963141,-39.256741],[-71.963772,-39.256716],[-71.964381,-39.256845],[-71.967242,-39.257862],[-71.967844,-39.258018],[-71.968452,-39.258029],[-71.969015,-39.257853],[-71.970234,-39.257092],[-71.970363,-39.256863],[-71.970317,-39.256621],[-71.969206,-39.255776],[-71.968994,-39.255349],[-71.968156,-39.254884],[-71.967202,-39.254852]]],[[[-71.970165,-39.255868],[-71.97066,-39.256396],[-71.971254,-39.256579],[-71.972486,-39.256467],[-71.973887,-39.255909],[-71.97477,-39.256057],[-71.975279,-39.256332],[-71.976215,-39.256236],[-71.976376,-39.256043],[-71.976292,-39.25582],[-71.976102,-39.255645],[-71.976056,-39.254925],[-71.975949,-39.254712],[-71.975486,-39.254408],[-71.974542,-39.254446],[-71.973088,-39.254974],[-71.971543,-39.255131],[-71.970538,-39.255354],[-71.970059,-39.255655],[-71.970165,-39.255868]]],[[[-71.957692,-39.256114],[-71.958369,-39.256115],[-71.959929,-39.255733],[-71.962266,-39.254385],[-71.962296,-39.254222],[-71.956589,-39.254228],[-71.956345,-39.2545],[-71.956109,-39.254947],[-71.956101,-39.255425],[-71.956481,-39.255848],[-71.957075,-39.25604],[-71.957692,-39.256114]]],[[[-71.969747,-39.25487],[-71.972357,-39.254646],[-71.972655,-39.254571],[-71.973012,-39.254318],[-71.97305,-39.254214],[-71.969367,-39.254218],[-71.969313,-39.254548],[-71.969465,-39.254769],[-71.969747,-39.25487]]]]},"properties":{"nombre":"Villarrica","clase":"Validado"}}]}