{"type":"FeatureCollection","features":[{"type":"Feature","geometry":{"type":"Point","coordinates":[-72.009444,-39.321556]},"properties":{"nombre":"Candelaria","tipo":"PET","volcan":"Villarrica"}},{"type":"Feature","geometry":{"type":"Point","coordinates":[-71.920389,-39.261389]},"properties":{"nombre":"Escuela Quelhue - Quelhue Alto","tipo":"PET","volcan":"Villarrica"}},{"type":"Feature","geometry":{"type":"Point","coordinates":[-71.989362,-39.272033]},"properties":{"nombre":"Península Pucón","tipo":"PET","volcan":"Villarrica"}},{"type":"Feature","geometry":{"type":"Point","coordinates":[-71.938821,-39.300643]},"properties":{"nombre":"Los Calabozos","tipo":"PET","volcan":"Villarrica"}},{"type":"Feature","geometry":{"type":"Point","coordinates":[-71.918578,-39.308894]},"properties":{"nombre":"Club de Huasos","tipo":"PET","volcan":"Villarrica"}},{"type":"Feature","geometry":{"type":"Point","coordinates":[-71.880757,-39.331159]},"properties":{"nombre":"Cerdúo 1","tipo":"PET","volcan":"Villarrica"}},{"type":"Feature","geometry":{"type":"Point","coordinates":[-71.897724,-39.302446]},"properties":{"nombre":"Cerdúo 2","tipo":"PET","volcan":"Villarrica"}},{"type":"Feature","geometry":{"type":"Point","coordinates":[-71.783123,-39.397911]},"properties":{"nombre":"Palguín","tipo":"PET","volcan":"Villarrica"}},{"type":"Feature","geometry":{"type":"Point","coordinates":[-71.977354,-39.352552]},"properties":{"nombre":"Mirador Camino al Volcán","tipo":"PET","volcan":"Villarrica"}},{"type":"Feature","geometry":{"type":"Point","coordinates":[-71.960422,-39.231417]},"properties":{"nombre":"Río Plata","tipo":"PET","volcan":"Villarrica"}}]}