{"type":"FeatureCollection","features":[{"type":"Feature","id":787,"geometry":{"type":"LineString","coordinates":[[-71.978846,-39.285728],[-71.984311,-39.282085],[-71.982846,-39.281406],[-71.981811,-39.281299],[-71.98081,-39.281513],[-71.979775,-39.281763],[-71.979024,-39.281727],[-71.977989,-39.281334],[-71.976774,-39.281013],[-71.977896,-39.278294],[-71.980078,-39.274307],[-71.980549,-39.273243],[-71.980536,-39.272919],[-71.980495,-39.272637],[-71.980576,-39.272435],[-71.981034,-39.272289],[-71.982933,-39.271694],[-71.98327,-39.271667],[-71.983984,-39.271788],[-71.984388,-39.271721],[-71.985493,-39.271411],[-71.986112,-39.270912],[-71.986449,-39.270845],[-71.986839,-39.270966],[-71.987149,-39.271222],[-71.987675,-39.271357],[-71.988254,-39.271222],[-71.988793,-39.271384],[-71.989102,-39.271613]]},"properties":{"objectid":787,"volcan":"Villarrica","bidireccional":"no"}},{"type":"Feature","id":793,"geometry":{"type":"LineString","coordinates":[[-71.962665,-39.283418],[-71.967058,-39.282263],[-71.972952,-39.271012],[-71.980346,-39.273298]]},"properties":{"objectid":793,"volcan":"Villarrica","bidireccional":"no"}},{"type":"Feature","id":794,"geometry":{"type":"LineString","coordinates":[[-71.956416,-39.279459],[-71.953906,-39.28086],[-71.951862,-39.282611],[-71.949586,-39.28518],[-71.948652,-39.285647],[-71.940712,-39.288449],[-71.943713,-39.297522],[-71.94316,-39.297826],[-71.942946,-39.298058],[-71.940644,-39.299824],[-71.939906,-39.300532]]},"properties":{"objectid":794,"volcan":"Villarrica","bidireccional":"no"}}]}