{"type":"FeatureCollection","features":[{"type":"Feature","properties":{"CUT_COM":"13110","COMUNA":"La Florida"},"geometry":{"type":"Polygon","coordinates":[[[-70.43785,-33.49214],[-70.43735,-33.49213],[-70.43736,-33.49363],[-70.43751,-33.49476],[-70.43703,-33.49693],[-70.43709,-33.4977],[-70.43744,-33.49843],[-70.43939,-33.50089],[-70.44191,-33.50309],[-70.44284,-33.50402],[-70.44388,-33.5045],[-70.44504,-33.505],[-70.44608,-33.50518],[-70.44687,-33.50516],[-70.44764,-33.50496],[-70.44807,-33.50494],[-70.44855,-33.50505],[-70.45058,-33.50596],[-70.45075,-33.5062],[-70.45086,-33.50663],[-70.45088,-33.50753],[-70.45128,-33.50816],[-70.45326,-33.50871],[-70.45537,-33.51038],[-70.45742,-33.51172],[-70.45872,-33.5129],[-70.45925,-33.51361],[-70.45966,-33.51454],[-70.46012,-33.51508],[-70.46138,-33.51583],[-70.46436,-33.51628],[-70.46493,-33.51661],[-70.4664,-33.51864],[-70.4671,-33.52026],[-70.46716,-33.52131],[-70.46778,-33.52296],[-70.46808,-33.52469],[-70.46902,-33.52679],[-70.46945,-33.52723],[-70.47025,-33.52765],[-70.47147,-33.5279],[-70.47361,-33.52819],[-70.47452,-33.52813],[-70.47794,-33.5302],[-70.4789,-33.53041],[-70.4802,-33.53092],[-70.48035,-33.53282],[-70.47999,-33.53627],[-70.48033,-33.53675],[-70.4808,-33.53719],[-70.48126,-33.53742],[-70.48518,-33.53865],[-70.48587,-33.53896],[-70.48639,-33.53986],[-70.48661,-33.54218],[-70.48685,-33.54291],[-70.48714,-33.54328],[-70.48876,-33.5437],[-70.49159,-33.54421],[-70.49337,-33.54422],[-70.49401,-33.54396],[-70.49602,-33.54353],[-70.4967,-33.54351],[-70.49853,-33.54364],[-70.49949,-33.54422],[-70.50057,-33.5451],[-70.50099,-33.54533],[-70.50287,-33.54617],[-70.50402,-33.54625],[-70.50598,-33.54583],[-70.50663,-33.54545],[-70.50782,-33.54506],[-70.50897,-33.54491],[-70.51116,-33.54441],[-70.51522,-33.54366],[-70.51891,-33.54313],[-70.52396,-33.54292],[-70.52467,-33.54298],[-70.52524,-33.54324],[-70.52716,-33.54361],[-70.52889,-33.54384],[-70.53035,-33.54363],[-70.5313,-33.54399],[-70.53193,-33.54444],[-70.53333,-33.54565],[-70.53444,-33.54675],[-70.5359,-33.54767],[-70.5379,-33.54921],[-70.53873,-33.54936],[-70.54036,-33.54904],[-70.54106,-33.54902],[-70.54177,-33.54918],[-70.5453,-33.55136],[-70.54635,-33.55235],[-70.5468,-33.55257],[-70.54702,-33.55257],[-70.54722,-33.55242],[-70.54731,-33.55101],[-70.54754,-33.55038],[-70.54786,-33.54981],[-70.54901,-33.54897],[-70.551,-33.5481],[-70.55228,-33.54791],[-70.55364,-33.54803],[-70.56819,-33.5477],[-70.56804,-33.54811],[-70.5677,-33.54857],[-70.56418,-33.55294],[-70.56115,-33.55652],[-70.55744,-33.56062],[-70.57979,-33.56486],[-70.58471,-33.56562],[-70.58412,-33.56876],[-70.59326,-33.56996],[-70.59375,-33.56963],[-70.59497,-33.56901],[-70.59666,-33.56844],[-70.59817,-33.56777],[-70.59868,-33.56734],[-70.59901,-33.56723],[-70.59998,-33.5672],[-70.60993,-33.56982],[-70.61151,-33.57031],[-70.61153,-33.57026],[-70.61282,-33.56225],[-70.6108,-33.56205],[-70.61091,-33.5612],[-70.61166,-33.55808],[-70.61423,-33.54934],[-70.61517,-33.54655],[-70.61092,-33.5467],[-70.61042,-33.53926],[-70.61004,-33.528],[-70.61031,-33.52409],[-70.61148,-33.51313],[-70.61166,-33.51087],[-70.61389,-33.50822],[-70.60053,-33.50908],[-70.59437,-33.5097],[-70.59212,-33.50982],[-70.59135,-33.50979],[-70.59056,-33.51016],[-70.58988,-33.51035],[-70.5885,-33.51029],[-70.58641,-33.51038],[-70.58356,-33.5106],[-70.58174,-33.51084],[-70.56967,-33.51179],[-70.56077,-33.51194],[-70.55672,-33.51228],[-70.54641,-33.51282],[-70.5436,-33.51276],[-70.54216,-33.51302],[-70.53891,-33.51241],[-70.53809,-33.51201],[-70.537,-33.51161],[-70.52983,-33.50931],[-70.52924,-33.50898],[-70.52817,-33.50861],[-70.52711,-33.5084],[-70.52552,-33.50823],[-70.52334,-33.50747],[-70.52122,-33.50628],[-70.51851,-33.5043],[-70.51765,-33.5036],[-70.51625,-33.50219],[-70.51468,-33.50154],[-70.51175,-33.50105],[-70.5102,-33.50108],[-70.50947,-33.50097],[-70.50824,-33.50075],[-70.50517,-33.49971],[-70.50353,-33.49979],[-70.50186,-33.49943],[-70.50056,-33.49907],[-70.49892,-33.49723],[-70.49854,-33.49716],[-70.4964,-33.49844],[-70.49403,-33.49931],[-70.49116,-33.50067],[-70.49026,-33.50061],[-70.48961,-33.50066],[-70.48862,-33.50098],[-70.48525,-33.50116],[-70.48439,-33.50049],[-70.48279,-33.49901],[-70.4809,-33.49753],[-70.47953,-33.49674],[-70.47798,-33.49645],[-70.47721,-33.49603],[-70.4768,-33.49527],[-70.47591,-33.49503],[-70.47321,-33.49505],[-70.47146,-33.49484],[-70.47034,-33.49494],[-70.47017,-33.49507],[-70.46938,-33.4949],[-70.46753,-33.49274],[-70.46668,-33.49232],[-70.46415,-33.49239],[-70.46261,-33.49261],[-70.4615,-33.49337],[-70.4594,-33.49427],[-70.45794,-33.49463],[-70.45651,-33.49529],[-70.45462,-33.49564],[-70.45299,-33.49575],[-70.4505,-33.49612],[-70.44996,-33.49543],[-70.44855,-33.49477],[-70.44634,-33.49351],[-70.44321,-33.49244],[-70.43948,-33.49208],[-70.43785,-33.49214]]]}}]}