{"type":"FeatureCollection","features":[{"type":"Feature","geometry":{"type":"Polygon","coordinates":[[[-71.950103,-39.059054],[-71.959337,-39.05882],[-71.9593,-39.05792],[-71.961608,-39.057861],[-71.96157,-39.056961],[-71.962725,-39.056932],[-71.962687,-39.056032],[-71.963841,-39.056003],[-71.963804,-39.055103],[-71.964958,-39.055073],[-71.964882,-39.053273],[-71.966037,-39.053244],[-71.965901,-39.05],[-71.942794,-39.05],[-71.942878,-39.05203],[-71.944032,-39.052],[-71.944145,-39.0547],[-71.945299,-39.054671],[-71.945374,-39.056471],[-71.946528,-39.056442],[-71.946565,-39.057342],[-71.94772,-39.057312],[-71.947757,-39.058212],[-71.950066,-39.058154],[-71.950103,-39.059054]]]},"properties":{"gridcode":1,"recurrencia":"Muy baja"}},{"type":"Feature","geometry":{"type":"Polygon","coordinates":[[[-71.692866,-39.070688],[-71.699794,-39.070528],[-71.69976,-39.069627],[-71.700914,-39.069601],[-71.70088,-39.0687],[-71.702035,-39.068674],[-71.702,-39.067774],[-71.703155,-39.067747],[-71.703086,-39.065947],[-71.704241,-39.06592],[-71.704138,-39.063219],[-71.702983,-39.063246],[-71.702914,-39.061446],[-71.70176,-39.061473],[-71.701726,-39.060573],[-71.700571,-39.060599],[-71.700537,-39.059699],[-71.697073,-39.059779],[-71.697039,-39.058879],[-71.695884,-39.058906],[-71.695919,-39.059806],[-71.692455,-39.059886],[-71.692489,-39.060786],[-71.691335,-39.060813],[-71.691369,-39.061713],[-71.690214,-39.06174],[-71.690248,-39.06264],[-71.689094,-39.062667],[-71.689299,-39.068067],[-71.690454,-39.068041],[-71.690488,-39.068941],[-71.691643,-39.068914],[-71.691677,-39.069814],[-71.692831,-39.069788],[-71.692866,-39.070688]]]},"properties":{"gridcode":2,"recurrencia":"Baja"}},{"type":"Feature","geometry":{"type":"Polygon","coordinates":[[[-71.691848,-39.074315],[-71.699931,-39.074128],[-71.699897,-39.073228],[-71.703361,-39.073148],[-71.703327,-39.072247],[-71.705636,-39.072194],[-71.705602,-39.071294],[-71.706757,-39.071267],[-71.706722,-39.070367],[-71.707877,-39.07034],[-71.707808,-39.06854],[-71.708963,-39.068513],[-71.708859,-39.065813],[-71.710014,-39.065786],[-71.709911,-39.063085],[-71.708756,-39.063112],[-71.708653,-39.060412],[-71.707498,-39.060439],[-71.707429,-39.058638],[-71.706275,-39.058665],[-71.706241,-39.057765],[-71.705086,-39.057792],[-71.705052,-39.056892],[-71.702743,-39.056945],[-71.702708,-39.056045],[-71.691164,-39.056312],[-71.691198,-39.057213],[-71.688889,-39.057266],[-71.688923,-39.058166],[-71.687769,-39.058193],[-71.687803,-39.059093],[-71.686648,-39.059119],[-71.686682,-39.060019],[-71.685528,-39.060046],[-71.685562,-39.060946],[-71.684407,-39.060973],[-71.684714,-39.069074],[-71.685869,-39.069047],[-71.685937,-39.070848],[-71.687092,-39.070821],[-71.687126,-39.071721],[-71.688281,-39.071695],[-71.688315,-39.072595],[-71.68947,-39.072568],[-71.689504,-39.073468],[-71.691814,-39.073415],[-71.691848,-39.074315]],[[-71.692866,-39.070688],[-71.692831,-39.069788],[-71.691677,-39.069814],[-71.691643,-39.068914],[-71.690488,-39.068941],[-71.690454,-39.068041],[-71.689299,-39.068067],[-71.689094,-39.062667],[-71.690248,-39.06264],[-71.690214,-39.06174],[-71.691369,-39.061713],[-71.691335,-39.060813],[-71.692489,-39.060786],[-71.692455,-39.059886],[-71.695919,-39.059806],[-71.695884,-39.058906],[-71.697039,-39.058879],[-71.697073,-39.059779],[-71.700537,-39.059699],[-71.700571,-39.060599],[-71.701726,-39.060573],[-71.70176,-39.061473],[-71.702914,-39.061446],[-71.702983,-39.063246],[-71.704138,-39.063219],[-71.704241,-39.06592],[-71.703086,-39.065947],[-71.703155,-39.067747],[-71.702,-39.067774],[-71.702035,-39.068674],[-71.70088,-39.0687],[-71.700914,-39.069601],[-71.69976,-39.069627],[-71.699794,-39.070528],[-71.692866,-39.070688]]]},"properties":{"gridcode":1,"recurrencia":"Muy baja"}},{"type":"Feature","geometry":{"type":"Polygon","coordinates":[[[-71.604322,-39.145675],[-71.614726,-39.145442],[-71.614693,-39.144542],[-71.617005,-39.14449],[-71.616972,-39.14359],[-71.618128,-39.143564],[-71.618094,-39.142664],[-71.61925,-39.142638],[-71.619184,-39.140837],[-71.62034,-39.140811],[-71.620239,-39.138111],[-71.621395,-39.138085],[-71.621262,-39.134484],[-71.620106,-39.13451],[-71.620039,-39.13271],[-71.618883,-39.132736],[-71.618816,-39.130936],[-71.617661,-39.130962],[-71.617627,-39.130061],[-71.616472,-39.130087],[-71.616438,-39.129187],[-71.614127,-39.129239],[-71.614094,-39.128339],[-71.610626,-39.128417],[-71.610593,-39.127517],[-71.608282,-39.127568],[-71.608315,-39.128468],[-71.603692,-39.128572],[-71.603725,-39.129472],[-71.602569,-39.129498],[-71.602602,-39.130398],[-71.601447,-39.130424],[-71.60148,-39.131324],[-71.600324,-39.13135],[-71.600357,-39.13225],[-71.599201,-39.132276],[-71.599268,-39.134076],[-71.598112,-39.134102],[-71.598343,-39.140403],[-71.599499,-39.140378],[-71.599566,-39.142178],[-71.600722,-39.142152],[-71.600755,-39.143052],[-71.601911,-39.143026],[-71.601944,-39.143927],[-71.6031,-39.143901],[-71.603133,-39.144801],[-71.604289,-39.144775],[-71.604322,-39.145675]]]},"properties":{"gridcode":1,"recurrencia":"Muy baja"}},{"type":"Feature","geometry":{"type":"Polygon","coordinates":[[[-71.933542,-39.161271],[-71.938166,-39.161154],[-71.938129,-39.160254],[-71.940441,-39.160196],[-71.940403,-39.159296],[-71.942715,-39.159238],[-71.942677,-39.158338],[-71.943833,-39.158309],[-71.943796,-39.157409],[-71.944952,-39.157379],[-71.944877,-39.15558],[-71.946032,-39.15555],[-71.94592,-39.152851],[-71.947076,-39.152821],[-71.946963,-39.150122],[-71.945807,-39.150151],[-71.945694,-39.147451],[-71.944539,-39.14748],[-71.944501,-39.14658],[-71.943346,-39.14661],[-71.943271,-39.14481],[-71.940959,-39.144868],[-71.940922,-39.143968],[-71.939766,-39.143997],[-71.939729,-39.143097],[-71.930483,-39.14333],[-71.930521,-39.14423],[-71.928209,-39.144289],[-71.928247,-39.145189],[-71.927091,-39.145218],[-71.927128,-39.146117],[-71.925972,-39.146147],[-71.92601,-39.147046],[-71.924854,-39.147076],[-71.924929,-39.148875],[-71.923773,-39.148904],[-71.924071,-39.156104],[-71.925227,-39.156075],[-71.925301,-39.157875],[-71.926457,-39.157846],[-71.926495,-39.158746],[-71.927651,-39.158717],[-71.927688,-39.159616],[-71.93,-39.159558],[-71.930037,-39.160458],[-71.933505,-39.160371],[-71.933542,-39.161271]]]},"properties":{"gridcode":1,"recurrencia":"Muy baja"}},{"type":"Feature","geometry":{"type":"Polygon","coordinates":[[[-71.718818,-39.174591],[-71.723444,-39.174482],[-71.723409,-39.173582],[-71.726878,-39.173501],[-71.726844,-39.172601],[-71.729156,-39.172547],[-71.729121,-39.171647],[-71.730278,-39.17162],[-71.730208,-39.16982],[-71.731364,-39.169792],[-71.73133,-39.168892],[-71.732486,-39.168865],[-71.732207,-39.161665],[-71.731051,-39.161692],[-71.730981,-39.159891],[-71.729825,-39.159919],[-71.72979,-39.159019],[-71.728634,-39.159046],[-71.728599,-39.158146],[-71.727443,-39.158173],[-71.727408,-39.157273],[-71.725096,-39.157327],[-71.725062,-39.156427],[-71.715813,-39.156643],[-71.715847,-39.157543],[-71.714691,-39.15757],[-71.714726,-39.15847],[-71.712414,-39.158524],[-71.712448,-39.159424],[-71.711292,-39.159451],[-71.711361,-39.161251],[-71.710205,-39.161278],[-71.710309,-39.163978],[-71.709153,-39.164005],[-71.709291,-39.167605],[-71.710447,-39.167578],[-71.710516,-39.169379],[-71.711673,-39.169352],[-71.711742,-39.171152],[-71.712898,-39.171125],[-71.712933,-39.172025],[-71.714089,-39.171998],[-71.714124,-39.172898],[-71.716436,-39.172844],[-71.716471,-39.173744],[-71.718784,-39.17369],[-71.718818,-39.174591]]]},"properties":{"gridcode":1,"recurrencia":"Muy baja"}},{"type":"Feature","geometry":{"type":"Polygon","coordinates":[[[-71.704528,-39.224473],[-71.709157,-39.224365],[-71.709122,-39.223465],[-71.710279,-39.223438],[-71.710141,-39.219838],[-71.708984,-39.219865],[-71.708914,-39.218065],[-71.707757,-39.218092],[-71.707723,-39.217191],[-71.705408,-39.217245],[-71.705374,-39.216345],[-71.701903,-39.216426],[-71.701937,-39.217326],[-71.70078,-39.217353],[-71.700953,-39.221853],[-71.70211,-39.221826],[-71.702144,-39.222726],[-71.703301,-39.2227],[-71.703336,-39.2236],[-71.704493,-39.223573],[-71.704528,-39.224473]]]},"properties":{"gridcode":2,"recurrencia":"Baja"}},{"type":"Feature","geometry":{"type":"Polygon","coordinates":[[[-71.684006,-39.233056],[-71.692108,-39.232869],[-71.692074,-39.231969],[-71.694388,-39.231915],[-71.694354,-39.231015],[-71.695511,-39.230988],[-71.695477,-39.230088],[-71.696634,-39.230061],[-71.6966,-39.229161],[-71.697757,-39.229134],[-71.697688,-39.227334],[-71.698845,-39.227307],[-71.698914,-39.229108],[-71.700071,-39.229081],[-71.700106,-39.229981],[-71.701263,-39.229954],[-71.701298,-39.230854],[-71.703612,-39.2308],[-71.703647,-39.231701],[-71.708276,-39.231593],[-71.708311,-39.232493],[-71.709468,-39.232466],[-71.709434,-39.231566],[-71.714063,-39.231458],[-71.714028,-39.230558],[-71.715186,-39.230531],[-71.715151,-39.229631],[-71.716308,-39.229604],[-71.716343,-39.230504],[-71.718658,-39.23045],[-71.718692,-39.23135],[-71.725636,-39.231188],[-71.725601,-39.230288],[-71.729073,-39.230206],[-71.729038,-39.229306],[-71.730196,-39.229279],[-71.730161,-39.228379],[-71.731318,-39.228352],[-71.731283,-39.227452],[-71.73244,-39.227425],[-71.73237,-39.225624],[-71.733528,-39.225597],[-71.733248,-39.218397],[-71.732091,-39.218424],[-71.732021,-39.216624],[-71.730864,-39.216651],[-71.730829,-39.215751],[-71.729672,-39.215778],[-71.729637,-39.214878],[-71.72848,-39.214905],[-71.728446,-39.214005],[-71.726131,-39.214059],[-71.726097,-39.213159],[-71.717997,-39.213348],[-71.718032,-39.214248],[-71.715718,-39.214302],[-71.715753,-39.215203],[-71.713439,-39.215257],[-71.713369,-39.213456],[-71.712212,-39.213483],[-71.712178,-39.212583],[-71.711021,-39.21261],[-71.710951,-39.21081],[-71.708637,-39.210864],[-71.708603,-39.209964],[-71.707446,-39.209991],[-71.707411,-39.209091],[-71.696999,-39.209332],[-71.697033,-39.210232],[-71.694719,-39.210286],[-71.694753,-39.211186],[-71.693596,-39.211213],[-71.693631,-39.212113],[-71.692474,-39.21214],[-71.692543,-39.21394],[-71.691386,-39.213967],[-71.691454,-39.215767],[-71.690297,-39.215794],[-71.690263,-39.214894],[-71.684477,-39.215027],[-71.684512,-39.215927],[-71.68104,-39.216007],[-71.681075,-39.216907],[-71.679918,-39.216934],[-71.679952,-39.217834],[-71.678795,-39.217861],[-71.678829,-39.218761],[-71.677672,-39.218787],[-71.677706,-39.219688],[-71.676549,-39.219714],[-71.676651,-39.222415],[-71.675494,-39.222441],[-71.675631,-39.226042],[-71.676788,-39.226015],[-71.676891,-39.228715],[-71.678048,-39.228689],[-71.678082,-39.229589],[-71.67924,-39.229562],[-71.679308,-39.231362],[-71.681623,-39.231309],[-71.681657,-39.232209],[-71.683972,-39.232156],[-71.684006,-39.233056]],[[-71.704528,-39.224473],[-71.704493,-39.223573],[-71.703336,-39.2236],[-71.703301,-39.2227],[-71.702144,-39.222726],[-71.70211,-39.221826],[-71.700953,-39.221853],[-71.70078,-39.217353],[-71.701937,-39.217326],[-71.701903,-39.216426],[-71.705374,-39.216345],[-71.705408,-39.217245],[-71.707723,-39.217191],[-71.707757,-39.218092],[-71.708914,-39.218065],[-71.708984,-39.219865],[-71.710141,-39.219838],[-71.710279,-39.223438],[-71.709122,-39.223465],[-71.709157,-39.224365],[-71.704528,-39.224473]]]},"properties":{"gridcode":1,"recurrencia":"Muy baja"}},{"type":"Feature","geometry":{"type":"Polygon","coordinates":[[[-71.65296,-39.239173],[-71.658748,-39.239041],[-71.658714,-39.238141],[-71.662186,-39.238062],[-71.662152,-39.237161],[-71.663309,-39.237135],[-71.663275,-39.236235],[-71.664433,-39.236208],[-71.664399,-39.235308],[-71.665556,-39.235282],[-71.665488,-39.233482],[-71.666645,-39.233455],[-71.666543,-39.230755],[-71.667701,-39.230728],[-71.667632,-39.228928],[-71.666475,-39.228954],[-71.666339,-39.225354],[-71.665181,-39.22538],[-71.665147,-39.22448],[-71.66399,-39.224507],[-71.663956,-39.223607],[-71.662799,-39.223633],[-71.662765,-39.222733],[-71.661608,-39.222759],[-71.661574,-39.221859],[-71.659259,-39.221912],[-71.659225,-39.221012],[-71.651125,-39.221197],[-71.651158,-39.222097],[-71.648844,-39.22215],[-71.648878,-39.22305],[-71.647721,-39.223076],[-71.647754,-39.223976],[-71.646597,-39.224003],[-71.646631,-39.224903],[-71.645474,-39.224929],[-71.645541,-39.226729],[-71.644384,-39.226756],[-71.644655,-39.233957],[-71.645812,-39.23393],[-71.64588,-39.235731],[-71.647037,-39.235704],[-71.647071,-39.236605],[-71.648228,-39.236578],[-71.648262,-39.237478],[-71.64942,-39.237452],[-71.649454,-39.238352],[-71.652926,-39.238273],[-71.65296,-39.239173]]]},"properties":{"gridcode":1,"recurrencia":"Muy baja"}},{"type":"Feature","geometry":{"type":"Polygon","coordinates":[[[-71.956363,-39.236366],[-71.964463,-39.23616],[-71.964425,-39.23526],[-71.966739,-39.235201],[-71.966701,-39.234301],[-71.967858,-39.234272],[-71.96782,-39.233372],[-71.968978,-39.233342],[-71.96894,-39.232442],[-71.970097,-39.232413],[-71.970059,-39.231513],[-71.971216,-39.231484],[-71.970874,-39.223385],[-71.969717,-39.223414],[-71.969641,-39.221614],[-71.968484,-39.221644],[-71.968446,-39.220744],[-71.967289,-39.220773],[-71.967251,-39.219874],[-71.964938,-39.219933],[-71.9649,-39.219033],[-71.962586,-39.219092],[-71.962548,-39.218192],[-71.956764,-39.218339],[-71.956802,-39.219239],[-71.954488,-39.219297],[-71.954526,-39.220197],[-71.952212,-39.220256],[-71.95225,-39.221156],[-71.951093,-39.221185],[-71.95113,-39.222085],[-71.949973,-39.222114],[-71.950049,-39.223914],[-71.948892,-39.223944],[-71.949005,-39.226643],[-71.947848,-39.226673],[-71.947923,-39.228472],[-71.94908,-39.228443],[-71.949231,-39.232043],[-71.950388,-39.232013],[-71.950426,-39.232913],[-71.951583,-39.232884],[-71.951621,-39.233784],[-71.952778,-39.233755],[-71.952816,-39.234654],[-71.953973,-39.234625],[-71.954011,-39.235525],[-71.956325,-39.235466],[-71.956363,-39.236366]]]},"properties":{"gridcode":1,"recurrencia":"Muy baja"}},{"type":"Feature","geometry":{"type":"Polygon","coordinates":[[[-71.986563,-39.238298],[-71.993506,-39.238119],[-71.993468,-39.237219],[-71.995782,-39.23716],[-71.995744,-39.23626],[-71.996901,-39.23623],[-71.996862,-39.23533],[-71.998019,-39.2353],[-71.997981,-39.234401],[-71.999138,-39.234371],[-71.999062,-39.232571],[-72.000219,-39.232541],[-72.000104,-39.229842],[-72.001261,-39.229812],[-72.001184,-39.228012],[-72.000027,-39.228042],[-71.999873,-39.224442],[-71.998717,-39.224472],[-71.998678,-39.223572],[-71.997521,-39.223602],[-71.997483,-39.222702],[-71.996326,-39.222732],[-71.996288,-39.221832],[-71.995131,-39.221862],[-71.995093,-39.220962],[-71.992779,-39.221022],[-71.992741,-39.220122],[-71.984643,-39.22033],[-71.984681,-39.22123],[-71.982367,-39.221289],[-71.982405,-39.222189],[-71.981248,-39.222218],[-71.981286,-39.223118],[-71.980129,-39.223148],[-71.980167,-39.224048],[-71.979011,-39.224077],[-71.979087,-39.225877],[-71.97793,-39.225907],[-71.978234,-39.233106],[-71.979391,-39.233076],[-71.979468,-39.234876],[-71.980625,-39.234846],[-71.980663,-39.235746],[-71.98182,-39.235717],[-71.981858,-39.236616],[-71.983015,-39.236587],[-71.983053,-39.237487],[-71.986525,-39.237398],[-71.986563,-39.238298]]]},"properties":{"gridcode":1,"recurrencia":"Muy baja"}},{"type":"Feature","geometry":{"type":"Polygon","coordinates":[[[-71.820166,-39.248755],[-71.823639,-39.248671],[-71.823603,-39.247771],[-71.825918,-39.247715],[-71.825882,-39.246815],[-71.827039,-39.246786],[-71.827003,-39.245886],[-71.82816,-39.245858],[-71.828124,-39.244958],[-71.829282,-39.24493],[-71.829173,-39.24223],[-71.828016,-39.242258],[-71.827943,-39.240458],[-71.826786,-39.240486],[-71.82675,-39.239586],[-71.825593,-39.239615],[-71.825556,-39.238715],[-71.823242,-39.238771],[-71.823206,-39.237871],[-71.816262,-39.238039],[-71.816298,-39.238939],[-71.81514,-39.238967],[-71.815176,-39.239867],[-71.812862,-39.239923],[-71.813041,-39.244423],[-71.814199,-39.244395],[-71.814271,-39.246195],[-71.815428,-39.246167],[-71.815464,-39.247067],[-71.816622,-39.247039],[-71.816658,-39.247939],[-71.82013,-39.247855],[-71.820166,-39.248755]]]},"properties":{"gridcode":2,"recurrencia":"Baja"}},{"type":"Feature","geometry":{"type":"Polygon","coordinates":[[[-71.821504,-39.253227],[-71.826135,-39.253115],[-71.826099,-39.252215],[-71.829571,-39.25213],[-71.829535,-39.25123],[-71.83185,-39.251174],[-71.831814,-39.250274],[-71.832971,-39.250246],[-71.832935,-39.249346],[-71.834093,-39.249318],[-71.83402,-39.247518],[-71.835178,-39.247489],[-71.834888,-39.240289],[-71.83373,-39.240318],[-71.833658,-39.238518],[-71.8325,-39.238546],[-71.832464,-39.237646],[-71.831307,-39.237674],[-71.831271,-39.236774],[-71.830113,-39.236802],[-71.830077,-39.235902],[-71.827763,-39.235958],[-71.827726,-39.235058],[-71.825412,-39.235115],[-71.825376,-39.234215],[-71.820747,-39.234327],[-71.820711,-39.233427],[-71.81261,-39.233623],[-71.812574,-39.232723],[-71.811417,-39.232751],[-71.811381,-39.231851],[-71.809066,-39.231907],[-71.80903,-39.231007],[-71.811345,-39.230951],[-71.811309,-39.230051],[-71.812466,-39.230023],[-71.81243,-39.229123],[-71.813587,-39.229095],[-71.813551,-39.228195],[-71.814708,-39.228167],[-71.814636,-39.226367],[-71.815794,-39.226339],[-71.815506,-39.219139],[-71.814349,-39.219167],[-71.814313,-39.218267],[-71.813156,-39.218295],[-71.813084,-39.216495],[-71.81077,-39.216551],[-71.810734,-39.215651],[-71.809577,-39.215678],[-71.809541,-39.214778],[-71.80607,-39.214862],[-71.806034,-39.213962],[-71.802564,-39.214046],[-71.802599,-39.214946],[-71.799128,-39.215029],[-71.799164,-39.215929],[-71.79685,-39.215985],[-71.796886,-39.216885],[-71.795729,-39.216913],[-71.795765,-39.217813],[-71.794608,-39.217841],[-71.794679,-39.219641],[-71.793522,-39.219668],[-71.793593,-39.221468],[-71.792436,-39.221496],[-71.792579,-39.225096],[-71.793736,-39.225069],[-71.793843,-39.227769],[-71.795001,-39.227741],[-71.795072,-39.229541],[-71.796229,-39.229513],[-71.796265,-39.230413],[-71.797422,-39.230385],[-71.797494,-39.232185],[-71.795179,-39.232241],[-71.795215,-39.233141],[-71.794058,-39.233169],[-71.794129,-39.234969],[-71.792972,-39.234997],[-71.793043,-39.236797],[-71.791886,-39.236824],[-71.7921,-39.242225],[-71.793258,-39.242197],[-71.793329,-39.243997],[-71.794486,-39.243969],[-71.794522,-39.244869],[-71.79568,-39.244841],[-71.795715,-39.245741],[-71.796873,-39.245714],[-71.796909,-39.246614],[-71.798066,-39.246586],[-71.798102,-39.247486],[-71.800417,-39.24743],[-71.800453,-39.24833],[-71.807398,-39.248163],[-71.807434,-39.249063],[-71.809749,-39.249007],[-71.809785,-39.249907],[-71.810942,-39.249879],[-71.810978,-39.250779],[-71.814451,-39.250695],[-71.814487,-39.251595],[-71.819117,-39.251483],[-71.819153,-39.252383],[-71.821468,-39.252327],[-71.821504,-39.253227]],[[-71.820166,-39.248755],[-71.82013,-39.247855],[-71.816658,-39.247939],[-71.816622,-39.247039],[-71.815464,-39.247067],[-71.815428,-39.246167],[-71.814271,-39.246195],[-71.814199,-39.244395],[-71.813041,-39.244423],[-71.812862,-39.239923],[-71.815176,-39.239867],[-71.81514,-39.238967],[-71.816298,-39.238939],[-71.816262,-39.238039],[-71.823206,-39.237871],[-71.823242,-39.238771],[-71.825556,-39.238715],[-71.825593,-39.239615],[-71.82675,-39.239586],[-71.826786,-39.240486],[-71.827943,-39.240458],[-71.828016,-39.242258],[-71.829173,-39.24223],[-71.829282,-39.24493],[-71.828124,-39.244958],[-71.82816,-39.245858],[-71.827003,-39.245886],[-71.827039,-39.246786],[-71.825882,-39.246815],[-71.825918,-39.247715],[-71.823603,-39.247771],[-71.823639,-39.248671],[-71.820166,-39.248755]]]},"properties":{"gridcode":1,"recurrencia":"Muy baja"}},{"type":"Feature","geometry":{"type":"Polygon","coordinates":[[[-71.75096,-39.256718],[-71.756748,-39.256581],[-71.756713,-39.255681],[-71.760186,-39.255598],[-71.760151,-39.254698],[-71.761308,-39.254671],[-71.761273,-39.253771],[-71.762431,-39.253743],[-71.762395,-39.252843],[-71.763553,-39.252816],[-71.763517,-39.251916],[-71.764675,-39.251888],[-71.764569,-39.249188],[-71.765727,-39.249161],[-71.76555,-39.24466],[-71.767865,-39.244605],[-71.7679,-39.245505],[-71.771373,-39.245423],[-71.771337,-39.244523],[-71.77481,-39.24444],[-71.774774,-39.24354],[-71.777089,-39.243485],[-71.777053,-39.242585],[-71.778211,-39.242557],[-71.778175,-39.241657],[-71.779333,-39.241629],[-71.779262,-39.239829],[-71.780419,-39.239802],[-71.780312,-39.237102],[-71.78147,-39.237074],[-71.781363,-39.234374],[-71.780206,-39.234401],[-71.780099,-39.231701],[-71.778942,-39.231729],[-71.778871,-39.229929],[-71.777714,-39.229957],[-71.777678,-39.229056],[-71.775364,-39.229112],[-71.775328,-39.228212],[-71.774171,-39.228239],[-71.774135,-39.227339],[-71.764878,-39.227559],[-71.764913,-39.22846],[-71.762599,-39.228514],[-71.762634,-39.229415],[-71.761477,-39.229442],[-71.761512,-39.230342],[-71.760355,-39.230369],[-71.76039,-39.23127],[-71.759233,-39.231297],[-71.759303,-39.233097],[-71.758146,-39.233125],[-71.758393,-39.239425],[-71.757236,-39.239452],[-71.7572,-39.238552],[-71.749098,-39.238744],[-71.749134,-39.239644],[-71.746819,-39.239699],[-71.746854,-39.240599],[-71.745696,-39.240626],[-71.745732,-39.241526],[-71.744574,-39.241553],[-71.744609,-39.242453],[-71.743452,-39.242481],[-71.743522,-39.244281],[-71.742364,-39.244308],[-71.74261,-39.250609],[-71.743768,-39.250581],[-71.743838,-39.252381],[-71.744995,-39.252354],[-71.745066,-39.254154],[-71.746223,-39.254127],[-71.746258,-39.255027],[-71.748574,-39.254972],[-71.748609,-39.255872],[-71.750924,-39.255818],[-71.75096,-39.256718]]]},"properties":{"gridcode":1,"recurrencia":"Muy baja"}},{"type":"Feature","geometry":{"type":"Polygon","coordinates":[[[-71.901478,-39.28189],[-71.910742,-39.281658],[-71.910705,-39.280758],[-71.911863,-39.280729],[-71.911826,-39.279829],[-71.914141,-39.279771],[-71.914067,-39.277972],[-71.915225,-39.277943],[-71.915187,-39.277043],[-71.916345,-39.277014],[-71.916233,-39.274314],[-71.917391,-39.274285],[-71.917279,-39.271585],[-71.916121,-39.271614],[-71.916009,-39.268914],[-71.914851,-39.268943],[-71.914777,-39.267144],[-71.913619,-39.267173],[-71.913582,-39.266273],[-71.912424,-39.266302],[-71.912387,-39.265402],[-71.910071,-39.26546],[-71.910034,-39.26456],[-71.907719,-39.264618],[-71.907682,-39.263718],[-71.903051,-39.263833],[-71.903088,-39.264733],[-71.899615,-39.26482],[-71.899652,-39.26572],[-71.897337,-39.265777],[-71.897374,-39.266677],[-71.896216,-39.266706],[-71.896253,-39.267606],[-71.895095,-39.267635],[-71.89517,-39.269435],[-71.894012,-39.269464],[-71.894308,-39.276663],[-71.895466,-39.276634],[-71.89554,-39.278434],[-71.896698,-39.278405],[-71.896735,-39.279305],[-71.897893,-39.279276],[-71.89793,-39.280176],[-71.899088,-39.280148],[-71.899125,-39.281047],[-71.901441,-39.28099],[-71.901478,-39.28189]]]},"properties":{"gridcode":1,"recurrencia":"Muy baja"}},{"type":"Feature","geometry":{"type":"Polygon","coordinates":[[[-71.991987,-39.284101],[-71.996618,-39.283982],[-71.99658,-39.283082],[-72.000053,-39.282993],[-72.000015,-39.282093],[-72.001173,-39.282063],[-72.001134,-39.281163],[-72.002292,-39.281133],[-72.002254,-39.280234],[-72.003412,-39.280204],[-72.003373,-39.279304],[-72.004531,-39.279274],[-72.004454,-39.277474],[-72.005612,-39.277444],[-72.005381,-39.272045],[-72.004223,-39.272075],[-72.004108,-39.269376],[-72.00295,-39.269405],[-72.002912,-39.268506],[-72.001754,-39.268535],[-72.001716,-39.267636],[-72.000558,-39.267665],[-72.00052,-39.266766],[-71.998204,-39.266825],[-71.998166,-39.265925],[-71.988905,-39.266164],[-71.988943,-39.267064],[-71.986628,-39.267123],[-71.986666,-39.268023],[-71.985509,-39.268053],[-71.985547,-39.268952],[-71.984389,-39.268982],[-71.984428,-39.269882],[-71.98327,-39.269912],[-71.983346,-39.271711],[-71.982189,-39.271741],[-71.982456,-39.27804],[-71.983614,-39.278011],[-71.98369,-39.27981],[-71.984848,-39.279781],[-71.984886,-39.28068],[-71.986044,-39.280651],[-71.986082,-39.281551],[-71.98724,-39.281521],[-71.987278,-39.282421],[-71.988436,-39.282391],[-71.988474,-39.283291],[-71.991948,-39.283202],[-71.991987,-39.284101]]]},"properties":{"gridcode":1,"recurrencia":"Muy baja"}},{"type":"Feature","geometry":{"type":"Polygon","coordinates":[[[-71.848393,-39.287706],[-71.851867,-39.287621],[-71.85183,-39.286721],[-71.855305,-39.286636],[-71.855268,-39.285736],[-71.856426,-39.285707],[-71.85639,-39.284807],[-71.857548,-39.284779],[-71.857511,-39.283879],[-71.858669,-39.28385],[-71.858632,-39.28295],[-71.85979,-39.282922],[-71.859717,-39.281122],[-71.860875,-39.281093],[-71.860619,-39.274794],[-71.859461,-39.274822],[-71.859388,-39.273022],[-71.85823,-39.273051],[-71.858193,-39.272151],[-71.857035,-39.272179],[-71.856999,-39.271279],[-71.855841,-39.271308],[-71.855804,-39.270408],[-71.853489,-39.270464],[-71.853452,-39.269564],[-71.84419,-39.269791],[-71.844226,-39.270691],[-71.84191,-39.270748],[-71.841947,-39.271648],[-71.840789,-39.271676],[-71.840825,-39.272576],[-71.839667,-39.272604],[-71.83974,-39.274404],[-71.838582,-39.274433],[-71.838655,-39.276232],[-71.837497,-39.276261],[-71.837679,-39.280761],[-71.838837,-39.280732],[-71.838909,-39.282532],[-71.840067,-39.282504],[-71.84014,-39.284304],[-71.841298,-39.284276],[-71.841335,-39.285176],[-71.842493,-39.285148],[-71.842529,-39.286047],[-71.844845,-39.285991],[-71.844882,-39.286891],[-71.848356,-39.286806],[-71.848393,-39.287706]]]},"properties":{"gridcode":1,"recurrencia":"Muy baja"}},{"type":"Feature","geometry":{"type":"Polygon","coordinates":[[[-71.983947,-39.313135],[-71.992055,-39.312927],[-71.992017,-39.312027],[-71.994334,-39.311967],[-71.994295,-39.311067],[-71.996612,-39.311008],[-71.996574,-39.310108],[-71.997732,-39.310078],[-71.997655,-39.308278],[-71.998813,-39.308248],[-71.998736,-39.306449],[-71.999895,-39.306419],[-71.999702,-39.30192],[-72.002019,-39.30186],[-72.002057,-39.30276],[-72.010165,-39.30255],[-72.010126,-39.30165],[-72.012443,-39.30159],[-72.012404,-39.300691],[-72.013562,-39.300661],[-72.013523,-39.299761],[-72.014682,-39.299731],[-72.014643,-39.298831],[-72.015801,-39.298801],[-72.015762,-39.297901],[-72.016921,-39.297871],[-72.016805,-39.295171],[-72.017963,-39.295141],[-72.017847,-39.292442],[-72.016689,-39.292472],[-72.016573,-39.289772],[-72.015415,-39.289802],[-72.015337,-39.288003],[-72.01418,-39.288033],[-72.014141,-39.287133],[-72.012983,-39.287163],[-72.012944,-39.286263],[-72.010629,-39.286323],[-72.01059,-39.285423],[-72.008274,-39.285483],[-72.008236,-39.284583],[-72.002446,-39.284733],[-72.002485,-39.285633],[-72.000169,-39.285692],[-72.000207,-39.286592],[-71.997891,-39.286652],[-71.99793,-39.287552],[-71.996772,-39.287582],[-71.99681,-39.288482],[-71.995652,-39.288511],[-71.995729,-39.290311],[-71.994571,-39.290341],[-71.994839,-39.29664],[-71.993681,-39.29667],[-71.993643,-39.29577],[-71.990169,-39.295859],[-71.99013,-39.294959],[-71.98434,-39.295108],[-71.984378,-39.296008],[-71.98322,-39.296038],[-71.983105,-39.293338],[-71.981947,-39.293368],[-71.981871,-39.291568],[-71.980713,-39.291598],[-71.980675,-39.290698],[-71.979517,-39.290727],[-71.979478,-39.289828],[-71.97832,-39.289857],[-71.978282,-39.288957],[-71.975966,-39.289017],[-71.975928,-39.288117],[-71.966664,-39.288353],[-71.966702,-39.289253],[-71.964386,-39.289312],[-71.964424,-39.290212],[-71.963266,-39.290242],[-71.963304,-39.291142],[-71.962146,-39.291171],[-71.962222,-39.292971],[-71.961064,-39.293],[-71.961026,-39.2921],[-71.952919,-39.292306],[-71.952957,-39.293206],[-71.950641,-39.293265],[-71.950679,-39.294165],[-71.94952,-39.294194],[-71.949558,-39.295094],[-71.9484,-39.295124],[-71.948438,-39.296024],[-71.94728,-39.296053],[-71.947355,-39.297853],[-71.946197,-39.297882],[-71.946461,-39.304181],[-71.94762,-39.304152],[-71.947695,-39.305952],[-71.948854,-39.305922],[-71.948929,-39.307722],[-71.950087,-39.307693],[-71.950125,-39.308593],[-71.952442,-39.308534],[-71.95248,-39.309434],[-71.954797,-39.309375],[-71.954834,-39.310275],[-71.961785,-39.310098],[-71.961747,-39.309198],[-71.964063,-39.309139],[-71.964025,-39.308239],[-71.965184,-39.30821],[-71.965146,-39.30731],[-71.966304,-39.30728],[-71.966266,-39.30638],[-71.967424,-39.306351],[-71.967386,-39.305451],[-71.969703,-39.305392],[-71.969741,-39.306292],[-71.974374,-39.306173],[-71.974336,-39.305274],[-71.976653,-39.305214],[-71.976767,-39.307914],[-71.977925,-39.307884],[-71.978002,-39.309684],[-71.97916,-39.309654],[-71.979198,-39.310554],[-71.980357,-39.310525],[-71.980395,-39.311424],[-71.981553,-39.311395],[-71.981591,-39.312295],[-71.983908,-39.312235],[-71.983947,-39.313135]]]},"properties":{"gridcode":1,"recurrencia":"Muy baja"}},{"type":"Feature","geometry":{"type":"Polygon","coordinates":[[[-71.92154,-39.318323],[-71.926175,-39.318206],[-71.926137,-39.317306],[-71.927296,-39.317277],[-71.927033,-39.310978],[-71.925874,-39.311007],[-71.925837,-39.310107],[-71.921203,-39.310223],[-71.921241,-39.311123],[-71.920082,-39.311152],[-71.920307,-39.316552],[-71.921465,-39.316523],[-71.92154,-39.318323]]]},"properties":{"gridcode":2,"recurrencia":"Baja"}},{"type":"Feature","geometry":{"type":"Polygon","coordinates":[[[-71.874038,-39.319506],[-71.879832,-39.319363],[-71.879795,-39.318463],[-71.882112,-39.318406],[-71.882075,-39.317506],[-71.884392,-39.317448],[-71.884355,-39.316548],[-71.885514,-39.316519],[-71.885477,-39.31562],[-71.886635,-39.315591],[-71.886561,-39.313791],[-71.88772,-39.313762],[-71.887423,-39.306563],[-71.886265,-39.306591],[-71.886191,-39.304791],[-71.885033,-39.30482],[-71.884996,-39.30392],[-71.883837,-39.303949],[-71.8838,-39.303049],[-71.882642,-39.303078],[-71.882605,-39.302178],[-71.880288,-39.302235],[-71.880252,-39.301335],[-71.872143,-39.301536],[-71.87218,-39.302436],[-71.869863,-39.302493],[-71.8699,-39.303393],[-71.868742,-39.303421],[-71.868779,-39.304321],[-71.86762,-39.30435],[-71.867657,-39.30525],[-71.866499,-39.305278],[-71.866535,-39.306178],[-71.865377,-39.306207],[-71.865487,-39.308907],[-71.864329,-39.308935],[-71.864476,-39.312535],[-71.865634,-39.312507],[-71.865708,-39.314307],[-71.866866,-39.314278],[-71.86694,-39.316078],[-71.868098,-39.316049],[-71.868135,-39.316949],[-71.869294,-39.316921],[-71.86933,-39.317821],[-71.870489,-39.317792],[-71.870526,-39.318692],[-71.874002,-39.318606],[-71.874038,-39.319506]]]},"properties":{"gridcode":1,"recurrencia":"Muy baja"}},{"type":"Feature","geometry":{"type":"Polygon","coordinates":[[[-71.91956,-39.32648],[-71.92883,-39.326247],[-71.928792,-39.325347],[-71.931109,-39.325289],[-71.931072,-39.324389],[-71.93223,-39.32436],[-71.932193,-39.32346],[-71.933351,-39.323431],[-71.933314,-39.322531],[-71.934472,-39.322501],[-71.934397,-39.320702],[-71.935556,-39.320672],[-71.935292,-39.314373],[-71.934134,-39.314402],[-71.934096,-39.313502],[-71.935255,-39.313473],[-71.934991,-39.307174],[-71.933833,-39.307203],[-71.933758,-39.305403],[-71.932599,-39.305432],[-71.932562,-39.304533],[-71.931403,-39.304562],[-71.931366,-39.303662],[-71.930208,-39.303691],[-71.93017,-39.302791],[-71.929012,-39.30282],[-71.928974,-39.30192],[-71.924341,-39.302037],[-71.924304,-39.301137],[-71.921987,-39.301195],[-71.922025,-39.302095],[-71.91855,-39.302182],[-71.918587,-39.303082],[-71.916271,-39.30314],[-71.916308,-39.30404],[-71.91515,-39.304069],[-71.915187,-39.304969],[-71.914029,-39.304998],[-71.914066,-39.305898],[-71.912908,-39.305927],[-71.91302,-39.308627],[-71.911861,-39.308656],[-71.912048,-39.313156],[-71.913206,-39.313127],[-71.913281,-39.314926],[-71.912123,-39.314955],[-71.912347,-39.320355],[-71.913505,-39.320326],[-71.913617,-39.323026],[-71.914776,-39.322997],[-71.914813,-39.323897],[-71.915972,-39.323868],[-71.916009,-39.324767],[-71.917168,-39.324738],[-71.917205,-39.325638],[-71.919523,-39.32558],[-71.91956,-39.32648]],[[-71.92154,-39.318323],[-71.921465,-39.316523],[-71.920307,-39.316552],[-71.920082,-39.311152],[-71.921241,-39.311123],[-71.921203,-39.310223],[-71.925837,-39.310107],[-71.925874,-39.311007],[-71.927033,-39.310978],[-71.927296,-39.317277],[-71.926137,-39.317306],[-71.926175,-39.318206],[-71.92154,-39.318323]]]},"properties":{"gridcode":1,"recurrencia":"Muy baja"}},{"type":"Feature","geometry":{"type":"Polygon","coordinates":[[[-71.847974,-39.334561],[-71.858404,-39.334305],[-71.858368,-39.333405],[-71.859526,-39.333377],[-71.85949,-39.332477],[-71.861807,-39.33242],[-71.861734,-39.33062],[-71.862893,-39.330591],[-71.862856,-39.329691],[-71.864015,-39.329663],[-71.863684,-39.321563],[-71.862526,-39.321592],[-71.862489,-39.320692],[-71.86133,-39.32072],[-71.861257,-39.31892],[-71.860098,-39.318949],[-71.860062,-39.318049],[-71.857744,-39.318106],[-71.857708,-39.317206],[-71.854232,-39.317291],[-71.854195,-39.316391],[-71.85072,-39.316477],[-71.850756,-39.317377],[-71.84728,-39.317462],[-71.847317,-39.318362],[-71.845,-39.318418],[-71.845036,-39.319318],[-71.843877,-39.319347],[-71.843914,-39.320247],[-71.842755,-39.320275],[-71.842828,-39.322075],[-71.841669,-39.322103],[-71.841779,-39.324803],[-71.84062,-39.324831],[-71.840693,-39.326631],[-71.841852,-39.326603],[-71.841998,-39.330203],[-71.843156,-39.330175],[-71.843229,-39.331975],[-71.844388,-39.331946],[-71.844425,-39.332846],[-71.846742,-39.33279],[-71.846779,-39.333689],[-71.847938,-39.333661],[-71.847974,-39.334561]]]},"properties":{"gridcode":1,"recurrencia":"Muy baja"}},{"type":"Feature","geometry":{"type":"Polygon","coordinates":[[[-71.632967,-39.354942],[-71.636446,-39.354863],[-71.636412,-39.353963],[-71.63989,-39.353884],[-71.639856,-39.352984],[-71.642175,-39.352932],[-71.642141,-39.352032],[-71.6433,-39.352005],[-71.643266,-39.351105],[-71.644426,-39.351079],[-71.644358,-39.349278],[-71.645517,-39.349252],[-71.645415,-39.346552],[-71.646575,-39.346525],[-71.646473,-39.343825],[-71.645313,-39.343851],[-71.645212,-39.341151],[-71.644052,-39.341177],[-71.644018,-39.340277],[-71.642859,-39.340304],[-71.642791,-39.338503],[-71.640473,-39.338556],[-71.640439,-39.337656],[-71.63928,-39.337682],[-71.639246,-39.336782],[-71.628814,-39.337018],[-71.628848,-39.337918],[-71.627689,-39.337945],[-71.627722,-39.338845],[-71.626563,-39.338871],[-71.626597,-39.339771],[-71.625438,-39.339797],[-71.625471,-39.340697],[-71.624312,-39.340724],[-71.624346,-39.341624],[-71.623187,-39.34165],[-71.62349,-39.349751],[-71.624649,-39.349725],[-71.624716,-39.351525],[-71.625876,-39.351499],[-71.62591,-39.352399],[-71.627069,-39.352373],[-71.627103,-39.353273],[-71.629421,-39.353221],[-71.629455,-39.354121],[-71.632934,-39.354042],[-71.632967,-39.354942]]]},"properties":{"gridcode":1,"recurrencia":"Muy baja"}},{"type":"Feature","geometry":{"type":"Polygon","coordinates":[[[-71.605341,-39.36097],[-71.611139,-39.36084],[-71.611105,-39.35994],[-71.613425,-39.359888],[-71.613391,-39.358987],[-71.61571,-39.358935],[-71.615676,-39.358035],[-71.616836,-39.358009],[-71.616802,-39.357109],[-71.617962,-39.357083],[-71.617895,-39.355283],[-71.619054,-39.355256],[-71.618953,-39.352556],[-71.620113,-39.35253],[-71.620012,-39.349829],[-71.618852,-39.349856],[-71.618751,-39.347155],[-71.617592,-39.347181],[-71.617558,-39.346281],[-71.616399,-39.346307],[-71.616332,-39.344507],[-71.614013,-39.344559],[-71.61398,-39.343659],[-71.611661,-39.343711],[-71.611628,-39.342811],[-71.603513,-39.342993],[-71.603546,-39.343893],[-71.601228,-39.343945],[-71.601261,-39.344845],[-71.600102,-39.344871],[-71.600135,-39.345771],[-71.598976,-39.345797],[-71.599009,-39.346697],[-71.59785,-39.346723],[-71.597917,-39.348523],[-71.596757,-39.348549],[-71.597024,-39.35575],[-71.598184,-39.355725],[-71.59825,-39.357525],[-71.59941,-39.357499],[-71.599443,-39.358399],[-71.600603,-39.358373],[-71.600636,-39.359273],[-71.602955,-39.359221],[-71.602989,-39.360122],[-71.605308,-39.36007],[-71.605341,-39.36097]]]},"properties":{"gridcode":1,"recurrencia":"Muy baja"}},{"type":"Feature","geometry":{"type":"Polygon","coordinates":[[[-71.961557,-39.35965],[-71.969672,-39.359443],[-71.969633,-39.358544],[-71.971952,-39.358484],[-71.971914,-39.357584],[-71.973073,-39.357555],[-71.973034,-39.356655],[-71.974194,-39.356625],[-71.974155,-39.355725],[-71.975315,-39.355696],[-71.975276,-39.354796],[-71.976435,-39.354766],[-71.976283,-39.351167],[-71.977442,-39.351137],[-71.977403,-39.350237],[-71.976244,-39.350267],[-71.976092,-39.346667],[-71.974933,-39.346697],[-71.974856,-39.344897],[-71.973697,-39.344927],[-71.973659,-39.344027],[-71.9725,-39.344057],[-71.972462,-39.343157],[-71.970144,-39.343216],[-71.970106,-39.342316],[-71.966629,-39.342405],[-71.966591,-39.341505],[-71.963115,-39.341594],[-71.963153,-39.342494],[-71.959676,-39.342582],[-71.959714,-39.343482],[-71.957396,-39.343541],[-71.957434,-39.344441],[-71.956275,-39.34447],[-71.956313,-39.34537],[-71.955154,-39.3454],[-71.95523,-39.3472],[-71.954071,-39.347229],[-71.954412,-39.355328],[-71.955571,-39.355298],[-71.955609,-39.356198],[-71.956769,-39.356169],[-71.956807,-39.357069],[-71.957966,-39.357039],[-71.958004,-39.357939],[-71.959163,-39.35791],[-71.959201,-39.35881],[-71.961519,-39.35875],[-71.961557,-39.35965]]]},"properties":{"gridcode":1,"recurrencia":"Muy baja"}},{"type":"Feature","geometry":{"type":"Polygon","coordinates":[[[-71.66455,-39.39206],[-71.67151,-39.3919],[-71.671476,-39.391],[-71.673796,-39.390947],[-71.673761,-39.390047],[-71.676081,-39.389994],[-71.676047,-39.389093],[-71.677207,-39.389067],[-71.677138,-39.387267],[-71.678298,-39.38724],[-71.678229,-39.38544],[-71.679389,-39.385413],[-71.679182,-39.380012],[-71.678022,-39.380039],[-71.677954,-39.378239],[-71.676794,-39.378266],[-71.676725,-39.376466],[-71.675565,-39.376492],[-71.675531,-39.375592],[-71.673211,-39.375645],[-71.673177,-39.374745],[-71.670858,-39.374799],[-71.670823,-39.373899],[-71.663865,-39.374058],[-71.663899,-39.374958],[-71.66158,-39.375011],[-71.661614,-39.375912],[-71.660454,-39.375938],[-71.660488,-39.376838],[-71.659329,-39.376865],[-71.659363,-39.377765],[-71.658203,-39.377791],[-71.658237,-39.378691],[-71.657077,-39.378718],[-71.657146,-39.380518],[-71.655986,-39.380545],[-71.656191,-39.385945],[-71.65735,-39.385919],[-71.657419,-39.387719],[-71.658579,-39.387692],[-71.658647,-39.389493],[-71.659807,-39.389466],[-71.659841,-39.390366],[-71.662161,-39.390313],[-71.662196,-39.391213],[-71.664516,-39.39116],[-71.66455,-39.39206]]]},"properties":{"gridcode":1,"recurrencia":"Muy baja"}},{"type":"Feature","geometry":{"type":"Polygon","coordinates":[[[-71.542021,-39.438948],[-71.550148,-39.43877],[-71.550115,-39.437869],[-71.552437,-39.437818],[-71.552404,-39.436918],[-71.553565,-39.436893],[-71.553532,-39.435993],[-71.554693,-39.435967],[-71.55466,-39.435067],[-71.555821,-39.435041],[-71.555755,-39.433241],[-71.556916,-39.433215],[-71.556685,-39.426914],[-71.555524,-39.42694],[-71.555459,-39.425139],[-71.554298,-39.425165],[-71.554232,-39.423365],[-71.553071,-39.42339],[-71.553039,-39.42249],[-71.550717,-39.422541],[-71.550685,-39.421641],[-71.548363,-39.421692],[-71.54833,-39.420791],[-71.541367,-39.420944],[-71.5414,-39.421844],[-71.54,-39.421875],[-71.54,-39.438091],[-71.541989,-39.438047],[-71.542021,-39.438948]]]},"properties":{"gridcode":1,"recurrencia":"Muy baja"}},{"type":"Feature","geometry":{"type":"Polygon","coordinates":[[[-71.641888,-39.437622],[-71.650014,-39.437437],[-71.64998,-39.436536],[-71.652301,-39.436483],[-71.652267,-39.435583],[-71.653428,-39.435557],[-71.653394,-39.434657],[-71.654554,-39.43463],[-71.65452,-39.43373],[-71.655681,-39.433704],[-71.655647,-39.432804],[-71.656808,-39.432777],[-71.656705,-39.430077],[-71.657866,-39.43005],[-71.657831,-39.42915],[-71.658992,-39.429124],[-71.65906,-39.430924],[-71.660221,-39.430897],[-71.660255,-39.431797],[-71.661416,-39.431771],[-71.66145,-39.432671],[-71.662611,-39.432644],[-71.662645,-39.433544],[-71.663806,-39.433518],[-71.66384,-39.434418],[-71.667322,-39.434338],[-71.667357,-39.435238],[-71.670839,-39.435158],[-71.670805,-39.434258],[-71.674287,-39.434178],[-71.674252,-39.433278],[-71.676574,-39.433224],[-71.676539,-39.432324],[-71.6777,-39.432298],[-71.677665,-39.431398],[-71.678826,-39.431371],[-71.678792,-39.430471],[-71.679952,-39.430444],[-71.679849,-39.427744],[-71.681009,-39.427717],[-71.680837,-39.423217],[-71.679676,-39.423243],[-71.679607,-39.421443],[-71.678447,-39.42147],[-71.678378,-39.41967],[-71.677217,-39.419696],[-71.677183,-39.418796],[-71.676022,-39.418823],[-71.675988,-39.417923],[-71.673667,-39.417976],[-71.673633,-39.417076],[-71.664349,-39.417289],[-71.664384,-39.41819],[-71.662063,-39.418243],[-71.662097,-39.419143],[-71.660936,-39.419169],[-71.660971,-39.42007],[-71.65981,-39.420096],[-71.659844,-39.420996],[-71.658684,-39.421023],[-71.658752,-39.422823],[-71.657592,-39.422849],[-71.657729,-39.42645],[-71.656568,-39.426476],[-71.656465,-39.423776],[-71.655305,-39.423803],[-71.655271,-39.422902],[-71.65411,-39.422929],[-71.654076,-39.422029],[-71.652916,-39.422055],[-71.652881,-39.421155],[-71.651721,-39.421182],[-71.651687,-39.420282],[-71.648205,-39.420361],[-71.648171,-39.419461],[-71.642369,-39.419593],[-71.642403,-39.420493],[-71.640082,-39.420546],[-71.640116,-39.421446],[-71.637795,-39.421499],[-71.637829,-39.422399],[-71.636668,-39.422425],[-71.636702,-39.423325],[-71.635541,-39.423351],[-71.635609,-39.425152],[-71.634449,-39.425178],[-71.63472,-39.432379],[-71.635881,-39.432353],[-71.635949,-39.434153],[-71.637109,-39.434126],[-71.637143,-39.435027],[-71.638304,-39.435],[-71.638338,-39.4359],[-71.639499,-39.435874],[-71.639533,-39.436774],[-71.641854,-39.436721],[-71.641888,-39.437622]]]},"properties":{"gridcode":1,"recurrencia":"Muy baja"}}]}