{"type":"FeatureCollection","features":[{"type":"Feature","id":1038,"geometry":{"type":"Point","coordinates":[-71.539152,-32.970345]},"properties":{"OBJECTID":1038,"nombre_pe":null,"cine_prov":"051","cine_com":"05109","nom_com":"Viña del Mar","nom_prov":"Valparaíso","nom_reg":"Valparaíso","cine_reg":"05","tipo":"PE","name":"05109PE021","sector":"Viña del Mar"}},{"type":"Feature","id":1039,"geometry":{"type":"Point","coordinates":[-71.547097,-32.959458]},"properties":{"OBJECTID":1039,"nombre_pe":null,"cine_prov":"051","cine_com":"05109","nom_com":"Viña del Mar","nom_prov":"Valparaíso","nom_reg":"Valparaíso","cine_reg":"05","tipo":"PE","name":"05109PE022","sector":"Viña del Mar"}},{"type":"Feature","id":1040,"geometry":{"type":"Point","coordinates":[-71.540337,-32.970351]},"properties":{"OBJECTID":1040,"nombre_pe":null,"cine_prov":"051","cine_com":"05109","nom_com":"Viña del Mar","nom_prov":"Valparaíso","nom_reg":"Valparaíso","cine_reg":"05","tipo":"PE","name":"05109PE023","sector":"Viña del Mar"}},{"type":"Feature","id":1041,"geometry":{"type":"Point","coordinates":[-71.532459,-32.975364]},"properties":{"OBJECTID":1041,"nombre_pe":null,"cine_prov":"051","cine_com":"05109","nom_com":"Viña del Mar","nom_prov":"Valparaíso","nom_reg":"Valparaíso","cine_reg":"05","tipo":"PE","name":"05109PE015","sector":"Viña del Mar"}},{"type":"Feature","id":1043,"geometry":{"type":"Point","coordinates":[-71.536392,-32.974726]},"properties":{"OBJECTID":1043,"nombre_pe":null,"cine_prov":"051","cine_com":"05109","nom_com":"Viña del Mar","nom_prov":"Valparaíso","nom_reg":"Valparaíso","cine_reg":"05","tipo":"PE","name":"05109PE024","sector":"Viña del Mar"}},{"type":"Feature","id":1044,"geometry":{"type":"Point","coordinates":[-71.547561,-33.005639]},"properties":{"OBJECTID":1044,"nombre_pe":null,"cine_prov":"051","cine_com":"05109","nom_com":"Viña del Mar","nom_prov":"Valparaíso","nom_reg":"Valparaíso","cine_reg":"05","tipo":"PE","name":"05109PE025","sector":"Viña del Mar"}},{"type":"Feature","id":1046,"geometry":{"type":"Point","coordinates":[-71.54589,-33.005202]},"properties":{"OBJECTID":1046,"nombre_pe":null,"cine_prov":"051","cine_com":"05109","nom_com":"Viña del Mar","nom_prov":"Valparaíso","nom_reg":"Valparaíso","cine_reg":"05","tipo":"PE","name":"05109PE026","sector":"Viña del Mar"}},{"type":"Feature","id":1048,"geometry":{"type":"Point","coordinates":[-71.536796,-33.015087]},"properties":{"OBJECTID":1048,"nombre_pe":null,"cine_prov":"051","cine_com":"05109","nom_com":"Viña del Mar","nom_prov":"Valparaíso","nom_reg":"Valparaíso","cine_reg":"05","tipo":"PE","name":"05109PE027","sector":"Viña del Mar"}},{"type":"Feature","id":1050,"geometry":{"type":"Point","coordinates":[-71.543774,-33.032847]},"properties":{"OBJECTID":1050,"nombre_pe":null,"cine_prov":"051","cine_com":"05109","nom_com":"Viña del Mar","nom_prov":"Valparaíso","nom_reg":"Valparaíso","cine_reg":"05","tipo":"PE","name":"05109PE028","sector":"Viña del Mar"}},{"type":"Feature","id":1052,"geometry":{"type":"Point","coordinates":[-71.545861,-32.988058]},"properties":{"OBJECTID":1052,"nombre_pe":null,"cine_prov":"051","cine_com":"05109","nom_com":"Viña del Mar","nom_prov":"Valparaíso","nom_reg":"Valparaíso","cine_reg":"05","tipo":"PE","name":"05109PE029","sector":"Viña del Mar"}},{"type":"Feature","id":1054,"geometry":{"type":"Point","coordinates":[-71.539603,-33.009803]},"properties":{"OBJECTID":1054,"nombre_pe":null,"cine_prov":"051","cine_com":"05109","nom_com":"Viña del Mar","nom_prov":"Valparaíso","nom_reg":"Valparaíso","cine_reg":"05","tipo":"PE","name":"05109PE030","sector":"Viña del Mar"}},{"type":"Feature","id":1056,"geometry":{"type":"Point","coordinates":[-71.543648,-32.99727]},"properties":{"OBJECTID":1056,"nombre_pe":null,"cine_prov":"051","cine_com":"05109","nom_com":"Viña del Mar","nom_prov":"Valparaíso","nom_reg":"Valparaíso","cine_reg":"05","tipo":"PE","name":"05109PE031","sector":"Viña del Mar"}},{"type":"Feature","id":1058,"geometry":{"type":"Point","coordinates":[-71.566097,-33.023089]},"properties":{"OBJECTID":1058,"nombre_pe":null,"cine_prov":"051","cine_com":"05109","nom_com":"Viña del Mar","nom_prov":"Valparaíso","nom_reg":"Valparaíso","cine_reg":"05","tipo":"PE","name":"05109PE032","sector":"Viña del Mar"}},{"type":"Feature","id":1060,"geometry":{"type":"Point","coordinates":[-71.563631,-33.024005]},"properties":{"OBJECTID":1060,"nombre_pe":null,"cine_prov":"051","cine_com":"05109","nom_com":"Viña del Mar","nom_prov":"Valparaíso","nom_reg":"Valparaíso","cine_reg":"05","tipo":"PE","name":"05109PE033","sector":"Viña del Mar"}},{"type":"Feature","id":1062,"geometry":{"type":"Point","coordinates":[-71.56306,-33.028235]},"properties":{"OBJECTID":1062,"nombre_pe":null,"cine_prov":"051","cine_com":"05109","nom_com":"Viña del Mar","nom_prov":"Valparaíso","nom_reg":"Valparaíso","cine_reg":"05","tipo":"PE","name":"05109PE034","sector":"Viña del Mar"}},{"type":"Feature","id":1064,"geometry":{"type":"Point","coordinates":[-71.545259,-33.029351]},"properties":{"OBJECTID":1064,"nombre_pe":null,"cine_prov":"051","cine_com":"05109","nom_com":"Viña del Mar","nom_prov":"Valparaíso","nom_reg":"Valparaíso","cine_reg":"05","tipo":"PE","name":"05109PE035","sector":"Viña del Mar"}},{"type":"Feature","id":1066,"geometry":{"type":"Point","coordinates":[-71.577957,-33.029246]},"properties":{"OBJECTID":1066,"nombre_pe":null,"cine_prov":"051","cine_com":"05109","nom_com":"Viña del Mar","nom_prov":"Valparaíso","nom_reg":"Valparaíso","cine_reg":"05","tipo":"PE","name":"05109PE006","sector":"Viña del Mar"}},{"type":"Feature","id":1068,"geometry":{"type":"Point","coordinates":[-71.570529,-33.025385]},"properties":{"OBJECTID":1068,"nombre_pe":null,"cine_prov":"051","cine_com":"05109","nom_com":"Viña del Mar","nom_prov":"Valparaíso","nom_reg":"Valparaíso","cine_reg":"05","tipo":"PE","name":"05109PE036","sector":"Viña del Mar"}},{"type":"Feature","id":1070,"geometry":{"type":"Point","coordinates":[-71.565481,-33.024841]},"properties":{"OBJECTID":1070,"nombre_pe":null,"cine_prov":"051","cine_com":"05109","nom_com":"Viña del Mar","nom_prov":"Valparaíso","nom_reg":"Valparaíso","cine_reg":"05","tipo":"PE","name":"05109PE037","sector":"Viña del Mar"}},{"type":"Feature","id":1072,"geometry":{"type":"Point","coordinates":[-71.56055,-33.026875]},"properties":{"OBJECTID":1072,"nombre_pe":null,"cine_prov":"051","cine_com":"05109","nom_com":"Viña del Mar","nom_prov":"Valparaíso","nom_reg":"Valparaíso","cine_reg":"05","tipo":"PE","name":"05109PE038","sector":"Viña del Mar"}},{"type":"Feature","id":1074,"geometry":{"type":"Point","coordinates":[-71.575695,-33.028393]},"properties":{"OBJECTID":1074,"nombre_pe":null,"cine_prov":"051","cine_com":"05109","nom_com":"Viña del Mar","nom_prov":"Valparaíso","nom_reg":"Valparaíso","cine_reg":"05","tipo":"PE","name":"05109PE039","sector":"Viña del Mar"}},{"type":"Feature","id":1076,"geometry":{"type":"Point","coordinates":[-71.562635,-33.023382]},"properties":{"OBJECTID":1076,"nombre_pe":null,"cine_prov":"051","cine_com":"05109","nom_com":"Viña del Mar","nom_prov":"Valparaíso","nom_reg":"Valparaíso","cine_reg":"05","tipo":"PE","name":"05109PE040","sector":"Viña del Mar"}},{"type":"Feature","id":1082,"geometry":{"type":"Point","coordinates":[-71.54321,-32.974153]},"properties":{"OBJECTID":1082,"nombre_pe":null,"cine_prov":"051","cine_com":"05109","nom_com":"Viña del Mar","nom_prov":"Valparaíso","nom_reg":"Valparaíso","cine_reg":"05","tipo":"PE","name":"05109PE041","sector":"Viña del Mar"}},{"type":"Feature","id":1083,"geometry":{"type":"Point","coordinates":[-71.541438,-33.007674]},"properties":{"OBJECTID":1083,"nombre_pe":null,"cine_prov":"051","cine_com":"05109","nom_com":"Viña del Mar","nom_prov":"Valparaíso","nom_reg":"Valparaíso","cine_reg":"05","tipo":"PE","name":"05109PE042","sector":"Viña del Mar"}},{"type":"Feature","id":1084,"geometry":{"type":"Point","coordinates":[-71.584396,-33.030871]},"properties":{"OBJECTID":1084,"nombre_pe":null,"cine_prov":"051","cine_com":"05109","nom_com":"Viña del Mar","nom_prov":"Valparaíso","nom_reg":"Valparaíso","cine_reg":"05","tipo":"PE","name":"05109PE003","sector":"Valparaiso"}},{"type":"Feature","id":1089,"geometry":{"type":"Point","coordinates":[-71.599681,-33.053382]},"properties":{"OBJECTID":1089,"nombre_pe":null,"cine_prov":"051","cine_com":"05101","nom_com":"Valparaíso","nom_prov":"Valparaíso","nom_reg":"Valparaíso","cine_reg":"05","tipo":"PE","name":"05101PE008","sector":"Valparaiso"}},{"type":"Feature","id":1090,"geometry":{"type":"Point","coordinates":[-71.590826,-33.03532]},"properties":{"OBJECTID":1090,"nombre_pe":null,"cine_prov":"051","cine_com":"05101","nom_com":"Valparaíso","nom_prov":"Valparaíso","nom_reg":"Valparaíso","cine_reg":"05","tipo":"PE","name":"05101PE032","sector":"Valparaiso"}},{"type":"Feature","id":1094,"geometry":{"type":"Point","coordinates":[-71.599476,-33.050766]},"properties":{"OBJECTID":1094,"nombre_pe":null,"cine_prov":"051","cine_com":"05101","nom_com":"Valparaíso","nom_prov":"Valparaíso","nom_reg":"Valparaíso","cine_reg":"05","tipo":"PE","name":"05101PE014","sector":"Valparaiso"}},{"type":"Feature","id":1095,"geometry":{"type":"Point","coordinates":[-71.595672,-33.038987]},"properties":{"OBJECTID":1095,"nombre_pe":null,"cine_prov":"051","cine_com":"05101","nom_com":"Valparaíso","nom_prov":"Valparaíso","nom_reg":"Valparaíso","cine_reg":"05","tipo":"PE","name":"05101PE027","sector":"Valparaiso"}},{"type":"Feature","id":1117,"geometry":{"type":"Point","coordinates":[-71.587422,-33.03293]},"properties":{"OBJECTID":1117,"nombre_pe":null,"cine_prov":"051","cine_com":"05101","nom_com":"Valparaíso","nom_prov":"Valparaíso","nom_reg":"Valparaíso","cine_reg":"05","tipo":"PE","name":"05101PE048","sector":"Valparaiso"}},{"type":"Feature","id":1120,"geometry":{"type":"Point","coordinates":[-71.596167,-33.036978]},"properties":{"OBJECTID":1120,"nombre_pe":null,"cine_prov":"051","cine_com":"05101","nom_com":"Valparaíso","nom_prov":"Valparaíso","nom_reg":"Valparaíso","cine_reg":"05","tipo":"PE","name":"05101PE030","sector":"Valparaiso"}},{"type":"Feature","id":1272,"geometry":{"type":"Point","coordinates":[-71.536921,-32.932853]},"properties":{"OBJECTID":1272,"nombre_pe":null,"cine_prov":"051","cine_com":"05103","nom_com":"Concón","nom_prov":"Valparaíso","nom_reg":"Valparaíso","cine_reg":"05","tipo":"PE","name":"05103PE008","sector":"Concon"}},{"type":"Feature","id":1273,"geometry":{"type":"Point","coordinates":[-71.541712,-32.930803]},"properties":{"OBJECTID":1273,"nombre_pe":null,"cine_prov":"051","cine_com":"05103","nom_com":"Concón","nom_prov":"Valparaíso","nom_reg":"Valparaíso","cine_reg":"05","tipo":"PE","name":"05103PE009","sector":"Concon"}},{"type":"Feature","id":1307,"geometry":{"type":"Point","coordinates":[-71.586876,-33.038829]},"properties":{"OBJECTID":1307,"nombre_pe":null,"cine_prov":"051","cine_com":"05101","nom_com":"Valparaíso","nom_prov":"Valparaíso","nom_reg":"Valparaíso","cine_reg":"05","tipo":"PE","name":"05101PE028","sector":"Valparaiso"}}]}