{"type":"FeatureCollection","features":[{"type":"Feature","geometry":{"type":"Polygon","coordinates":[[[-71.484461,-32.94359],[-71.48553,-32.943568],[-71.485505,-32.942667],[-71.487643,-32.942625],[-71.487617,-32.941724],[-71.488686,-32.941702],[-71.488661,-32.940801],[-71.48973,-32.94078],[-71.489603,-32.936274],[-71.488534,-32.936295],[-71.488484,-32.934493],[-71.486347,-32.934535],[-71.486321,-32.933634],[-71.484184,-32.933677],[-71.484159,-32.932775],[-71.482022,-32.932818],[-71.481996,-32.931917],[-71.48,-32.931957],[-71.48,-32.940973],[-71.480111,-32.940971],[-71.480136,-32.941872],[-71.481205,-32.941851],[-71.48123,-32.942752],[-71.484436,-32.942689],[-71.484461,-32.94359]]]},"properties":{"gridcode":2,"recurrencia":"Baja"}},{"type":"Feature","geometry":{"type":"Polygon","coordinates":[[[-71.48,-32.93],[-71.48,-32.946383],[-71.480262,-32.946378],[-71.480287,-32.94728],[-71.482425,-32.947237],[-71.48245,-32.948138],[-71.487794,-32.948032],[-71.487769,-32.947131],[-71.490975,-32.947067],[-71.49095,-32.946166],[-71.492019,-32.946144],[-71.491994,-32.945243],[-71.493062,-32.945222],[-71.493037,-32.944321],[-71.494106,-32.944299],[-71.49408,-32.943398],[-71.495149,-32.943377],[-71.495099,-32.941574],[-71.496167,-32.941553],[-71.496015,-32.936146],[-71.494947,-32.936167],[-71.494896,-32.934365],[-71.493827,-32.934386],[-71.493777,-32.932584],[-71.492708,-32.932605],[-71.492683,-32.931704],[-71.490546,-32.931747],[-71.49052,-32.930845],[-71.489452,-32.930867],[-71.489427,-32.93],[-71.487687,-32.93],[-71.487289,-32.930008],[-71.487289,-32.93],[-71.48,-32.93]],[[-71.48553,-32.943568],[-71.484461,-32.94359],[-71.484436,-32.942689],[-71.48123,-32.942752],[-71.481205,-32.941851],[-71.480136,-32.941872],[-71.480111,-32.940971],[-71.48,-32.940973],[-71.48,-32.931957],[-71.481996,-32.931917],[-71.482022,-32.932818],[-71.484159,-32.932775],[-71.484184,-32.933677],[-71.486321,-32.933634],[-71.486347,-32.934535],[-71.488484,-32.934493],[-71.488534,-32.936295],[-71.489603,-32.936274],[-71.48973,-32.94078],[-71.488661,-32.940801],[-71.488686,-32.941702],[-71.487617,-32.941724],[-71.487643,-32.942625],[-71.485505,-32.942667],[-71.48553,-32.943568]]]},"properties":{"gridcode":1,"recurrencia":"Muy baja"}},{"type":"Feature","geometry":{"type":"Polygon","coordinates":[[[-71.518867,-32.950114],[-71.521004,-32.950071],[-71.520979,-32.94917],[-71.522048,-32.949148],[-71.521996,-32.947346],[-71.523065,-32.947324],[-71.52304,-32.946423],[-71.521971,-32.946445],[-71.521894,-32.943741],[-71.519757,-32.943784],[-71.519731,-32.942883],[-71.518662,-32.942905],[-71.518688,-32.943806],[-71.51655,-32.943849],[-71.516627,-32.946552],[-71.517696,-32.946531],[-71.517772,-32.949234],[-71.518841,-32.949213],[-71.518867,-32.950114]]]},"properties":{"gridcode":3,"recurrencia":"Media"}},{"type":"Feature","geometry":{"type":"Polygon","coordinates":[[[-71.50968,-32.965628],[-71.512888,-32.965563],[-71.512862,-32.964662],[-71.517138,-32.964576],[-71.517112,-32.963675],[-71.518181,-32.963653],[-71.518156,-32.962752],[-71.519225,-32.96273],[-71.519174,-32.960928],[-71.520243,-32.960906],[-71.520217,-32.960005],[-71.521286,-32.959984],[-71.52126,-32.959083],[-71.522329,-32.959061],[-71.522304,-32.95816],[-71.523373,-32.958138],[-71.523347,-32.957237],[-71.524416,-32.957215],[-71.52439,-32.956314],[-71.525459,-32.956293],[-71.525408,-32.95449],[-71.526477,-32.954469],[-71.526451,-32.953567],[-71.52752,-32.953546],[-71.527494,-32.952645],[-71.528563,-32.952623],[-71.528538,-32.951722],[-71.530675,-32.951679],[-71.53065,-32.950777],[-71.532787,-32.950734],[-71.532762,-32.949833],[-71.53383,-32.949811],[-71.533805,-32.94891],[-71.534874,-32.948888],[-71.534745,-32.944383],[-71.533676,-32.944404],[-71.533625,-32.942602],[-71.532556,-32.942624],[-71.53253,-32.941722],[-71.531462,-32.941744],[-71.531436,-32.940843],[-71.52823,-32.940908],[-71.528204,-32.940007],[-71.526067,-32.94005],[-71.526041,-32.939149],[-71.522835,-32.939214],[-71.522809,-32.938312],[-71.520672,-32.938356],[-71.520646,-32.937454],[-71.518509,-32.937498],[-71.518483,-32.936596],[-71.516346,-32.93664],[-71.516371,-32.937541],[-71.514234,-32.937584],[-71.51426,-32.938485],[-71.513191,-32.938506],[-71.513216,-32.939408],[-71.512148,-32.939429],[-71.512173,-32.94033],[-71.511104,-32.940352],[-71.511181,-32.943055],[-71.510112,-32.943077],[-71.51024,-32.947583],[-71.511308,-32.947561],[-71.511385,-32.950265],[-71.512454,-32.950243],[-71.512607,-32.95565],[-71.511538,-32.955672],[-71.511563,-32.956573],[-71.510494,-32.956594],[-71.51052,-32.957496],[-71.508382,-32.957539],[-71.508408,-32.95844],[-71.505201,-32.958504],[-71.505226,-32.959405],[-71.504157,-32.959427],[-71.504183,-32.960328],[-71.503114,-32.960349],[-71.503215,-32.963954],[-71.504284,-32.963933],[-71.50431,-32.964834],[-71.509655,-32.964727],[-71.50968,-32.965628]],[[-71.518867,-32.950114],[-71.518841,-32.949213],[-71.517772,-32.949234],[-71.517696,-32.946531],[-71.516627,-32.946552],[-71.51655,-32.943849],[-71.518688,-32.943806],[-71.518662,-32.942905],[-71.519731,-32.942883],[-71.519757,-32.943784],[-71.521894,-32.943741],[-71.521971,-32.946445],[-71.52304,-32.946423],[-71.523065,-32.947324],[-71.521996,-32.947346],[-71.522048,-32.949148],[-71.520979,-32.94917],[-71.521004,-32.950071],[-71.518867,-32.950114]]]},"properties":{"gridcode":2,"recurrencia":"Baja"}},{"type":"Feature","geometry":{"type":"Polygon","coordinates":[[[-71.488982,-32.990388],[-71.494329,-32.990281],[-71.494278,-32.988479],[-71.495348,-32.988457],[-71.495246,-32.984853],[-71.494177,-32.984874],[-71.494152,-32.983973],[-71.488805,-32.984079],[-71.488856,-32.985882],[-71.487787,-32.985903],[-71.487888,-32.989508],[-71.488957,-32.989487],[-71.488982,-32.990388]]]},"properties":{"gridcode":3,"recurrencia":"Media"}},{"type":"Feature","geometry":{"type":"Polygon","coordinates":[[[-71.489463,-33.00751],[-71.493742,-33.007425],[-71.493716,-33.006524],[-71.494786,-33.006502],[-71.49476,-33.005601],[-71.49583,-33.00558],[-71.495703,-33.001074],[-71.490356,-33.001181],[-71.490381,-33.002082],[-71.489311,-33.002103],[-71.489337,-33.003004],[-71.488267,-33.003026],[-71.488369,-33.00663],[-71.489438,-33.006609],[-71.489463,-33.00751]]]},"properties":{"gridcode":4,"recurrencia":"Alta"}},{"type":"Feature","geometry":{"type":"Polygon","coordinates":[[[-71.486356,-33.011179],[-71.491704,-33.011072],[-71.491679,-33.010171],[-71.493818,-33.010128],[-71.493792,-33.009227],[-71.494862,-33.009206],[-71.494837,-33.008305],[-71.495906,-33.008283],[-71.495881,-33.007382],[-71.49695,-33.007361],[-71.496925,-33.006459],[-71.497994,-33.006438],[-71.497969,-33.005537],[-71.499039,-33.005515],[-71.498962,-33.002812],[-71.500032,-33.00279],[-71.499981,-33.000988],[-71.498911,-33.00101],[-71.498861,-32.999207],[-71.496722,-32.99925],[-71.496696,-32.998349],[-71.491349,-32.998456],[-71.491374,-32.999357],[-71.488166,-32.999421],[-71.488191,-33.000322],[-71.487122,-33.000343],[-71.487147,-33.001245],[-71.486078,-33.001266],[-71.486103,-33.002167],[-71.485034,-33.002188],[-71.485059,-33.00309],[-71.48185,-33.003154],[-71.481977,-33.007659],[-71.483046,-33.007638],[-71.483071,-33.008539],[-71.484141,-33.008518],[-71.484166,-33.009419],[-71.485236,-33.009398],[-71.485261,-33.010299],[-71.486331,-33.010278],[-71.486356,-33.011179]],[[-71.489463,-33.00751],[-71.489438,-33.006609],[-71.488369,-33.00663],[-71.488267,-33.003026],[-71.489337,-33.003004],[-71.489311,-33.002103],[-71.490381,-33.002082],[-71.490356,-33.001181],[-71.495703,-33.001074],[-71.49583,-33.00558],[-71.49476,-33.005601],[-71.494786,-33.006502],[-71.493716,-33.006524],[-71.493742,-33.007425],[-71.489463,-33.00751]]]},"properties":{"gridcode":3,"recurrencia":"Media"}},{"type":"Feature","geometry":{"type":"Polygon","coordinates":[[[-71.533495,-33.012936],[-71.535634,-33.012892],[-71.535608,-33.011991],[-71.536678,-33.011969],[-71.536652,-33.011068],[-71.537722,-33.011046],[-71.537644,-33.008343],[-71.536575,-33.008365],[-71.536549,-33.007463],[-71.53334,-33.007529],[-71.533366,-33.00843],[-71.532296,-33.008452],[-71.532322,-33.009353],[-71.531253,-33.009374],[-71.531304,-33.011177],[-71.532374,-33.011155],[-71.5324,-33.012056],[-71.533469,-33.012034],[-71.533495,-33.012936]]]},"properties":{"gridcode":3,"recurrencia":"Media"}},{"type":"Feature","geometry":{"type":"Polygon","coordinates":[[[-71.486508,-33.016586],[-71.490787,-33.016501],[-71.490761,-33.0156],[-71.491831,-33.015578],[-71.491805,-33.014677],[-71.493945,-33.014634],[-71.493919,-33.013733],[-71.494989,-33.013712],[-71.494964,-33.012811],[-71.496033,-33.012789],[-71.495982,-33.010987],[-71.497052,-33.010965],[-71.497027,-33.010064],[-71.498096,-33.010043],[-71.498071,-33.009142],[-71.49914,-33.00912],[-71.499115,-33.008219],[-71.500184,-33.008198],[-71.500134,-33.006395],[-71.501203,-33.006374],[-71.501178,-33.005473],[-71.502247,-33.005451],[-71.502196,-33.003649],[-71.503266,-33.003627],[-71.503189,-33.000924],[-71.504259,-33.000902],[-71.504208,-32.9991],[-71.503138,-32.999121],[-71.503088,-32.997319],[-71.500949,-32.997362],[-71.500923,-32.996461],[-71.498784,-32.996504],[-71.498759,-32.995603],[-71.495551,-32.995667],[-71.495525,-32.994766],[-71.494456,-32.994787],[-71.494431,-32.993886],[-71.4955,-32.993864],[-71.495475,-32.992963],[-71.496544,-32.992942],[-71.496519,-32.992041],[-71.497588,-32.992019],[-71.497537,-32.990217],[-71.498607,-32.990195],[-71.498378,-32.982085],[-71.497309,-32.982106],[-71.497283,-32.981205],[-71.496214,-32.981226],[-71.496189,-32.980325],[-71.495119,-32.980347],[-71.495094,-32.979445],[-71.489748,-32.979552],[-71.489773,-32.980453],[-71.487635,-32.980496],[-71.48766,-32.981397],[-71.486591,-32.981419],[-71.486616,-32.98232],[-71.485547,-32.982341],[-71.485597,-32.984143],[-71.484528,-32.984165],[-71.484604,-32.986868],[-71.483535,-32.98689],[-71.48361,-32.989593],[-71.48468,-32.989572],[-71.484755,-32.992275],[-71.485825,-32.992254],[-71.48585,-32.993155],[-71.48692,-32.993134],[-71.486945,-32.994035],[-71.489084,-32.993993],[-71.489109,-32.994894],[-71.490178,-32.994872],[-71.490229,-32.996675],[-71.48809,-32.996717],[-71.488115,-32.997619],[-71.485977,-32.997661],[-71.486002,-32.998562],[-71.48,-32.998682],[-71.48,-33.012207],[-71.481033,-33.012187],[-71.481058,-33.013088],[-71.482128,-33.013067],[-71.482179,-33.014869],[-71.484318,-33.014826],[-71.484343,-33.015728],[-71.486483,-33.015685],[-71.486508,-33.016586]],[[-71.488982,-32.990388],[-71.488957,-32.989487],[-71.487888,-32.989508],[-71.487787,-32.985903],[-71.488856,-32.985882],[-71.488805,-32.984079],[-71.494152,-32.983973],[-71.494177,-32.984874],[-71.495246,-32.984853],[-71.495348,-32.988457],[-71.494278,-32.988479],[-71.494329,-32.990281],[-71.488982,-32.990388]],[[-71.486356,-33.011179],[-71.486331,-33.010278],[-71.485261,-33.010299],[-71.485236,-33.009398],[-71.484166,-33.009419],[-71.484141,-33.008518],[-71.483071,-33.008539],[-71.483046,-33.007638],[-71.481977,-33.007659],[-71.48185,-33.003154],[-71.485059,-33.00309],[-71.485034,-33.002188],[-71.486103,-33.002167],[-71.486078,-33.001266],[-71.487147,-33.001245],[-71.487122,-33.000343],[-71.488191,-33.000322],[-71.488166,-32.999421],[-71.491374,-32.999357],[-71.491349,-32.998456],[-71.496696,-32.998349],[-71.496722,-32.99925],[-71.498861,-32.999207],[-71.498911,-33.00101],[-71.499981,-33.000988],[-71.500032,-33.00279],[-71.498962,-33.002812],[-71.499039,-33.005515],[-71.497969,-33.005537],[-71.497994,-33.006438],[-71.496925,-33.006459],[-71.49695,-33.007361],[-71.495881,-33.007382],[-71.495906,-33.008283],[-71.494837,-33.008305],[-71.494862,-33.009206],[-71.493792,-33.009227],[-71.493818,-33.010128],[-71.491679,-33.010171],[-71.491704,-33.011072],[-71.486356,-33.011179]]]},"properties":{"gridcode":2,"recurrencia":"Baja"}},{"type":"Feature","geometry":{"type":"Polygon","coordinates":[[[-71.521199,-33.03212],[-71.524408,-33.032055],[-71.524383,-33.031154],[-71.527592,-33.031089],[-71.527566,-33.030188],[-71.528636,-33.030166],[-71.52861,-33.029265],[-71.52968,-33.029243],[-71.529654,-33.028342],[-71.530724,-33.02832],[-71.530647,-33.025617],[-71.531717,-33.025595],[-71.531639,-33.022892],[-71.532709,-33.02287],[-71.532554,-33.017463],[-71.533624,-33.017441],[-71.533598,-33.01654],[-71.536807,-33.016475],[-71.536781,-33.015574],[-71.53892,-33.01553],[-71.538895,-33.014629],[-71.539964,-33.014607],[-71.539938,-33.013706],[-71.541008,-33.013684],[-71.540956,-33.011882],[-71.542026,-33.01186],[-71.541871,-33.006453],[-71.540801,-33.006475],[-71.540775,-33.005574],[-71.539706,-33.005596],[-71.53968,-33.004695],[-71.53861,-33.004716],[-71.538585,-33.003815],[-71.532168,-33.003946],[-71.532193,-33.004847],[-71.530054,-33.00489],[-71.53008,-33.005791],[-71.529011,-33.005813],[-71.529036,-33.006714],[-71.527967,-33.006736],[-71.527993,-33.007637],[-71.525854,-33.00768],[-71.525879,-33.008582],[-71.52374,-33.008625],[-71.523689,-33.006823],[-71.522619,-33.006844],[-71.522542,-33.004141],[-71.521473,-33.004162],[-71.521447,-33.003261],[-71.520378,-33.003283],[-71.520301,-33.000579],[-71.52137,-33.000558],[-71.521345,-32.999657],[-71.522414,-32.999635],[-71.522388,-32.998734],[-71.523458,-32.998712],[-71.523406,-32.99691],[-71.522337,-32.996931],[-71.52226,-32.994228],[-71.521191,-32.99425],[-71.521165,-32.993348],[-71.519026,-32.993392],[-71.519001,-32.99249],[-71.515793,-32.992555],[-71.515818,-32.993456],[-71.514749,-32.993478],[-71.514877,-32.997984],[-71.515946,-32.997962],[-71.515972,-32.998863],[-71.517041,-32.998842],[-71.517092,-33.000644],[-71.518162,-33.000623],[-71.518187,-33.001524],[-71.519257,-33.001502],[-71.519283,-33.002403],[-71.518213,-33.002425],[-71.518239,-33.003326],[-71.517169,-33.003348],[-71.517195,-33.004249],[-71.516125,-33.00427],[-71.516176,-33.006073],[-71.515107,-33.006094],[-71.515133,-33.006995],[-71.514063,-33.007017],[-71.51414,-33.00972],[-71.515209,-33.009699],[-71.515261,-33.011501],[-71.51633,-33.01148],[-71.516356,-33.012381],[-71.518495,-33.012338],[-71.518521,-33.013239],[-71.523869,-33.013131],[-71.523946,-33.015834],[-71.522876,-33.015856],[-71.522953,-33.018559],[-71.521883,-33.018581],[-71.52196,-33.021284],[-71.520891,-33.021306],[-71.520968,-33.024009],[-71.519898,-33.024031],[-71.519949,-33.025833],[-71.51888,-33.025855],[-71.518905,-33.026756],[-71.517835,-33.026778],[-71.517938,-33.030382],[-71.519008,-33.030361],[-71.519033,-33.031262],[-71.521173,-33.031219],[-71.521199,-33.03212]],[[-71.533495,-33.012936],[-71.533469,-33.012034],[-71.5324,-33.012056],[-71.532374,-33.011155],[-71.531304,-33.011177],[-71.531253,-33.009374],[-71.532322,-33.009353],[-71.532296,-33.008452],[-71.533366,-33.00843],[-71.53334,-33.007529],[-71.536549,-33.007463],[-71.536575,-33.008365],[-71.537644,-33.008343],[-71.537722,-33.011046],[-71.536652,-33.011068],[-71.536678,-33.011969],[-71.535608,-33.011991],[-71.535634,-33.012892],[-71.533495,-33.012936]]]},"properties":{"gridcode":2,"recurrencia":"Baja"}},{"type":"Feature","geometry":{"type":"Polygon","coordinates":[[[-71.48,-33.033847],[-71.48057,-33.033836],[-71.480544,-33.032935],[-71.482684,-33.032893],[-71.482583,-33.029288],[-71.481513,-33.029309],[-71.481488,-33.028408],[-71.48,-33.028438],[-71.48,-33.033847]]]},"properties":{"gridcode":3,"recurrencia":"Media"}},{"type":"Feature","geometry":{"type":"Polygon","coordinates":[[[-71.495777,-33.041648],[-71.496847,-33.041627],[-71.496821,-33.040726],[-71.500031,-33.040661],[-71.500006,-33.03976],[-71.501076,-33.039739],[-71.501025,-33.037936],[-71.502095,-33.037915],[-71.502018,-33.035211],[-71.500948,-33.035233],[-71.500872,-33.032529],[-71.499802,-33.032551],[-71.499776,-33.031649],[-71.498707,-33.031671],[-71.498681,-33.03077],[-71.492262,-33.030898],[-71.492288,-33.031799],[-71.491218,-33.031821],[-71.491268,-33.033623],[-71.490199,-33.033644],[-71.490325,-33.03815],[-71.491395,-33.038129],[-71.491421,-33.03903],[-71.492491,-33.039009],[-71.492516,-33.03991],[-71.493586,-33.039889],[-71.493611,-33.04079],[-71.495751,-33.040747],[-71.495777,-33.041648]]]},"properties":{"gridcode":4,"recurrencia":"Alta"}},{"type":"Feature","geometry":{"type":"Polygon","coordinates":[[[-71.493662,-33.042592],[-71.501152,-33.042442],[-71.501127,-33.041541],[-71.502197,-33.041519],[-71.502171,-33.040618],[-71.503241,-33.040597],[-71.503011,-33.032486],[-71.501942,-33.032508],[-71.501891,-33.030705],[-71.500821,-33.030727],[-71.50077,-33.028925],[-71.49863,-33.028967],[-71.498605,-33.028066],[-71.497535,-33.028088],[-71.49751,-33.027187],[-71.49644,-33.027208],[-71.496414,-33.026307],[-71.492135,-33.026392],[-71.492161,-33.027294],[-71.491091,-33.027315],[-71.491116,-33.028216],[-71.490046,-33.028237],[-71.490097,-33.03004],[-71.489027,-33.030061],[-71.489053,-33.030962],[-71.487983,-33.030984],[-71.488186,-33.038193],[-71.489255,-33.038172],[-71.489306,-33.039974],[-71.490376,-33.039953],[-71.490402,-33.040854],[-71.491471,-33.040833],[-71.491497,-33.041734],[-71.493637,-33.041691],[-71.493662,-33.042592]],[[-71.495777,-33.041648],[-71.495751,-33.040747],[-71.493611,-33.04079],[-71.493586,-33.039889],[-71.492516,-33.03991],[-71.492491,-33.039009],[-71.491421,-33.03903],[-71.491395,-33.038129],[-71.490325,-33.03815],[-71.490199,-33.033644],[-71.491268,-33.033623],[-71.491218,-33.031821],[-71.492288,-33.031799],[-71.492262,-33.030898],[-71.498681,-33.03077],[-71.498707,-33.031671],[-71.499776,-33.031649],[-71.499802,-33.032551],[-71.500872,-33.032529],[-71.500948,-33.035233],[-71.502018,-33.035211],[-71.502095,-33.037915],[-71.501025,-33.037936],[-71.501076,-33.039739],[-71.500006,-33.03976],[-71.500031,-33.040661],[-71.496821,-33.040726],[-71.496847,-33.041627],[-71.495777,-33.041648]]]},"properties":{"gridcode":3,"recurrencia":"Media"}},{"type":"Feature","geometry":{"type":"Polygon","coordinates":[[[-71.57203,-33.050017],[-71.57524,-33.04995],[-71.575214,-33.049049],[-71.576283,-33.049027],[-71.576178,-33.045423],[-71.575109,-33.045445],[-71.575056,-33.043643],[-71.573986,-33.043665],[-71.57396,-33.042764],[-71.57289,-33.042786],[-71.572838,-33.040983],[-71.571768,-33.041006],[-71.571741,-33.040104],[-71.569602,-33.040149],[-71.569576,-33.039247],[-71.568506,-33.039269],[-71.568532,-33.040171],[-71.566392,-33.040215],[-71.566418,-33.041116],[-71.565348,-33.041138],[-71.565479,-33.045643],[-71.566549,-33.045621],[-71.566601,-33.047424],[-71.568741,-33.04738],[-71.568767,-33.048281],[-71.569837,-33.048259],[-71.569864,-33.04916],[-71.572004,-33.049116],[-71.57203,-33.050017]]]},"properties":{"gridcode":4,"recurrencia":"Alta"}},{"type":"Feature","geometry":{"type":"Polygon","coordinates":[[[-71.530324,-33.051772],[-71.531395,-33.05175],[-71.531369,-33.050849],[-71.533509,-33.050806],[-71.533483,-33.049904],[-71.534553,-33.049883],[-71.53445,-33.046278],[-71.53338,-33.0463],[-71.533354,-33.045399],[-71.532284,-33.04542],[-71.532258,-33.044519],[-71.526908,-33.044628],[-71.526934,-33.045529],[-71.525864,-33.045551],[-71.525967,-33.049155],[-71.527037,-33.049134],[-71.527063,-33.050035],[-71.528133,-33.050013],[-71.528159,-33.050914],[-71.530299,-33.050871],[-71.530324,-33.051772]]]},"properties":{"gridcode":3,"recurrencia":"Media"}},{"type":"Feature","geometry":{"type":"Polygon","coordinates":[[[-71.58517,-33.06],[-71.585028,-33.055158],[-71.583958,-33.05518],[-71.583905,-33.053378],[-71.582835,-33.0534],[-71.582809,-33.052499],[-71.581739,-33.052521],[-71.581712,-33.05162],[-71.577432,-33.051708],[-71.577485,-33.053511],[-71.576415,-33.053533],[-71.576603,-33.06],[-71.58517,-33.06]]]},"properties":{"gridcode":4,"recurrencia":"Alta"}},{"type":"Feature","geometry":{"type":"Polygon","coordinates":[[[-71.513427,-33.06],[-71.513408,-33.059327],[-71.512338,-33.059349],[-71.512313,-33.058448],[-71.509102,-33.058513],[-71.509128,-33.059414],[-71.506987,-33.059457],[-71.507003,-33.06],[-71.513427,-33.06]]]},"properties":{"gridcode":5,"recurrencia":"Muy alta"}},{"type":"Feature","geometry":{"type":"Polygon","coordinates":[[[-71.587311,-33.06],[-71.5873,-33.059619],[-71.58837,-33.059597],[-71.588317,-33.057795],[-71.589387,-33.057772],[-71.589361,-33.056871],[-71.588291,-33.056893],[-71.588212,-33.05419],[-71.587142,-33.054212],[-71.587115,-33.053311],[-71.586045,-33.053333],[-71.586019,-33.052432],[-71.584949,-33.052454],[-71.584896,-33.050652],[-71.583826,-33.050674],[-71.5838,-33.049773],[-71.58273,-33.049796],[-71.582703,-33.048894],[-71.581633,-33.048917],[-71.581607,-33.048015],[-71.580537,-33.048038],[-71.580511,-33.047136],[-71.579441,-33.047159],[-71.579415,-33.046258],[-71.578345,-33.04628],[-71.578292,-33.044477],[-71.577222,-33.0445],[-71.577196,-33.043598],[-71.576126,-33.043621],[-71.576073,-33.041818],[-71.575004,-33.04184],[-71.574951,-33.040038],[-71.573881,-33.04006],[-71.573855,-33.039159],[-71.572785,-33.039181],[-71.572759,-33.03828],[-71.571689,-33.038302],[-71.571663,-33.037401],[-71.569523,-33.037445],[-71.569497,-33.036544],[-71.567357,-33.036588],[-71.567383,-33.037489],[-71.565244,-33.037533],[-71.56527,-33.038434],[-71.5642,-33.038456],[-71.564226,-33.039358],[-71.563156,-33.03938],[-71.563208,-33.041182],[-71.562139,-33.041204],[-71.562269,-33.045709],[-71.563339,-33.045687],[-71.563391,-33.04749],[-71.564461,-33.047468],[-71.564487,-33.048369],[-71.565557,-33.048347],[-71.565584,-33.049248],[-71.566654,-33.049226],[-71.56668,-33.050127],[-71.56775,-33.050105],[-71.567776,-33.051006],[-71.569916,-33.050962],[-71.569942,-33.051863],[-71.571012,-33.051841],[-71.571038,-33.052742],[-71.572108,-33.05272],[-71.572135,-33.053621],[-71.573205,-33.053599],[-71.573391,-33.06],[-71.587311,-33.06]],[[-71.57203,-33.050017],[-71.572004,-33.049116],[-71.569864,-33.04916],[-71.569837,-33.048259],[-71.568767,-33.048281],[-71.568741,-33.04738],[-71.566601,-33.047424],[-71.566549,-33.045621],[-71.565479,-33.045643],[-71.565348,-33.041138],[-71.566418,-33.041116],[-71.566392,-33.040215],[-71.568532,-33.040171],[-71.568506,-33.039269],[-71.569576,-33.039247],[-71.569602,-33.040149],[-71.571741,-33.040104],[-71.571768,-33.041006],[-71.572838,-33.040983],[-71.57289,-33.042786],[-71.57396,-33.042764],[-71.573986,-33.043665],[-71.575056,-33.043643],[-71.575109,-33.045445],[-71.576178,-33.045423],[-71.576283,-33.049027],[-71.575214,-33.049049],[-71.57524,-33.04995],[-71.57203,-33.050017]],[[-71.576603,-33.06],[-71.576415,-33.053533],[-71.577485,-33.053511],[-71.577432,-33.051708],[-71.581712,-33.05162],[-71.581739,-33.052521],[-71.582809,-33.052499],[-71.582835,-33.0534],[-71.583905,-33.053378],[-71.583958,-33.05518],[-71.585028,-33.055158],[-71.58517,-33.06],[-71.576603,-33.06]]]},"properties":{"gridcode":3,"recurrencia":"Media"}},{"type":"Feature","geometry":{"type":"Polygon","coordinates":[[[-71.51664,-33.06],[-71.516568,-33.05746],[-71.515497,-33.057482],[-71.515472,-33.056581],[-71.514402,-33.056602],[-71.514376,-33.055701],[-71.512236,-33.055744],[-71.51221,-33.054843],[-71.51114,-33.054865],[-71.511166,-33.055766],[-71.507955,-33.055831],[-71.507981,-33.056732],[-71.50584,-33.056775],[-71.505866,-33.057676],[-71.504796,-33.057697],[-71.504821,-33.058599],[-71.503751,-33.05862],[-71.503777,-33.059521],[-71.502707,-33.059543],[-71.50272,-33.06],[-71.51664,-33.06]],[[-71.507003,-33.06],[-71.506987,-33.059457],[-71.509128,-33.059414],[-71.509102,-33.058513],[-71.512313,-33.058448],[-71.512338,-33.059349],[-71.513408,-33.059327],[-71.513427,-33.06],[-71.507003,-33.06]]]},"properties":{"gridcode":4,"recurrencia":"Alta"}},{"type":"Feature","geometry":{"type":"Polygon","coordinates":[[[-71.518781,-33.06],[-71.518733,-33.058318],[-71.517663,-33.05834],[-71.517586,-33.055636],[-71.516516,-33.055658],[-71.516491,-33.054757],[-71.51542,-33.054779],[-71.515395,-33.053877],[-71.508974,-33.054007],[-71.509,-33.054908],[-71.50686,-33.054951],[-71.506885,-33.055852],[-71.504745,-33.055895],[-71.50477,-33.056796],[-71.5037,-33.056818],[-71.503726,-33.057719],[-71.502656,-33.05774],[-71.502681,-33.058642],[-71.501611,-33.058663],[-71.501649,-33.06],[-71.518781,-33.06]],[[-71.50272,-33.06],[-71.502707,-33.059543],[-71.503777,-33.059521],[-71.503751,-33.05862],[-71.504821,-33.058599],[-71.504796,-33.057697],[-71.505866,-33.057676],[-71.50584,-33.056775],[-71.507981,-33.056732],[-71.507955,-33.055831],[-71.511166,-33.055766],[-71.51114,-33.054865],[-71.51221,-33.054843],[-71.512236,-33.055744],[-71.514376,-33.055701],[-71.514402,-33.056602],[-71.515472,-33.056581],[-71.515497,-33.057482],[-71.516568,-33.05746],[-71.51664,-33.06],[-71.50272,-33.06]]]},"properties":{"gridcode":3,"recurrencia":"Media"}},{"type":"Feature","geometry":{"type":"Polygon","coordinates":[[[-71.516106,-33.04124],[-71.515036,-33.041261],[-71.51501,-33.04036],[-71.51394,-33.040382],[-71.513915,-33.03948],[-71.510705,-33.039545],[-71.510731,-33.040446],[-71.507521,-33.040511],[-71.507444,-33.037807],[-71.506374,-33.037829],[-71.506272,-33.034224],[-71.505202,-33.034246],[-71.504973,-33.026135],[-71.506042,-33.026114],[-71.50594,-33.022509],[-71.504871,-33.02253],[-71.504845,-33.021629],[-71.503775,-33.021651],[-71.50375,-33.02075],[-71.50268,-33.020771],[-71.502655,-33.01987],[-71.486609,-33.020191],[-71.486634,-33.021092],[-71.485565,-33.021113],[-71.48559,-33.022015],[-71.48452,-33.022036],[-71.484546,-33.022937],[-71.483476,-33.022958],[-71.483501,-33.02386],[-71.482431,-33.023881],[-71.482457,-33.024782],[-71.48,-33.024831],[-71.48,-33.038356],[-71.480696,-33.038342],[-71.480671,-33.037441],[-71.48388,-33.037377],[-71.483906,-33.038278],[-71.484976,-33.038257],[-71.485001,-33.039158],[-71.486071,-33.039137],[-71.486096,-33.040038],[-71.487166,-33.040017],[-71.487192,-33.040918],[-71.488262,-33.040897],[-71.488287,-33.041798],[-71.489357,-33.041776],[-71.489382,-33.042678],[-71.490452,-33.042656],[-71.490478,-33.043557],[-71.492618,-33.043515],[-71.492643,-33.044416],[-71.494783,-33.044373],[-71.494808,-33.045274],[-71.502298,-33.045124],[-71.502324,-33.046025],[-71.504464,-33.045982],[-71.504515,-33.047785],[-71.505585,-33.047763],[-71.505611,-33.048664],[-71.506681,-33.048643],[-71.506706,-33.049544],[-71.508846,-33.049501],[-71.508872,-33.050402],[-71.507802,-33.050424],[-71.507853,-33.052226],[-71.506783,-33.052247],[-71.506808,-33.053149],[-71.505738,-33.05317],[-71.505764,-33.054071],[-71.504694,-33.054093],[-71.504719,-33.054994],[-71.503649,-33.055015],[-71.503675,-33.055917],[-71.498324,-33.056024],[-71.498349,-33.056925],[-71.494069,-33.057011],[-71.494094,-33.057912],[-71.493024,-33.057933],[-71.49305,-33.058835],[-71.491979,-33.058856],[-71.492005,-33.059757],[-71.489864,-33.0598],[-71.48987,-33.06],[-71.520923,-33.06],[-71.520797,-33.055572],[-71.519727,-33.055593],[-71.519675,-33.053791],[-71.518605,-33.053813],[-71.518579,-33.052911],[-71.517509,-33.052933],[-71.517484,-33.052032],[-71.516414,-33.052053],[-71.516388,-33.051152],[-71.515318,-33.051174],[-71.515292,-33.050273],[-71.514222,-33.050294],[-71.514197,-33.049393],[-71.512056,-33.049436],[-71.512005,-33.047634],[-71.513075,-33.047612],[-71.51305,-33.046711],[-71.51412,-33.04669],[-71.514068,-33.044887],[-71.515138,-33.044866],[-71.515062,-33.042162],[-71.516132,-33.042141],[-71.516106,-33.04124]],[[-71.493662,-33.042592],[-71.493637,-33.041691],[-71.491497,-33.041734],[-71.491471,-33.040833],[-71.490402,-33.040854],[-71.490376,-33.039953],[-71.489306,-33.039974],[-71.489255,-33.038172],[-71.488186,-33.038193],[-71.487983,-33.030984],[-71.489053,-33.030962],[-71.489027,-33.030061],[-71.490097,-33.03004],[-71.490046,-33.028237],[-71.491116,-33.028216],[-71.491091,-33.027315],[-71.492161,-33.027294],[-71.492135,-33.026392],[-71.496414,-33.026307],[-71.49644,-33.027208],[-71.49751,-33.027187],[-71.497535,-33.028088],[-71.498605,-33.028066],[-71.49863,-33.028967],[-71.50077,-33.028925],[-71.500821,-33.030727],[-71.501891,-33.030705],[-71.501942,-33.032508],[-71.503011,-33.032486],[-71.503241,-33.040597],[-71.502171,-33.040618],[-71.502197,-33.041519],[-71.501127,-33.041541],[-71.501152,-33.042442],[-71.493662,-33.042592]],[[-71.48,-33.033847],[-71.48,-33.028438],[-71.481488,-33.028408],[-71.481513,-33.029309],[-71.482583,-33.029288],[-71.482684,-33.032893],[-71.480544,-33.032935],[-71.48057,-33.033836],[-71.48,-33.033847]],[[-71.501649,-33.06],[-71.501611,-33.058663],[-71.502681,-33.058642],[-71.502656,-33.05774],[-71.503726,-33.057719],[-71.5037,-33.056818],[-71.50477,-33.056796],[-71.504745,-33.055895],[-71.506885,-33.055852],[-71.50686,-33.054951],[-71.509,-33.054908],[-71.508974,-33.054007],[-71.515395,-33.053877],[-71.51542,-33.054779],[-71.516491,-33.054757],[-71.516516,-33.055658],[-71.517586,-33.055636],[-71.517663,-33.05834],[-71.518733,-33.058318],[-71.518781,-33.06],[-71.501649,-33.06]]]},"properties":{"gridcode":2,"recurrencia":"Baja"}},{"type":"Feature","geometry":{"type":"Polygon","coordinates":[[[-71.516106,-33.04124],[-71.517176,-33.041218],[-71.517201,-33.042119],[-71.518271,-33.042097],[-71.518297,-33.042999],[-71.519367,-33.042977],[-71.519393,-33.043878],[-71.520463,-33.043857],[-71.520514,-33.045659],[-71.521584,-33.045637],[-71.521713,-33.050143],[-71.522783,-33.050121],[-71.522834,-33.051924],[-71.523904,-33.051902],[-71.52393,-33.052803],[-71.525,-33.052782],[-71.525026,-33.053683],[-71.526096,-33.053661],[-71.526121,-33.054562],[-71.528262,-33.054519],[-71.528287,-33.05542],[-71.529358,-33.055398],[-71.529383,-33.056299],[-71.530453,-33.056278],[-71.530531,-33.058981],[-71.529461,-33.059003],[-71.529489,-33.06],[-71.540197,-33.06],[-71.540188,-33.059686],[-71.539118,-33.059708],[-71.538963,-33.054301],[-71.540033,-33.054279],[-71.539955,-33.051576],[-71.541025,-33.051554],[-71.540999,-33.050653],[-71.542069,-33.050631],[-71.542043,-33.04973],[-71.544183,-33.049686],[-71.544157,-33.048785],[-71.545227,-33.048763],[-71.545201,-33.047862],[-71.546271,-33.04784],[-71.546245,-33.046939],[-71.547315,-33.046918],[-71.54729,-33.046016],[-71.54836,-33.045994],[-71.548334,-33.045093],[-71.551543,-33.045028],[-71.551569,-33.045929],[-71.552639,-33.045907],[-71.552665,-33.046808],[-71.554805,-33.046764],[-71.554831,-33.047665],[-71.559111,-33.047578],[-71.559137,-33.048479],[-71.561277,-33.048435],[-71.561304,-33.049336],[-71.562374,-33.049314],[-71.5624,-33.050215],[-71.56347,-33.050193],[-71.563496,-33.051094],[-71.564566,-33.051072],[-71.564592,-33.051973],[-71.565662,-33.051951],[-71.565767,-33.055556],[-71.564697,-33.055578],[-71.564723,-33.056479],[-71.562582,-33.056523],[-71.562556,-33.055622],[-71.555066,-33.055776],[-71.555092,-33.056677],[-71.554022,-33.056699],[-71.554048,-33.0576],[-71.552978,-33.057622],[-71.553004,-33.058523],[-71.551934,-33.058545],[-71.55196,-33.059446],[-71.550889,-33.059468],[-71.550904,-33.06],[-71.592665,-33.06],[-71.59265,-33.059508],[-71.59372,-33.059485],[-71.593615,-33.055881],[-71.592545,-33.055903],[-71.592492,-33.054101],[-71.591422,-33.054123],[-71.591395,-33.053222],[-71.590325,-33.053245],[-71.590299,-33.052343],[-71.589229,-33.052366],[-71.589202,-33.051465],[-71.588132,-33.051487],[-71.588106,-33.050586],[-71.587036,-33.050608],[-71.58701,-33.049707],[-71.58594,-33.049729],[-71.585887,-33.047927],[-71.584817,-33.047949],[-71.584764,-33.046147],[-71.583694,-33.046169],[-71.583668,-33.045268],[-71.582598,-33.04529],[-71.582572,-33.044389],[-71.581502,-33.044411],[-71.581476,-33.04351],[-71.580406,-33.043532],[-71.580379,-33.042631],[-71.579309,-33.042653],[-71.579283,-33.041752],[-71.578213,-33.041774],[-71.578108,-33.03817],[-71.577038,-33.038192],[-71.576986,-33.036389],[-71.575916,-33.036412],[-71.57589,-33.03551],[-71.57482,-33.035533],[-71.574794,-33.034631],[-71.572654,-33.034676],[-71.572628,-33.033774],[-71.571558,-33.033797],[-71.571532,-33.032895],[-71.568322,-33.032962],[-71.568296,-33.03206],[-71.567227,-33.032082],[-71.567253,-33.032984],[-71.564043,-33.03305],[-71.564069,-33.033951],[-71.56193,-33.033995],[-71.561956,-33.034896],[-71.556607,-33.035006],[-71.556581,-33.034105],[-71.554441,-33.034148],[-71.554415,-33.033247],[-71.552275,-33.033291],[-71.552249,-33.03239],[-71.54904,-33.032456],[-71.549066,-33.033357],[-71.546926,-33.0334],[-71.546952,-33.034302],[-71.545882,-33.034323],[-71.545908,-33.035225],[-71.544838,-33.035246],[-71.54489,-33.037049],[-71.542751,-33.037092],[-71.542776,-33.037993],[-71.541707,-33.038015],[-71.541732,-33.038916],[-71.540663,-33.038938],[-71.540688,-33.039839],[-71.538549,-33.039883],[-71.538574,-33.040784],[-71.532155,-33.040915],[-71.532129,-33.040013],[-71.528919,-33.040079],[-71.528894,-33.039177],[-71.526754,-33.039221],[-71.526728,-33.03832],[-71.525658,-33.038341],[-71.525632,-33.03744],[-71.524563,-33.037462],[-71.524537,-33.036561],[-71.520257,-33.036647],[-71.520283,-33.037548],[-71.518143,-33.037592],[-71.518169,-33.038493],[-71.517099,-33.038514],[-71.517125,-33.039416],[-71.516055,-33.039437],[-71.516106,-33.04124]],[[-71.573391,-33.06],[-71.573205,-33.053599],[-71.572135,-33.053621],[-71.572108,-33.05272],[-71.571038,-33.052742],[-71.571012,-33.051841],[-71.569942,-33.051863],[-71.569916,-33.050962],[-71.567776,-33.051006],[-71.56775,-33.050105],[-71.56668,-33.050127],[-71.566654,-33.049226],[-71.565584,-33.049248],[-71.565557,-33.048347],[-71.564487,-33.048369],[-71.564461,-33.047468],[-71.563391,-33.04749],[-71.563339,-33.045687],[-71.562269,-33.045709],[-71.562139,-33.041204],[-71.563208,-33.041182],[-71.563156,-33.03938],[-71.564226,-33.039358],[-71.5642,-33.038456],[-71.56527,-33.038434],[-71.565244,-33.037533],[-71.567383,-33.037489],[-71.567357,-33.036588],[-71.569497,-33.036544],[-71.569523,-33.037445],[-71.571663,-33.037401],[-71.571689,-33.038302],[-71.572759,-33.03828],[-71.572785,-33.039181],[-71.573855,-33.039159],[-71.573881,-33.04006],[-71.574951,-33.040038],[-71.575004,-33.04184],[-71.576073,-33.041818],[-71.576126,-33.043621],[-71.577196,-33.043598],[-71.577222,-33.0445],[-71.578292,-33.044477],[-71.578345,-33.04628],[-71.579415,-33.046258],[-71.579441,-33.047159],[-71.580511,-33.047136],[-71.580537,-33.048038],[-71.581607,-33.048015],[-71.581633,-33.048917],[-71.582703,-33.048894],[-71.58273,-33.049796],[-71.5838,-33.049773],[-71.583826,-33.050674],[-71.584896,-33.050652],[-71.584949,-33.052454],[-71.586019,-33.052432],[-71.586045,-33.053333],[-71.587115,-33.053311],[-71.587142,-33.054212],[-71.588212,-33.05419],[-71.588291,-33.056893],[-71.589361,-33.056871],[-71.589387,-33.057772],[-71.588317,-33.057795],[-71.58837,-33.059597],[-71.5873,-33.059619],[-71.587311,-33.06],[-71.573391,-33.06]],[[-71.530324,-33.051772],[-71.530299,-33.050871],[-71.528159,-33.050914],[-71.528133,-33.050013],[-71.527063,-33.050035],[-71.527037,-33.049134],[-71.525967,-33.049155],[-71.525864,-33.045551],[-71.526934,-33.045529],[-71.526908,-33.044628],[-71.532258,-33.044519],[-71.532284,-33.04542],[-71.533354,-33.045399],[-71.53338,-33.0463],[-71.53445,-33.046278],[-71.534553,-33.049883],[-71.533483,-33.049904],[-71.533509,-33.050806],[-71.531369,-33.050849],[-71.531395,-33.05175],[-71.530324,-33.051772]]]},"properties":{"gridcode":2,"recurrencia":"Baja"}},{"type":"Feature","geometry":{"type":"Polygon","coordinates":[[[-71.6,-33.06],[-71.6,-33.050338],[-71.599876,-33.050341],[-71.599902,-33.051242],[-71.598832,-33.051264],[-71.598806,-33.050363],[-71.597736,-33.050385],[-71.59771,-33.049484],[-71.59557,-33.049529],[-71.595543,-33.048628],[-71.590193,-33.048739],[-71.590167,-33.047838],[-71.589097,-33.04786],[-71.589044,-33.046058],[-71.587974,-33.04608],[-71.587948,-33.045179],[-71.586878,-33.045201],[-71.586852,-33.0443],[-71.588991,-33.044256],[-71.588965,-33.043355],[-71.590035,-33.043332],[-71.590008,-33.042431],[-71.591078,-33.042409],[-71.591052,-33.041508],[-71.592122,-33.041486],[-71.592069,-33.039683],[-71.593139,-33.039661],[-71.592954,-33.033353],[-71.591884,-33.033376],[-71.591831,-33.031574],[-71.590762,-33.031596],[-71.590735,-33.030695],[-71.589666,-33.030717],[-71.589639,-33.029816],[-71.588569,-33.029838],[-71.588543,-33.028937],[-71.587473,-33.028959],[-71.587447,-33.028058],[-71.583168,-33.028147],[-71.583142,-33.027246],[-71.581002,-33.02729],[-71.581029,-33.028191],[-71.577819,-33.028257],[-71.577846,-33.029158],[-71.573567,-33.029247],[-71.57354,-33.028346],[-71.561773,-33.028588],[-71.561799,-33.029489],[-71.55966,-33.029533],[-71.559634,-33.028632],[-71.557494,-33.028676],[-71.557468,-33.027775],[-71.554259,-33.02784],[-71.554233,-33.026939],[-71.552093,-33.026983],[-71.552119,-33.027884],[-71.544631,-33.028037],[-71.544657,-33.028938],[-71.542517,-33.028982],[-71.542543,-33.029883],[-71.540404,-33.029927],[-71.54043,-33.030828],[-71.53936,-33.03085],[-71.539386,-33.031751],[-71.538316,-33.031773],[-71.538368,-33.033575],[-71.537298,-33.033597],[-71.537349,-33.035399],[-71.53521,-33.035443],[-71.535184,-33.034541],[-71.536254,-33.03452],[-71.536202,-33.032717],[-71.537272,-33.032696],[-71.537091,-33.026388],[-71.538161,-33.026366],[-71.537954,-33.019157],[-71.540093,-33.019113],[-71.540068,-33.018212],[-71.541137,-33.01819],[-71.541111,-33.017289],[-71.542181,-33.017267],[-71.542155,-33.016366],[-71.543225,-33.016344],[-71.543199,-33.015443],[-71.544268,-33.015421],[-71.544243,-33.01452],[-71.545312,-33.014498],[-71.54526,-33.012696],[-71.54633,-33.012674],[-71.546252,-33.009971],[-71.547322,-33.009949],[-71.54727,-33.008147],[-71.5462,-33.008168],[-71.546097,-33.004564],[-71.545027,-33.004586],[-71.545001,-33.003685],[-71.543932,-33.003706],[-71.54388,-33.001904],[-71.542811,-33.001926],[-71.542785,-33.001025],[-71.540646,-33.001068],[-71.54062,-33.000167],[-71.537412,-33.000232],[-71.537386,-32.999331],[-71.533108,-32.999418],[-71.533134,-33.000319],[-71.532065,-33.000341],[-71.531936,-32.995835],[-71.530866,-32.995857],[-71.530815,-32.994055],[-71.529746,-32.994076],[-71.52972,-32.993175],[-71.528651,-32.993197],[-71.528625,-32.992296],[-71.527555,-32.992317],[-71.52753,-32.991416],[-71.52646,-32.991438],[-71.526409,-32.989636],[-71.52534,-32.989657],[-71.525288,-32.987855],[-71.524219,-32.987877],[-71.524193,-32.986975],[-71.523124,-32.986997],[-71.523098,-32.986096],[-71.52096,-32.986139],[-71.520934,-32.985238],[-71.518796,-32.985281],[-71.51877,-32.98438],[-71.513424,-32.984488],[-71.513449,-32.985389],[-71.510242,-32.985453],[-71.510267,-32.986355],[-71.509198,-32.986376],[-71.509223,-32.987277],[-71.508154,-32.987299],[-71.50818,-32.9882],[-71.50711,-32.988221],[-71.507136,-32.989123],[-71.501789,-32.98923],[-71.501764,-32.988329],[-71.502833,-32.988307],[-71.502808,-32.987406],[-71.503877,-32.987385],[-71.5038,-32.984681],[-71.50487,-32.98466],[-71.504768,-32.981055],[-71.503699,-32.981076],[-71.503622,-32.978373],[-71.502553,-32.978394],[-71.502528,-32.977493],[-71.501458,-32.977515],[-71.501433,-32.976613],[-71.500364,-32.976635],[-71.500338,-32.975734],[-71.499269,-32.975755],[-71.499244,-32.974854],[-71.497106,-32.974897],[-71.49708,-32.973996],[-71.490665,-32.974124],[-71.490539,-32.969618],[-71.494815,-32.969532],[-71.49479,-32.968631],[-71.495859,-32.96861],[-71.495884,-32.969511],[-71.496953,-32.96949],[-71.496979,-32.970391],[-71.498048,-32.970369],[-71.498073,-32.971271],[-71.500211,-32.971228],[-71.500237,-32.972129],[-71.50879,-32.971957],[-71.508764,-32.971056],[-71.510902,-32.971013],[-71.510877,-32.970112],[-71.513015,-32.970069],[-71.513041,-32.97097],[-71.520524,-32.970819],[-71.520499,-32.969918],[-71.522637,-32.969875],[-71.522611,-32.968974],[-71.52368,-32.968952],[-71.523655,-32.968051],[-71.524724,-32.968029],[-71.524698,-32.967128],[-71.525767,-32.967107],[-71.525741,-32.966205],[-71.526811,-32.966184],[-71.526734,-32.96348],[-71.527803,-32.963459],[-71.5277,-32.959854],[-71.528769,-32.959832],[-71.528743,-32.958931],[-71.529812,-32.95891],[-71.529786,-32.958008],[-71.530855,-32.957987],[-71.53083,-32.957086],[-71.534036,-32.957021],[-71.534011,-32.956119],[-71.537217,-32.956054],[-71.537192,-32.955153],[-71.539329,-32.95511],[-71.539303,-32.954208],[-71.540372,-32.954187],[-71.540321,-32.952384],[-71.54139,-32.952363],[-71.541364,-32.951461],[-71.542433,-32.95144],[-71.542226,-32.94423],[-71.541157,-32.944252],[-71.541106,-32.94245],[-71.540037,-32.942472],[-71.540011,-32.941571],[-71.538943,-32.941592],[-71.538917,-32.940691],[-71.537848,-32.940713],[-71.537822,-32.939812],[-71.535685,-32.939855],[-71.535659,-32.938954],[-71.534591,-32.938976],[-71.534565,-32.938074],[-71.533496,-32.938096],[-71.53347,-32.937195],[-71.531333,-32.937238],[-71.531307,-32.936337],[-71.527033,-32.936424],[-71.526981,-32.934621],[-71.525913,-32.934643],[-71.525887,-32.933742],[-71.524818,-32.933763],[-71.524793,-32.932862],[-71.522656,-32.932905],[-71.52263,-32.932004],[-71.519424,-32.932069],[-71.519399,-32.931168],[-71.516193,-32.931232],[-71.516218,-32.932134],[-71.513012,-32.932198],[-71.513038,-32.933099],[-71.511969,-32.933121],[-71.511995,-32.934022],[-71.510926,-32.934044],[-71.510952,-32.934945],[-71.509883,-32.934966],[-71.509908,-32.935867],[-71.507771,-32.93591],[-71.507822,-32.937713],[-71.506753,-32.937734],[-71.506779,-32.938635],[-71.50571,-32.938657],[-71.505888,-32.944965],[-71.504819,-32.944986],[-71.504946,-32.949492],[-71.506015,-32.949471],[-71.506091,-32.952174],[-71.505023,-32.952196],[-71.505048,-32.953097],[-71.503979,-32.953119],[-71.504005,-32.95402],[-71.501867,-32.954063],[-71.501892,-32.954964],[-71.498685,-32.955028],[-71.498711,-32.955929],[-71.497642,-32.955951],[-71.497591,-32.954148],[-71.495453,-32.954191],[-71.495428,-32.95329],[-71.494359,-32.953311],[-71.494334,-32.95241],[-71.484714,-32.952602],[-71.484739,-32.953503],[-71.48367,-32.953524],[-71.483695,-32.954425],[-71.481557,-32.954468],[-71.481482,-32.951764],[-71.480413,-32.951786],[-71.480388,-32.950884],[-71.48,-32.950892],[-71.48,-33.018519],[-71.48014,-33.018516],[-71.480191,-33.020319],[-71.48,-33.020323],[-71.48,-33.06],[-71.6,-33.06]],[[-71.549663,-33.054083],[-71.547523,-33.054127],[-71.547497,-33.053225],[-71.549637,-33.053182],[-71.549663,-33.054083]],[[-71.48,-32.982451],[-71.48127,-32.982426],[-71.48132,-32.984229],[-71.480251,-32.98425],[-71.480478,-32.99236],[-71.48,-32.99237],[-71.48,-32.982451]],[[-71.494961,-33.050681],[-71.494936,-33.04978],[-71.486375,-33.049951],[-71.4864,-33.050852],[-71.48426,-33.050895],[-71.484285,-33.051796],[-71.483215,-33.051817],[-71.483064,-33.04641],[-71.481994,-33.046432],[-71.481968,-33.045531],[-71.480898,-33.045552],[-71.480873,-33.044651],[-71.481943,-33.044629],[-71.481892,-33.042827],[-71.482962,-33.042806],[-71.482988,-33.043707],[-71.486198,-33.043643],[-71.486223,-33.044544],[-71.487293,-33.044523],[-71.487318,-33.045424],[-71.488388,-33.045403],[-71.488414,-33.046304],[-71.489484,-33.046282],[-71.489509,-33.047184],[-71.490579,-33.047162],[-71.490605,-33.048063],[-71.492745,-33.048021],[-71.49277,-33.048922],[-71.49491,-33.048879],[-71.494936,-33.04978],[-71.499216,-33.049694],[-71.499241,-33.050596],[-71.500311,-33.050574],[-71.500337,-33.051475],[-71.499267,-33.051497],[-71.499292,-33.052398],[-71.498222,-33.052419],[-71.498197,-33.051518],[-71.496057,-33.051561],[-71.496031,-33.05066],[-71.494961,-33.050681]],[[-71.512307,-33.020578],[-71.511238,-33.020599],[-71.511212,-33.019698],[-71.510143,-33.019719],[-71.510091,-33.017917],[-71.509022,-33.017939],[-71.508996,-33.017037],[-71.507927,-33.017059],[-71.507901,-33.016158],[-71.506831,-33.016179],[-71.506806,-33.015278],[-71.503597,-33.015343],[-71.503571,-33.014441],[-71.500363,-33.014506],[-71.500312,-33.012703],[-71.501381,-33.012682],[-71.50133,-33.01088],[-71.5024,-33.010858],[-71.502374,-33.009957],[-71.503444,-33.009936],[-71.503368,-33.007232],[-71.505507,-33.007189],[-71.505583,-33.009893],[-71.506653,-33.009871],[-71.506729,-33.012575],[-71.507799,-33.012553],[-71.507824,-33.013454],[-71.508894,-33.013433],[-71.50892,-33.014334],[-71.509989,-33.014312],[-71.510015,-33.015214],[-71.512154,-33.015171],[-71.51218,-33.016072],[-71.514319,-33.016029],[-71.51437,-33.017831],[-71.516509,-33.017788],[-71.516535,-33.018689],[-71.515465,-33.018711],[-71.515491,-33.019612],[-71.512282,-33.019676],[-71.512307,-33.020578]],[[-71.512888,-32.965563],[-71.50968,-32.965628],[-71.509655,-32.964727],[-71.50431,-32.964834],[-71.504284,-32.963933],[-71.503215,-32.963954],[-71.503114,-32.960349],[-71.504183,-32.960328],[-71.504157,-32.959427],[-71.505226,-32.959405],[-71.505201,-32.958504],[-71.508408,-32.95844],[-71.508382,-32.957539],[-71.51052,-32.957496],[-71.510494,-32.956594],[-71.511563,-32.956573],[-71.511538,-32.955672],[-71.512607,-32.95565],[-71.512454,-32.950243],[-71.511385,-32.950265],[-71.511308,-32.947561],[-71.51024,-32.947583],[-71.510112,-32.943077],[-71.511181,-32.943055],[-71.511104,-32.940352],[-71.512173,-32.94033],[-71.512148,-32.939429],[-71.513216,-32.939408],[-71.513191,-32.938506],[-71.51426,-32.938485],[-71.514234,-32.937584],[-71.516371,-32.937541],[-71.516346,-32.93664],[-71.518483,-32.936596],[-71.518509,-32.937498],[-71.520646,-32.937454],[-71.520672,-32.938356],[-71.522809,-32.938312],[-71.522835,-32.939214],[-71.526041,-32.939149],[-71.526067,-32.94005],[-71.528204,-32.940007],[-71.52823,-32.940908],[-71.531436,-32.940843],[-71.531462,-32.941744],[-71.53253,-32.941722],[-71.532556,-32.942624],[-71.533625,-32.942602],[-71.533676,-32.944404],[-71.534745,-32.944383],[-71.534874,-32.948888],[-71.533805,-32.94891],[-71.53383,-32.949811],[-71.532762,-32.949833],[-71.532787,-32.950734],[-71.53065,-32.950777],[-71.530675,-32.951679],[-71.528538,-32.951722],[-71.528563,-32.952623],[-71.527494,-32.952645],[-71.52752,-32.953546],[-71.526451,-32.953567],[-71.526477,-32.954469],[-71.525408,-32.95449],[-71.525459,-32.956293],[-71.52439,-32.956314],[-71.524416,-32.957215],[-71.523347,-32.957237],[-71.523373,-32.958138],[-71.522304,-32.95816],[-71.522329,-32.959061],[-71.52126,-32.959083],[-71.521286,-32.959984],[-71.520217,-32.960005],[-71.520243,-32.960906],[-71.519174,-32.960928],[-71.519225,-32.96273],[-71.518156,-32.962752],[-71.518181,-32.963653],[-71.517112,-32.963675],[-71.517138,-32.964576],[-71.512862,-32.964662],[-71.512888,-32.965563]],[[-71.524408,-33.032055],[-71.521199,-33.03212],[-71.521173,-33.031219],[-71.519033,-33.031262],[-71.519008,-33.030361],[-71.517938,-33.030382],[-71.517835,-33.026778],[-71.518905,-33.026756],[-71.51888,-33.025855],[-71.519949,-33.025833],[-71.519898,-33.024031],[-71.520968,-33.024009],[-71.520891,-33.021306],[-71.52196,-33.021284],[-71.521883,-33.018581],[-71.522953,-33.018559],[-71.522876,-33.015856],[-71.523946,-33.015834],[-71.523869,-33.013131],[-71.518521,-33.013239],[-71.518495,-33.012338],[-71.516356,-33.012381],[-71.51633,-33.01148],[-71.515261,-33.011501],[-71.515209,-33.009699],[-71.51414,-33.00972],[-71.514063,-33.007017],[-71.515133,-33.006995],[-71.515107,-33.006094],[-71.516176,-33.006073],[-71.516125,-33.00427],[-71.517195,-33.004249],[-71.517169,-33.003348],[-71.518239,-33.003326],[-71.518213,-33.002425],[-71.519283,-33.002403],[-71.519257,-33.001502],[-71.518187,-33.001524],[-71.518162,-33.000623],[-71.517092,-33.000644],[-71.517041,-32.998842],[-71.515972,-32.998863],[-71.515946,-32.997962],[-71.514877,-32.997984],[-71.514749,-32.993478],[-71.515818,-32.993456],[-71.515793,-32.992555],[-71.519001,-32.99249],[-71.519026,-32.993392],[-71.521165,-32.993348],[-71.521191,-32.99425],[-71.52226,-32.994228],[-71.522337,-32.996931],[-71.523406,-32.99691],[-71.523458,-32.998712],[-71.522388,-32.998734],[-71.522414,-32.999635],[-71.521345,-32.999657],[-71.52137,-33.000558],[-71.520301,-33.000579],[-71.520378,-33.003283],[-71.521447,-33.003261],[-71.521473,-33.004162],[-71.522542,-33.004141],[-71.522619,-33.006844],[-71.523689,-33.006823],[-71.52374,-33.008625],[-71.525879,-33.008582],[-71.525854,-33.00768],[-71.527993,-33.007637],[-71.527967,-33.006736],[-71.529036,-33.006714],[-71.529011,-33.005813],[-71.53008,-33.005791],[-71.530054,-33.00489],[-71.532193,-33.004847],[-71.532168,-33.003946],[-71.538585,-33.003815],[-71.53861,-33.004716],[-71.53968,-33.004695],[-71.539706,-33.005596],[-71.540775,-33.005574],[-71.540801,-33.006475],[-71.541871,-33.006453],[-71.542026,-33.01186],[-71.540956,-33.011882],[-71.541008,-33.013684],[-71.539938,-33.013706],[-71.539964,-33.014607],[-71.538895,-33.014629],[-71.53892,-33.01553],[-71.536781,-33.015574],[-71.536807,-33.016475],[-71.533598,-33.01654],[-71.533624,-33.017441],[-71.532554,-33.017463],[-71.532709,-33.02287],[-71.531639,-33.022892],[-71.531717,-33.025595],[-71.530647,-33.025617],[-71.530724,-33.02832],[-71.529654,-33.028342],[-71.52968,-33.029243],[-71.52861,-33.029265],[-71.528636,-33.030166],[-71.527566,-33.030188],[-71.527592,-33.031089],[-71.524383,-33.031154],[-71.524408,-33.032055]],[[-71.490787,-33.016501],[-71.486508,-33.016586],[-71.486483,-33.015685],[-71.484343,-33.015728],[-71.484318,-33.014826],[-71.482179,-33.014869],[-71.482128,-33.013067],[-71.481058,-33.013088],[-71.481033,-33.012187],[-71.48,-33.012207],[-71.48,-32.998682],[-71.486002,-32.998562],[-71.485977,-32.997661],[-71.488115,-32.997619],[-71.48809,-32.996717],[-71.490229,-32.996675],[-71.490178,-32.994872],[-71.489109,-32.994894],[-71.489084,-32.993993],[-71.486945,-32.994035],[-71.48692,-32.993134],[-71.48585,-32.993155],[-71.485825,-32.992254],[-71.484755,-32.992275],[-71.48468,-32.989572],[-71.48361,-32.989593],[-71.483535,-32.98689],[-71.484604,-32.986868],[-71.484528,-32.984165],[-71.485597,-32.984143],[-71.485547,-32.982341],[-71.486616,-32.98232],[-71.486591,-32.981419],[-71.48766,-32.981397],[-71.487635,-32.980496],[-71.489773,-32.980453],[-71.489748,-32.979552],[-71.495094,-32.979445],[-71.495119,-32.980347],[-71.496189,-32.980325],[-71.496214,-32.981226],[-71.497283,-32.981205],[-71.497309,-32.982106],[-71.498378,-32.982085],[-71.498607,-32.990195],[-71.497537,-32.990217],[-71.497588,-32.992019],[-71.496519,-32.992041],[-71.496544,-32.992942],[-71.495475,-32.992963],[-71.4955,-32.993864],[-71.494431,-32.993886],[-71.494456,-32.994787],[-71.495525,-32.994766],[-71.495551,-32.995667],[-71.498759,-32.995603],[-71.498784,-32.996504],[-71.500923,-32.996461],[-71.500949,-32.997362],[-71.503088,-32.997319],[-71.503138,-32.999121],[-71.504208,-32.9991],[-71.504259,-33.000902],[-71.503189,-33.000924],[-71.503266,-33.003627],[-71.502196,-33.003649],[-71.502247,-33.005451],[-71.501178,-33.005473],[-71.501203,-33.006374],[-71.500134,-33.006395],[-71.500184,-33.008198],[-71.499115,-33.008219],[-71.49914,-33.00912],[-71.498071,-33.009142],[-71.498096,-33.010043],[-71.497027,-33.010064],[-71.497052,-33.010965],[-71.495982,-33.010987],[-71.496033,-33.012789],[-71.494964,-33.012811],[-71.494989,-33.013712],[-71.493919,-33.013733],[-71.493945,-33.014634],[-71.491805,-33.014677],[-71.491831,-33.015578],[-71.490761,-33.0156],[-71.490787,-33.016501]],[[-71.517176,-33.041218],[-71.516106,-33.04124],[-71.516132,-33.042141],[-71.515062,-33.042162],[-71.515138,-33.044866],[-71.514068,-33.044887],[-71.51412,-33.04669],[-71.51305,-33.046711],[-71.513075,-33.047612],[-71.512005,-33.047634],[-71.512056,-33.049436],[-71.514197,-33.049393],[-71.514222,-33.050294],[-71.515292,-33.050273],[-71.515318,-33.051174],[-71.516388,-33.051152],[-71.516414,-33.052053],[-71.517484,-33.052032],[-71.517509,-33.052933],[-71.518579,-33.052911],[-71.518605,-33.053813],[-71.519675,-33.053791],[-71.519727,-33.055593],[-71.520797,-33.055572],[-71.520923,-33.06],[-71.48987,-33.06],[-71.489864,-33.0598],[-71.492005,-33.059757],[-71.491979,-33.058856],[-71.49305,-33.058835],[-71.493024,-33.057933],[-71.494094,-33.057912],[-71.494069,-33.057011],[-71.498349,-33.056925],[-71.498324,-33.056024],[-71.503675,-33.055917],[-71.503649,-33.055015],[-71.504719,-33.054994],[-71.504694,-33.054093],[-71.505764,-33.054071],[-71.505738,-33.05317],[-71.506808,-33.053149],[-71.506783,-33.052247],[-71.507853,-33.052226],[-71.507802,-33.050424],[-71.508872,-33.050402],[-71.508846,-33.049501],[-71.506706,-33.049544],[-71.506681,-33.048643],[-71.505611,-33.048664],[-71.505585,-33.047763],[-71.504515,-33.047785],[-71.504464,-33.045982],[-71.502324,-33.046025],[-71.502298,-33.045124],[-71.494808,-33.045274],[-71.494783,-33.044373],[-71.492643,-33.044416],[-71.492618,-33.043515],[-71.490478,-33.043557],[-71.490452,-33.042656],[-71.489382,-33.042678],[-71.489357,-33.041776],[-71.488287,-33.041798],[-71.488262,-33.040897],[-71.487192,-33.040918],[-71.487166,-33.040017],[-71.486096,-33.040038],[-71.486071,-33.039137],[-71.485001,-33.039158],[-71.484976,-33.038257],[-71.483906,-33.038278],[-71.48388,-33.037377],[-71.480671,-33.037441],[-71.480696,-33.038342],[-71.48,-33.038356],[-71.48,-33.024831],[-71.482457,-33.024782],[-71.482431,-33.023881],[-71.483501,-33.02386],[-71.483476,-33.022958],[-71.484546,-33.022937],[-71.48452,-33.022036],[-71.48559,-33.022015],[-71.485565,-33.021113],[-71.486634,-33.021092],[-71.486609,-33.020191],[-71.502655,-33.01987],[-71.50268,-33.020771],[-71.50375,-33.02075],[-71.503775,-33.021651],[-71.504845,-33.021629],[-71.504871,-33.02253],[-71.50594,-33.022509],[-71.506042,-33.026114],[-71.504973,-33.026135],[-71.505202,-33.034246],[-71.506272,-33.034224],[-71.506374,-33.037829],[-71.507444,-33.037807],[-71.507521,-33.040511],[-71.510731,-33.040446],[-71.510705,-33.039545],[-71.513915,-33.03948],[-71.51394,-33.040382],[-71.51501,-33.04036],[-71.515036,-33.041261],[-71.516106,-33.04124],[-71.516055,-33.039437],[-71.517125,-33.039416],[-71.517099,-33.038514],[-71.518169,-33.038493],[-71.518143,-33.037592],[-71.520283,-33.037548],[-71.520257,-33.036647],[-71.524537,-33.036561],[-71.524563,-33.037462],[-71.525632,-33.03744],[-71.525658,-33.038341],[-71.526728,-33.03832],[-71.526754,-33.039221],[-71.528894,-33.039177],[-71.528919,-33.040079],[-71.532129,-33.040013],[-71.532155,-33.040915],[-71.538574,-33.040784],[-71.538549,-33.039883],[-71.540688,-33.039839],[-71.540663,-33.038938],[-71.541732,-33.038916],[-71.541707,-33.038015],[-71.542776,-33.037993],[-71.542751,-33.037092],[-71.54489,-33.037049],[-71.544838,-33.035246],[-71.545908,-33.035225],[-71.545882,-33.034323],[-71.546952,-33.034302],[-71.546926,-33.0334],[-71.549066,-33.033357],[-71.54904,-33.032456],[-71.552249,-33.03239],[-71.552275,-33.033291],[-71.554415,-33.033247],[-71.554441,-33.034148],[-71.556581,-33.034105],[-71.556607,-33.035006],[-71.561956,-33.034896],[-71.56193,-33.033995],[-71.564069,-33.033951],[-71.564043,-33.03305],[-71.567253,-33.032984],[-71.567227,-33.032082],[-71.568296,-33.03206],[-71.568322,-33.032962],[-71.571532,-33.032895],[-71.571558,-33.033797],[-71.572628,-33.033774],[-71.572654,-33.034676],[-71.574794,-33.034631],[-71.57482,-33.035533],[-71.57589,-33.03551],[-71.575916,-33.036412],[-71.576986,-33.036389],[-71.577038,-33.038192],[-71.578108,-33.03817],[-71.578213,-33.041774],[-71.579283,-33.041752],[-71.579309,-33.042653],[-71.580379,-33.042631],[-71.580406,-33.043532],[-71.581476,-33.04351],[-71.581502,-33.044411],[-71.582572,-33.044389],[-71.582598,-33.04529],[-71.583668,-33.045268],[-71.583694,-33.046169],[-71.584764,-33.046147],[-71.584817,-33.047949],[-71.585887,-33.047927],[-71.58594,-33.049729],[-71.58701,-33.049707],[-71.587036,-33.050608],[-71.588106,-33.050586],[-71.588132,-33.051487],[-71.589202,-33.051465],[-71.589229,-33.052366],[-71.590299,-33.052343],[-71.590325,-33.053245],[-71.591395,-33.053222],[-71.591422,-33.054123],[-71.592492,-33.054101],[-71.592545,-33.055903],[-71.593615,-33.055881],[-71.59372,-33.059485],[-71.59265,-33.059508],[-71.592665,-33.06],[-71.550904,-33.06],[-71.550889,-33.059468],[-71.55196,-33.059446],[-71.551934,-33.058545],[-71.553004,-33.058523],[-71.552978,-33.057622],[-71.554048,-33.0576],[-71.554022,-33.056699],[-71.555092,-33.056677],[-71.555066,-33.055776],[-71.562556,-33.055622],[-71.562582,-33.056523],[-71.564723,-33.056479],[-71.564697,-33.055578],[-71.565767,-33.055556],[-71.565662,-33.051951],[-71.564592,-33.051973],[-71.564566,-33.051072],[-71.563496,-33.051094],[-71.56347,-33.050193],[-71.5624,-33.050215],[-71.562374,-33.049314],[-71.561304,-33.049336],[-71.561277,-33.048435],[-71.559137,-33.048479],[-71.559111,-33.047578],[-71.554831,-33.047665],[-71.554805,-33.046764],[-71.552665,-33.046808],[-71.552639,-33.045907],[-71.551569,-33.045929],[-71.551543,-33.045028],[-71.548334,-33.045093],[-71.54836,-33.045994],[-71.54729,-33.046016],[-71.547315,-33.046918],[-71.546245,-33.046939],[-71.546271,-33.04784],[-71.545201,-33.047862],[-71.545227,-33.048763],[-71.544157,-33.048785],[-71.544183,-33.049686],[-71.542043,-33.04973],[-71.542069,-33.050631],[-71.540999,-33.050653],[-71.541025,-33.051554],[-71.539955,-33.051576],[-71.540033,-33.054279],[-71.538963,-33.054301],[-71.539118,-33.059708],[-71.540188,-33.059686],[-71.540197,-33.06],[-71.529489,-33.06],[-71.529461,-33.059003],[-71.530531,-33.058981],[-71.530453,-33.056278],[-71.529383,-33.056299],[-71.529358,-33.055398],[-71.528287,-33.05542],[-71.528262,-33.054519],[-71.526121,-33.054562],[-71.526096,-33.053661],[-71.525026,-33.053683],[-71.525,-33.052782],[-71.52393,-33.052803],[-71.523904,-33.051902],[-71.522834,-33.051924],[-71.522783,-33.050121],[-71.521713,-33.050143],[-71.521584,-33.045637],[-71.520514,-33.045659],[-71.520463,-33.043857],[-71.519393,-33.043878],[-71.519367,-33.042977],[-71.518297,-33.042999],[-71.518271,-33.042097],[-71.517201,-33.042119],[-71.517176,-33.041218]]]},"properties":{"gridcode":1,"recurrencia":"Muy baja"}}]}