{"type":"FeatureCollection","features":[{"type":"Feature","geometry":{"type":"Polygon","coordinates":[[[-70.542003,-33.511465],[-70.542356,-33.51155],[-70.542485,-33.511225],[-70.54259,-33.51056],[-70.542751,-33.509839],[-70.542981,-33.509407],[-70.543323,-33.508636],[-70.54338,-33.508441],[-70.543575,-33.507541],[-70.543818,-33.50591],[-70.536327,-33.505513],[-70.535069,-33.509499],[-70.535444,-33.50958],[-70.535893,-33.509751],[-70.538141,-33.51041],[-70.539258,-33.510903],[-70.539693,-33.511016],[-70.54044,-33.511091],[-70.540868,-33.511175],[-70.541097,-33.511248],[-70.541614,-33.511344],[-70.542003,-33.511465]]]},"properties":{"ORD_1":"Artículo 8.2.1.2.De Derrumbes y Asentamiento del Suelo","ORD_2":"Quebrada Macul- Canal Las Predices"}}]}