{"type":"FeatureCollection","features":[{"type":"Feature","geometry":{"type":"Point","coordinates":[-70.514615,-33.467366]},"properties":{"sector":"QUEBRADA DE LAS PALMAS","causa_punt":"Activación de quebradas","nivel_de_riesgo_2022":"Muy Alto"}},{"type":"Feature","geometry":{"type":"Point","coordinates":[-70.514994,-33.501702]},"properties":{"sector":"QUEBRADA DE MACUL","causa_punt":"Activación de quebradas","nivel_de_riesgo_2022":"Muy Alto"}},{"type":"Feature","geometry":{"type":"Point","coordinates":[-70.519163,-33.471934]},"properties":{"sector":"QUEBRADA CABALLERO DE LA MONTAÑA","causa_punt":"Activación de quebradas","nivel_de_riesgo_2022":"Muy Alto"}},{"type":"Feature","geometry":{"type":"Point","coordinates":[-70.52412,-33.482391]},"properties":{"sector":"QUEBRADA DE LO HERMIDA","causa_punt":"Activación de quebradas","nivel_de_riesgo_2022":"Muy Alto"}}]}