{"type":"FeatureCollection","features":[{"type":"Feature","geometry":{"type":"LineString","coordinates":[[-70.541957,-33.512867],[-70.542538,-33.513055],[-70.543513,-33.513036],[-70.544053,-33.513064],[-70.54442,-33.513],[-70.54515,-33.513148],[-70.545849,-33.51324],[-70.546249,-33.513354],[-70.546976,-33.513457],[-70.547665,-33.513701],[-70.547913,-33.513677],[-70.548259,-33.51375],[-70.54936,-33.514082],[-70.550315,-33.514202],[-70.550745,-33.514385],[-70.551122,-33.514481],[-70.551575,-33.514645],[-70.552062,-33.514997],[-70.552771,-33.515233],[-70.553222,-33.515303],[-70.553412,-33.515413],[-70.553676,-33.515498],[-70.554007,-33.515582],[-70.555376,-33.515753],[-70.556308,-33.515986],[-70.556824,-33.516194],[-70.557171,-33.516437],[-70.557373,-33.516664],[-70.557825,-33.51762],[-70.558052,-33.517778]]},"properties":{"NOMBRE":"Macul","TRAMO":"Desde Límite de Ext. Urbana Hasta Canal San Carlos","COMUNA":"La Florida"}},{"type":"Feature","geometry":{"type":"LineString","coordinates":[[-70.523882,-33.470226],[-70.525165,-33.469903],[-70.525729,-33.469575],[-70.526612,-33.46875],[-70.527194,-33.468466],[-70.527901,-33.468268],[-70.528131,-33.468146],[-70.529189,-33.467721],[-70.529411,-33.467593],[-70.529878,-33.467408],[-70.530047,-33.467271],[-70.53045,-33.46706],[-70.531059,-33.467053],[-70.531889,-33.466827]]},"properties":{"NOMBRE":"Nido de Águila","TRAMO":"Desde Calle Alvaro Casanova Hasta Canal las Perdices","COMUNA":"Peñalolén"}},{"type":"Feature","geometry":{"type":"LineString","coordinates":[[-70.517272,-33.489589],[-70.518139,-33.489788],[-70.519156,-33.489693],[-70.519393,-33.489649],[-70.51962,-33.489563],[-70.520135,-33.489207],[-70.520385,-33.488941],[-70.520671,-33.488431],[-70.520816,-33.488287],[-70.52098,-33.487852],[-70.520996,-33.487634],[-70.521198,-33.487402],[-70.521438,-33.487265],[-70.52166,-33.487073],[-70.522375,-33.48679],[-70.52325,-33.486344],[-70.523929,-33.485857]]},"properties":{"NOMBRE":"Lo Hermida","TRAMO":"Desde Límite Extensión Urbana hasta calle Alvaro Casanova","COMUNA":"Peñalolén"}},{"type":"Feature","geometry":{"type":"LineString","coordinates":[[-70.530874,-33.516961],[-70.5308,-33.516739],[-70.530873,-33.516543],[-70.530904,-33.516314],[-70.530883,-33.516116],[-70.530919,-33.515891],[-70.53104,-33.515733],[-70.531445,-33.515486],[-70.531483,-33.515265],[-70.531583,-33.515058],[-70.531607,-33.514865],[-70.531722,-33.514652],[-70.531718,-33.514464],[-70.531852,-33.514321],[-70.531926,-33.514149],[-70.532157,-33.51404],[-70.532363,-33.514007]]},"properties":{"NOMBRE":"Las Perdices","TRAMO":"Desde Limite de Ext. Urbana Hasta Canal Las Perdices","COMUNA":"La Florida"}},{"type":"Feature","geometry":{"type":"LineString","coordinates":[[-70.533366,-33.524121],[-70.535179,-33.52331],[-70.53733,-33.52153],[-70.537436,-33.521306],[-70.537632,-33.521193],[-70.537776,-33.521035],[-70.537993,-33.520931],[-70.538192,-33.520788],[-70.538633,-33.520611],[-70.539134,-33.520139],[-70.539234,-33.519934],[-70.539656,-33.519654],[-70.539885,-33.519537],[-70.540141,-33.519536],[-70.540559,-33.519304],[-70.540784,-33.519217],[-70.540955,-33.519073],[-70.541143,-33.518976],[-70.542112,-33.518716]]},"properties":{"NOMBRE":"Lo Cañas","TRAMO":"Desde Limite de Ext. Urbana Hasta Canal Las Perdices","COMUNA":"La Florida"}},{"type":"Feature","geometry":{"type":"LineString","coordinates":[[-70.525348,-33.516555],[-70.525543,-33.516399],[-70.525611,-33.51617],[-70.525789,-33.516003],[-70.526276,-33.515799],[-70.526711,-33.51554],[-70.527499,-33.515474],[-70.527942,-33.515167],[-70.528254,-33.515071],[-70.52848,-33.515059],[-70.528727,-33.514973],[-70.529175,-33.514731],[-70.529368,-33.514566],[-70.52961,-33.514539],[-70.529771,-33.514366],[-70.529882,-33.514187],[-70.530162,-33.514128],[-70.530371,-33.514038],[-70.530868,-33.514021],[-70.531406,-33.513893],[-70.532118,-33.513919],[-70.532363,-33.514007],[-70.532645,-33.513904],[-70.53286,-33.513998],[-70.533158,-33.513978],[-70.533239,-33.513797],[-70.533499,-33.513769],[-70.533705,-33.51389],[-70.533952,-33.513919],[-70.534196,-33.513826],[-70.534416,-33.513792],[-70.535072,-33.513757],[-70.535989,-33.513759],[-70.53772,-33.513833],[-70.538039,-33.513849],[-70.53827,-33.5139],[-70.539317,-33.513877],[-70.540559,-33.513965]]},"properties":{"NOMBRE":"Las Perdices","TRAMO":"Desde Limite de Ext. Urbana Hasta Canal Las Perdices","COMUNA":"La Florida"}},{"type":"Feature","geometry":{"type":"LineString","coordinates":[[-70.52245,-33.522912],[-70.522567,-33.522734],[-70.522719,-33.522604],[-70.522986,-33.522448],[-70.523195,-33.522276],[-70.523317,-33.522123],[-70.52369,-33.521826],[-70.524511,-33.521292],[-70.525069,-33.520831],[-70.525343,-33.520677],[-70.526238,-33.520343],[-70.526523,-33.520266],[-70.527121,-33.520188],[-70.527395,-33.520089],[-70.528088,-33.520154],[-70.528377,-33.520101],[-70.528902,-33.51985],[-70.529331,-33.519167],[-70.529611,-33.519039]]},"properties":{"NOMBRE":"Sin Nombre","TRAMO":"Desde Limite de Ext. Urbana Hasta Canal Las Perdices","COMUNA":"La Florida"}},{"type":"Feature","geometry":{"type":"LineString","coordinates":[[-70.541305,-33.517054],[-70.540603,-33.517459],[-70.539379,-33.517887],[-70.537817,-33.518319],[-70.535989,-33.51877],[-70.535543,-33.519034],[-70.535267,-33.519321],[-70.534764,-33.519516],[-70.534119,-33.519665],[-70.532517,-33.519756],[-70.53201,-33.519738],[-70.531446,-33.519674],[-70.530342,-33.519335],[-70.529577,-33.519014]]},"properties":{"NOMBRE":"Sin Nombre","TRAMO":"Desde Limite de Ext. Urbana Hasta Canal Las Perdices","COMUNA":"La Florida"}},{"type":"Feature","geometry":{"type":"LineString","coordinates":[[-70.531025,-33.509605],[-70.531716,-33.509855],[-70.532326,-33.510159],[-70.53277,-33.510203],[-70.533216,-33.510402],[-70.533612,-33.510426],[-70.533813,-33.51058],[-70.53413,-33.510752],[-70.534853,-33.51084],[-70.535295,-33.51101],[-70.535872,-33.511179],[-70.536106,-33.511234],[-70.536526,-33.511268],[-70.537077,-33.511515],[-70.537369,-33.511521],[-70.538391,-33.512064],[-70.538708,-33.512177],[-70.539421,-33.512364],[-70.540296,-33.51244],[-70.540706,-33.512572],[-70.541032,-33.512607],[-70.54198,-33.512878]]},"properties":{"NOMBRE":" ","TRAMO":"Desde Límite de Ext. Urbana Hasta Canal San Carlos","COMUNA":"La Florida"}},{"type":"Feature","geometry":{"type":"LineString","coordinates":[[-70.527729,-33.508493],[-70.528166,-33.508602],[-70.528833,-33.508827],[-70.52942,-33.509093],[-70.530274,-33.509307],[-70.530458,-33.50938]]},"properties":{"NOMBRE":" ","TRAMO":"Desde Límite de Ext. Urbana Hasta Canal San Carlos","COMUNA":"Peñalolén"}},{"type":"Feature","geometry":{"type":"LineString","coordinates":[[-70.524637,-33.508016],[-70.524837,-33.508009],[-70.525456,-33.508138],[-70.526004,-33.50818],[-70.526519,-33.5083],[-70.527065,-33.508264],[-70.527109,-33.508285]]},"properties":{"NOMBRE":" ","TRAMO":"Desde Límite de Ext. Urbana Hasta Canal San Carlos","COMUNA":"Peñalolén"}},{"type":"Feature","geometry":{"type":"LineString","coordinates":[[-70.523982,-33.507866],[-70.523549,-33.507595],[-70.522963,-33.507359],[-70.522479,-33.507067]]},"properties":{"NOMBRE":" ","TRAMO":"Desde Límite de Ext. Urbana Hasta Canal San Carlos","COMUNA":"Peñalolén"}},{"type":"Feature","geometry":{"type":"LineString","coordinates":[[-70.520634,-33.505963],[-70.520103,-33.505609],[-70.519881,-33.505512]]},"properties":{"NOMBRE":" ","TRAMO":"Desde Límite de Ext. Urbana Hasta Canal San Carlos","COMUNA":"La Florida"}},{"type":"Feature","geometry":{"type":"LineString","coordinates":[[-70.521993,-33.506791],[-70.521268,-33.506297],[-70.521067,-33.506191]]},"properties":{"NOMBRE":" ","TRAMO":"Desde Límite de Ext. Urbana Hasta Canal San Carlos","COMUNA":"Peñalolén"}},{"type":"Feature","geometry":{"type":"LineString","coordinates":[[-70.522636,-33.516584],[-70.523169,-33.516552],[-70.523675,-33.516707],[-70.5239,-33.516731],[-70.524269,-33.51671],[-70.524544,-33.516564],[-70.524906,-33.51651],[-70.525138,-33.516507],[-70.525348,-33.516555]]},"properties":{"NOMBRE":"Las Perdices","TRAMO":"Desde Limite de Ext. Urbana Hasta Canal Las Perdices","COMUNA":"La Florida"}},{"type":"Feature","geometry":{"type":"LineString","coordinates":[[-70.518558,-33.514441],[-70.519022,-33.514403],[-70.5193,-33.514477],[-70.520028,-33.514541],[-70.520435,-33.514715],[-70.520721,-33.514745],[-70.520969,-33.514927],[-70.52125,-33.514946],[-70.521853,-33.514918],[-70.522347,-33.514788],[-70.522703,-33.514736],[-70.522987,-33.514721],[-70.523628,-33.51478],[-70.523911,-33.514734],[-70.524422,-33.514758],[-70.525364,-33.515203],[-70.525637,-33.515288],[-70.526076,-33.51534],[-70.526278,-33.515445],[-70.526453,-33.515585],[-70.52661,-33.515595]]},"properties":{"NOMBRE":"Las Perdices","TRAMO":"Desde Limite de Ext. Urbana Hasta Canal Las Perdices","COMUNA":"La Florida"}},{"type":"Feature","geometry":{"type":"LineString","coordinates":[[-70.518736,-33.516074],[-70.519059,-33.516113],[-70.519537,-33.516278],[-70.520151,-33.51634],[-70.520447,-33.516433],[-70.52061,-33.516554]]},"properties":{"NOMBRE":"Las Perdices","TRAMO":"Desde Limite de Ext. Urbana Hasta Canal Las Perdices","COMUNA":"La Florida"}},{"type":"Feature","geometry":{"type":"LineString","coordinates":[[-70.518844,-33.51655],[-70.519503,-33.516725],[-70.519807,-33.516754],[-70.520311,-33.516689],[-70.520613,-33.516554],[-70.521049,-33.516515],[-70.521625,-33.516511],[-70.521924,-33.516548],[-70.522148,-33.516613],[-70.522636,-33.516584]]},"properties":{"NOMBRE":"Las Perdices","TRAMO":"Desde Limite de Ext. Urbana Hasta Canal Las Perdices","COMUNA":"La Florida"}},{"type":"Feature","geometry":{"type":"LineString","coordinates":[[-70.519228,-33.519732],[-70.519334,-33.519658],[-70.519848,-33.519118],[-70.520047,-33.518949],[-70.520171,-33.518707],[-70.520399,-33.518502],[-70.521035,-33.518175],[-70.521417,-33.517722],[-70.521766,-33.517156],[-70.521896,-33.516997],[-70.522335,-33.516724],[-70.522612,-33.516598]]},"properties":{"NOMBRE":"Las Perdices","TRAMO":"Desde Limite de Ext. Urbana Hasta Canal Las Perdices","COMUNA":"La Florida"}},{"type":"Feature","geometry":{"type":"LineString","coordinates":[[-70.519435,-33.505316],[-70.519258,-33.505239],[-70.518926,-33.504843],[-70.518692,-33.504631]]},"properties":{"NOMBRE":" ","TRAMO":"Desde Límite de Ext. Urbana Hasta Canal San Carlos","COMUNA":"Peñalolén"}},{"type":"Feature","geometry":{"type":"LineString","coordinates":[[-70.516176,-33.480899],[-70.51649,-33.480935],[-70.51676,-33.48102],[-70.517078,-33.481052],[-70.518724,-33.481084],[-70.519595,-33.481237],[-70.520496,-33.481473],[-70.520845,-33.481525],[-70.521536,-33.481535],[-70.521838,-33.481591],[-70.522369,-33.481753]]},"properties":{"NOMBRE":"Lo Hermida","TRAMO":"Desde Límite Extensión Urbana hasta calle Alvaro Casanova","COMUNA":"Peñalolén"}},{"type":"Feature","geometry":{"type":"LineString","coordinates":[[-70.516617,-33.482989],[-70.516969,-33.483064],[-70.517486,-33.483091],[-70.517788,-33.483144],[-70.518031,-33.48311],[-70.518468,-33.482935],[-70.518666,-33.482805],[-70.519557,-33.482589],[-70.519996,-33.482376],[-70.521468,-33.481972],[-70.522494,-33.481829]]},"properties":{"NOMBRE":"Lo Hermida","TRAMO":"Desde Límite Extensión Urbana hasta calle Alvaro Casanova","COMUNA":"Peñalolén"}},{"type":"Feature","geometry":{"type":"LineString","coordinates":[[-70.522369,-33.481753],[-70.522744,-33.481929],[-70.523132,-33.482056],[-70.523714,-33.482341],[-70.524213,-33.482442],[-70.524594,-33.482596],[-70.524969,-33.482649],[-70.525637,-33.482673],[-70.526123,-33.482646]]},"properties":{"NOMBRE":"Lo Hermida","TRAMO":"Desde Límite Extensión Urbana hasta calle Alvaro Casanova","COMUNA":"Peñalolén"}},{"type":"Feature","geometry":{"type":"LineString","coordinates":[[-70.526123,-33.482646],[-70.526692,-33.482541],[-70.527685,-33.482543],[-70.52792,-33.48248],[-70.528188,-33.482514],[-70.528572,-33.482638],[-70.528901,-33.4828],[-70.529042,-33.482937],[-70.529305,-33.483071],[-70.529542,-33.483133],[-70.530405,-33.483279],[-70.530903,-33.48325],[-70.531514,-33.483114],[-70.532096,-33.483035],[-70.532343,-33.482959],[-70.533297,-33.482465],[-70.53522,-33.481917],[-70.535513,-33.481715]]},"properties":{"NOMBRE":"Lo Hermida","TRAMO":"Desde Calle Alvaro Casanova Hasta Canal las Perdices","COMUNA":"Peñalolén"}},{"type":"Feature","geometry":{"type":"LineString","coordinates":[[-70.529087,-33.483254],[-70.528617,-33.483319],[-70.528298,-33.483449],[-70.528101,-33.483636],[-70.527615,-33.483716],[-70.527095,-33.483984]]},"properties":{"NOMBRE":"Lo Hermida","TRAMO":"Desde Calle Alvaro Casanova Hasta Canal las Perdices","COMUNA":"Peñalolén"}},{"type":"Feature","geometry":{"type":"LineString","coordinates":[[-70.527075,-33.483993],[-70.526025,-33.48439],[-70.525584,-33.484649],[-70.524884,-33.484776],[-70.524697,-33.484929],[-70.52457,-33.485124],[-70.524408,-33.485604],[-70.523838,-33.485902]]},"properties":{"NOMBRE":"Lo Hermida","TRAMO":"Desde Límite Extensión Urbana hasta calle Alvaro Casanova","COMUNA":"Peñalolén"}},{"type":"Feature","geometry":{"type":"LineString","coordinates":[[-70.515663,-33.473917],[-70.516044,-33.473872],[-70.51658,-33.473865],[-70.516881,-33.473834],[-70.517038,-33.473781],[-70.518928,-33.472277],[-70.52087,-33.471488],[-70.521372,-33.471224],[-70.521754,-33.470899],[-70.522033,-33.470755],[-70.522282,-33.470679],[-70.523329,-33.470504],[-70.523878,-33.470226]]},"properties":{"NOMBRE":" ","TRAMO":"Desde Límite Extensión Urbana hasta calle Alvaro Casanova","COMUNA":"Peñalolén"}},{"type":"Feature","geometry":{"type":"LineString","coordinates":[[-70.517679,-33.465167],[-70.518552,-33.464732],[-70.519239,-33.464449],[-70.520086,-33.464246],[-70.52166,-33.463919],[-70.52181,-33.463919],[-70.522627,-33.463779],[-70.522993,-33.463664],[-70.523166,-33.463686],[-70.524568,-33.463424],[-70.524895,-33.46331],[-70.525589,-33.46327],[-70.526054,-33.463112],[-70.526394,-33.463132],[-70.530471,-33.462432]]},"properties":{"NOMBRE":"Peñalolén","TRAMO":"Desde el Límite de Extensión Urbana hasta el Canal Las Perdices","COMUNA":"Peñalolén"}},{"type":"Feature","geometry":{"type":"LineString","coordinates":[[-70.517679,-33.465167],[-70.517083,-33.46505],[-70.516365,-33.465019],[-70.515772,-33.464812],[-70.514708,-33.464799]]},"properties":{"NOMBRE":"Peñalolén","TRAMO":"Desde el Límite de Extensión Urbana hasta el Canal Las Perdices","COMUNA":"Peñalolén"}},{"type":"Feature","geometry":{"type":"LineString","coordinates":[[-70.529299,-33.455939],[-70.525089,-33.456426],[-70.524321,-33.456652],[-70.523158,-33.456423],[-70.522287,-33.456299],[-70.520763,-33.455697],[-70.519958,-33.45568],[-70.518988,-33.455422],[-70.518138,-33.454981],[-70.518045,-33.454786]]},"properties":{"NOMBRE":"Sin Nombre","TRAMO":"Canal El Bollo hasta Canal Las Perdices","COMUNA":"La Reina"}},{"type":"Feature","geometry":{"type":"LineString","coordinates":[[-70.51295,-33.453548],[-70.51316,-33.453589],[-70.513703,-33.453792],[-70.513999,-33.453714],[-70.514331,-33.453705],[-70.515197,-33.453769],[-70.515594,-33.453829],[-70.51585,-33.453925],[-70.516055,-33.454084],[-70.516216,-33.454298],[-70.51814,-33.454995]]},"properties":{"NOMBRE":"Sin Nombre","TRAMO":"Desde Límite Extensión Urbana hasta Canal El Bollo","COMUNA":"La Reina"}},{"type":"Feature","geometry":{"type":"LineString","coordinates":[[-70.518153,-33.454962],[-70.516614,-33.456153],[-70.516396,-33.456286],[-70.516122,-33.456427],[-70.515267,-33.456731],[-70.514617,-33.457052],[-70.514008,-33.457413],[-70.513545,-33.457735],[-70.51316,-33.457891]]},"properties":{"NOMBRE":"Sin Nombre","TRAMO":"Desde Límite Extensión Urbana hasta Canal El Bollo","COMUNA":"La Reina"}},{"type":"Feature","geometry":{"type":"LineString","coordinates":[[-70.511432,-33.450537],[-70.511635,-33.450585],[-70.512175,-33.450867],[-70.512494,-33.451112],[-70.51293,-33.451342],[-70.513178,-33.451398],[-70.513426,-33.451379],[-70.513904,-33.451038],[-70.514539,-33.45102],[-70.515093,-33.450772],[-70.515391,-33.450691],[-70.515893,-33.450752],[-70.516331,-33.450748]]},"properties":{"NOMBRE":"Sin Nombre","TRAMO":"Desde Límite Extensión Urbana hasta Canal El Bollo","COMUNA":"La Reina"}},{"type":"Feature","geometry":{"type":"LineString","coordinates":[[-70.516331,-33.450748],[-70.517017,-33.450633],[-70.51724,-33.450677],[-70.517558,-33.450689],[-70.517848,-33.450663],[-70.518184,-33.450571],[-70.51836,-33.450459],[-70.519118,-33.45023],[-70.519665,-33.450024],[-70.520113,-33.449928],[-70.52058,-33.449619],[-70.520939,-33.449425],[-70.521323,-33.449303],[-70.521815,-33.449324],[-70.523125,-33.449515],[-70.523595,-33.449464]]},"properties":{"NOMBRE":"Sin Nombre","TRAMO":"Canal El Bollo hasta Canal Las Perdices","COMUNA":"La Reina"}},{"type":"Feature","geometry":{"type":"LineString","coordinates":[[-70.52358,-33.449454],[-70.524633,-33.449441],[-70.525432,-33.44955],[-70.526404,-33.449801],[-70.528227,-33.44985]]},"properties":{"NOMBRE":"Sin Nombre","TRAMO":"Canal El Bollo hasta Canal Las Perdices","COMUNA":"La Reina"}},{"type":"Feature","geometry":{"type":"LineString","coordinates":[[-70.543775,-33.502162],[-70.543413,-33.502192],[-70.543127,-33.502139],[-70.54249,-33.5021],[-70.540154,-33.501989],[-70.538612,-33.501952],[-70.537002,-33.50186],[-70.536377,-33.501849],[-70.535841,-33.501893],[-70.531122,-33.503383],[-70.530595,-33.503268],[-70.528938,-33.502437],[-70.527473,-33.50165],[-70.527137,-33.501598],[-70.526847,-33.501602],[-70.525966,-33.501233],[-70.525569,-33.501128],[-70.523332,-33.501767],[-70.522051,-33.501979],[-70.52156,-33.501985],[-70.520802,-33.502069],[-70.520383,-33.502168]]},"properties":{"NOMBRE":" ","TRAMO":"Desde Límite de Ext. Urbana Hasta Canal Las Perdices","COMUNA":"Peñalolén"}}]}