{"type":"FeatureCollection","features":[{"type":"Feature","geometry":{"type":"Polygon","coordinates":[[[-70.512015,-33.460502],[-70.510625,-33.459858],[-70.509223,-33.45927],[-70.508292,-33.459165],[-70.508033,-33.458982],[-70.507342,-33.458748],[-70.506071,-33.458747],[-70.50566,-33.458839],[-70.504369,-33.458681],[-70.503335,-33.458478],[-70.50173,-33.458065],[-70.50158,-33.45791],[-70.50116,-33.457856],[-70.499808,-33.457182],[-70.498566,-33.456851],[-70.497586,-33.45682],[-70.496871,-33.457174],[-70.496337,-33.457879],[-70.495989,-33.458182],[-70.495962,-33.458308],[-70.495094,-33.45875],[-70.493801,-33.458507],[-70.492919,-33.458129],[-70.491831,-33.457796],[-70.491573,-33.457799],[-70.490856,-33.458024],[-70.490347,-33.458419],[-70.490104,-33.459286],[-70.490367,-33.459585],[-70.491663,-33.460001],[-70.493054,-33.460028],[-70.493145,-33.460083],[-70.494242,-33.460143],[-70.495275,-33.460303],[-70.495945,-33.460295],[-70.49729,-33.460581],[-70.498423,-33.460524],[-70.499193,-33.460386],[-70.500225,-33.460416],[-70.500894,-33.460365],[-70.502542,-33.460345],[-70.503685,-33.46085],[-70.503799,-33.461034],[-70.504772,-33.461139],[-70.505601,-33.461388],[-70.506537,-33.461852],[-70.508145,-33.46248],[-70.508918,-33.462471],[-70.510511,-33.462192],[-70.511387,-33.462181],[-70.511951,-33.462045],[-70.512257,-33.461868],[-70.512302,-33.461479],[-70.512243,-33.461048],[-70.512015,-33.460502]]]},"properties":{"COMUNA":"LA REINA - PEÑALOLEN","ART_III":"De Riesgo Geofísico Asociado a Remoción en Masa","SECTOR":"Área Montañosa - Quebrada S/nombre O-16"}},{"type":"Feature","geometry":{"type":"Polygon","coordinates":[[[-70.456722,-33.45],[-70.456911,-33.450502],[-70.457334,-33.451052],[-70.457768,-33.451406],[-70.458666,-33.451453],[-70.459825,-33.451439],[-70.46172,-33.450792],[-70.463382,-33.45112],[-70.464224,-33.45151],[-70.466215,-33.452128],[-70.467795,-33.452456],[-70.470356,-33.452079],[-70.473167,-33.451768],[-70.474823,-33.451748],[-70.475901,-33.451805],[-70.476234,-33.451977],[-70.476733,-33.452003],[-70.477722,-33.451713],[-70.478542,-33.451218],[-70.479194,-33.450585],[-70.479367,-33.450579],[-70.480334,-33.45],[-70.456722,-33.45]]]},"properties":{"COMUNA":"LAS CONDES","ART_III":"De Riesgo Geofísico Asociado a Remoción en Masa","SECTOR":"Área Montañosa - Quebrada de Ramón"}},{"type":"Feature","geometry":{"type":"Polygon","coordinates":[[[-70.520674,-33.504365],[-70.520653,-33.504353],[-70.520815,-33.50319],[-70.520744,-33.502535],[-70.5217,-33.502145],[-70.523231,-33.50195],[-70.52475,-33.501623],[-70.525648,-33.501554],[-70.526658,-33.501346],[-70.527317,-33.501254],[-70.528114,-33.500972],[-70.528638,-33.500839],[-70.529459,-33.500731],[-70.529747,-33.500573],[-70.529901,-33.50044],[-70.529899,-33.50031],[-70.529828,-33.500105],[-70.529764,-33.500086],[-70.528276,-33.500193],[-70.526773,-33.500232],[-70.525752,-33.500581],[-70.5244,-33.50066],[-70.521749,-33.500966],[-70.52085,-33.501166],[-70.519046,-33.501209],[-70.518017,-33.501117],[-70.517593,-33.500999],[-70.516888,-33.501137],[-70.515371,-33.501571],[-70.513958,-33.501373],[-70.512639,-33.501033],[-70.511754,-33.500675],[-70.511219,-33.500377],[-70.510269,-33.500131],[-70.50808,-33.50009],[-70.506361,-33.499741],[-70.503751,-33.49883],[-70.501821,-33.497906],[-70.501429,-33.497587],[-70.500931,-33.49706],[-70.500585,-33.4969],[-70.4998,-33.496787],[-70.499409,-33.496791],[-70.498384,-33.496968],[-70.497315,-33.497391],[-70.496536,-33.497646],[-70.495552,-33.497371],[-70.49462,-33.497218],[-70.49413,-33.497224],[-70.493696,-33.497598],[-70.493658,-33.498214],[-70.49332,-33.498505],[-70.492595,-33.499006],[-70.492083,-33.499156],[-70.490602,-33.499809],[-70.489042,-33.500197],[-70.488219,-33.500699],[-70.487291,-33.500833],[-70.486164,-33.500765],[-70.484873,-33.499714],[-70.484178,-33.499107],[-70.483928,-33.498823],[-70.482887,-33.498015],[-70.481546,-33.496883],[-70.480808,-33.496646],[-70.47914,-33.49642],[-70.4785,-33.496222],[-70.477808,-33.495821],[-70.477022,-33.495625],[-70.476035,-33.495186],[-70.473985,-33.494478],[-70.474016,-33.494431],[-70.473175,-33.493907],[-70.472075,-33.492567],[-70.471423,-33.491632],[-70.470666,-33.490288],[-70.470309,-33.48939],[-70.470347,-33.488774],[-70.47033,-33.487749],[-70.47022,-33.487012],[-70.469816,-33.486279],[-70.469118,-33.485549],[-70.468335,-33.485558],[-70.466828,-33.485697],[-70.465362,-33.486291],[-70.464194,-33.486674],[-70.462973,-33.486811],[-70.462343,-33.486845],[-70.461752,-33.486949],[-70.460929,-33.487491],[-70.460404,-33.488277],[-70.459999,-33.488817],[-70.459094,-33.489882],[-70.458573,-33.491156],[-70.458642,-33.494079],[-70.458751,-33.494734],[-70.459197,-33.495098],[-70.459688,-33.495174],[-70.459973,-33.495085],[-70.460908,-33.494996],[-70.462226,-33.494734],[-70.463057,-33.494724],[-70.464071,-33.494915],[-70.464479,-33.494872],[-70.4659,-33.494937],[-70.466538,-33.495052],[-70.467235,-33.495782],[-70.467391,-33.496313],[-70.467643,-33.496721],[-70.468381,-33.496958],[-70.46897,-33.497033],[-70.469801,-33.497023],[-70.471028,-33.497214],[-70.472398,-33.497197],[-70.474847,-33.497291],[-70.475931,-33.497688],[-70.47716,-33.498002],[-70.477655,-33.498365],[-70.478196,-33.498481],[-70.479054,-33.498828],[-70.479246,-33.498874],[-70.480209,-33.499765],[-70.48096,-33.500803],[-70.481358,-33.501412],[-70.481797,-33.501912],[-70.482234,-33.502267],[-70.482882,-33.502332],[-70.484223,-33.502641],[-70.48569,-33.502804],[-70.486723,-33.502719],[-70.48874,-33.502226],[-70.489054,-33.502273],[-70.489957,-33.502154],[-70.490937,-33.502224],[-70.491274,-33.502343],[-70.492113,-33.502333],[-70.492796,-33.502161],[-70.493184,-33.501992],[-70.49357,-33.501619],[-70.493808,-33.501247],[-70.494242,-33.500872],[-70.494968,-33.500372],[-70.495986,-33.499826],[-70.496862,-33.499529],[-70.497594,-33.499397],[-70.497783,-33.499466],[-70.498691,-33.499543],[-70.49943,-33.499967],[-70.499995,-33.500213],[-70.500645,-33.500421],[-70.500994,-33.50067],[-70.501824,-33.501346],[-70.501831,-33.501779],[-70.501664,-33.50207],[-70.501625,-33.502287],[-70.501287,-33.502688],[-70.500648,-33.503129],[-70.500092,-33.503352],[-70.499706,-33.503465],[-70.498588,-33.503587],[-70.497944,-33.503703],[-70.497237,-33.503931],[-70.496745,-33.504187],[-70.496451,-33.504587],[-70.496158,-33.505096],[-70.4961,-33.505534],[-70.496269,-33.505955],[-70.496475,-33.505995],[-70.497076,-33.505879],[-70.498274,-33.505396],[-70.498744,-33.505173],[-70.500119,-33.50494],[-70.500723,-33.504933],[-70.501543,-33.505031],[-70.502273,-33.504914],[-70.502738,-33.504367],[-70.502947,-33.503967],[-70.503278,-33.503205],[-70.503697,-33.502514],[-70.504078,-33.502113],[-70.504677,-33.501853],[-70.505322,-33.501773],[-70.50614,-33.501763],[-70.506824,-33.501826],[-70.507257,-33.501791],[-70.508068,-33.502174],[-70.508652,-33.502276],[-70.510682,-33.50304],[-70.512083,-33.503698],[-70.512949,-33.504514],[-70.513495,-33.504958],[-70.514102,-33.505536],[-70.514639,-33.50577],[-70.516036,-33.50661],[-70.516991,-33.507027],[-70.51783,-33.507175],[-70.517903,-33.507232],[-70.518514,-33.507465],[-70.519638,-33.507852],[-70.521884,-33.508374],[-70.522262,-33.508577],[-70.522706,-33.508756],[-70.523033,-33.50896],[-70.523386,-33.509124],[-70.523916,-33.509205],[-70.524041,-33.509273],[-70.525067,-33.50945],[-70.525711,-33.509515],[-70.526084,-33.509603],[-70.526543,-33.509652],[-70.526914,-33.509631],[-70.527133,-33.50975],[-70.528145,-33.510053],[-70.528824,-33.51035],[-70.530027,-33.51065],[-70.530324,-33.510824],[-70.531007,-33.511073],[-70.531731,-33.511417],[-70.532279,-33.511517],[-70.53262,-33.511659],[-70.532948,-33.511722],[-70.533534,-33.512009],[-70.53387,-33.512086],[-70.5344,-33.512154],[-70.535431,-33.51248],[-70.53606,-33.512589],[-70.536482,-33.512772],[-70.536848,-33.512835],[-70.537507,-33.513196],[-70.538233,-33.51347],[-70.538933,-33.513653],[-70.539925,-33.51377],[-70.54063,-33.513927],[-70.541395,-33.514143],[-70.541506,-33.514319],[-70.54156,-33.514496],[-70.541708,-33.514644],[-70.541839,-33.51472],[-70.541835,-33.514746],[-70.542505,-33.514858],[-70.543498,-33.514842],[-70.544085,-33.514867],[-70.544381,-33.514839],[-70.545173,-33.514961],[-70.545889,-33.515132],[-70.546316,-33.515193],[-70.546934,-33.515397],[-70.547708,-33.515503],[-70.549004,-33.51586],[-70.549672,-33.515951],[-70.550317,-33.516161],[-70.550523,-33.516421],[-70.550861,-33.516637],[-70.552457,-33.517017],[-70.552906,-33.517182],[-70.553385,-33.517308],[-70.554268,-33.517434],[-70.554797,-33.51756],[-70.555596,-33.51782],[-70.555859,-33.518355],[-70.556273,-33.51887],[-70.55677,-33.519232],[-70.557258,-33.519454],[-70.557435,-33.519481],[-70.557676,-33.518527],[-70.557718,-33.517807],[-70.558068,-33.516822],[-70.558162,-33.516689],[-70.558447,-33.516404],[-70.55883,-33.516091],[-70.558669,-33.515858],[-70.558296,-33.515467],[-70.557861,-33.515157],[-70.557524,-33.514975],[-70.556904,-33.514728],[-70.555837,-33.514457],[-70.554343,-33.514254],[-70.554173,-33.514209],[-70.553818,-33.514045],[-70.553216,-33.513922],[-70.552932,-33.513826],[-70.552575,-33.513582],[-70.552216,-33.513403],[-70.55135,-33.513125],[-70.55091,-33.512944],[-70.550519,-33.51286],[-70.549802,-33.512772],[-70.548653,-33.512438],[-70.548308,-33.512365],[-70.54789,-33.512325],[-70.547572,-33.5122],[-70.547246,-33.512123],[-70.546647,-33.512039],[-70.546201,-33.511919],[-70.544696,-33.511667],[-70.544396,-33.511647],[-70.543935,-33.511703],[-70.543437,-33.511685],[-70.542837,-33.51171],[-70.542253,-33.511558],[-70.542233,-33.511529],[-70.541619,-33.511347],[-70.541102,-33.511251],[-70.540873,-33.511177],[-70.540445,-33.511094],[-70.539698,-33.511018],[-70.539263,-33.510905],[-70.538327,-33.510418],[-70.537964,-33.510264],[-70.537566,-33.510196],[-70.537122,-33.510011],[-70.536359,-33.509888],[-70.535449,-33.509583],[-70.534749,-33.509464],[-70.534208,-33.509169],[-70.533674,-33.509074],[-70.533365,-33.508946],[-70.532878,-33.508852],[-70.532334,-33.508605],[-70.531726,-33.508387],[-70.531459,-33.508337],[-70.531145,-33.508156],[-70.53087,-33.50805],[-70.530054,-33.507843],[-70.529438,-33.507573],[-70.528627,-33.507305],[-70.528013,-33.507176],[-70.527661,-33.507007],[-70.527042,-33.506912],[-70.526678,-33.506933],[-70.526152,-33.506833],[-70.525726,-33.5068],[-70.525227,-33.506696],[-70.524813,-33.506656],[-70.523825,-33.506629],[-70.521556,-33.505913],[-70.521034,-33.505662],[-70.520534,-33.505335],[-70.520517,-33.505064],[-70.520549,-33.504762],[-70.520674,-33.504365]]]},"properties":{"COMUNA":"PEÑALOLEN - LA FLORIDA","ART_III":"De Riesgo Geofísico Asociado a Remoción en Masa","SECTOR":"Área Montañosa - Quebrada de Macul"}}]}