{"type":"FeatureCollection","features":[{"type":"Feature","geometry":{"type":"Point","coordinates":[-70.592633,-33.507912]},"properties":{"sector":"Sanjon de la Aguada","causa_punt":"Inundación por desborde de cauce","nivel_de_riesgo_2022":"Medio"}},{"type":"Feature","geometry":{"type":"Point","coordinates":[-70.587836,-33.474507]},"properties":{"sector":"Rotonda Rodrigo de Araya / Av Libano","causa_punt":"Colapso colectores de aguas lluvia/alcantarillados","nivel_de_riesgo_2022":"Bajo"}},{"type":"Feature","geometry":{"type":"Point","coordinates":[-70.583228,-33.479045]},"properties":{"sector":"Ignacio Carrera Pinto / Av Ramon Cruz","causa_punt":"Colapso colectores de aguas lluvia/alcantarillados","nivel_de_riesgo_2022":"Bajo"}},{"type":"Feature","geometry":{"type":"Point","coordinates":[-70.590835,-33.499428]},"properties":{"sector":"Amador Neghne / San Vicente de Paul","causa_punt":"Colapso colectores de aguas lluvia/alcantarillados","nivel_de_riesgo_2022":"Bajo"}},{"type":"Feature","geometry":{"type":"Point","coordinates":[-70.596864,-33.498336]},"properties":{"sector":"Av Amador Neghme / Av Macul","causa_punt":"Colapso colectores de aguas lluvia/alcantarillados","nivel_de_riesgo_2022":"Bajo"}},{"type":"Feature","geometry":{"type":"Point","coordinates":[-70.59934,-33.485076]},"properties":{"sector":"Av Macul / Av Quilin","causa_punt":"Colapso colectores de aguas lluvia/alcantarillados","nivel_de_riesgo_2022":"Bajo"}},{"type":"Feature","geometry":{"type":"Point","coordinates":[-70.598798,-33.473747]},"properties":{"sector":"Av Macul / Av Rodrigo de Araya","causa_punt":"Colapso colectores de aguas lluvia/alcantarillados","nivel_de_riesgo_2022":"Bajo"}},{"type":"Feature","geometry":{"type":"Point","coordinates":[-70.600175,-33.498511]},"properties":{"sector":"Av Froilan Roa/ Peatones 5","causa_punt":"Colapso colectores de aguas lluvia/alcantarillados","nivel_de_riesgo_2022":"Bajo"}},{"type":"Feature","geometry":{"type":"Point","coordinates":[-70.600215,-33.497775]},"properties":{"sector":"Froilan Roa / Amador Neghme Rodriguez","causa_punt":"Daño/pérdida en infraestructura (Ej.: Vial, Portuario/Costero, Agrícola, otros)","nivel_de_riesgo_2022":"Bajo"}},{"type":"Feature","geometry":{"type":"Point","coordinates":[-70.611557,-33.490934]},"properties":{"sector":"Av Camilo Agricola / Av Marathon","causa_punt":"Colapso colectores de aguas lluvia/alcantarillados","nivel_de_riesgo_2022":"Medio"}},{"type":"Feature","geometry":{"type":"Point","coordinates":[-70.618436,-33.486665]},"properties":{"sector":"Av Vicuña Mackenna / Av Quilin","causa_punt":"Colapso colectores de aguas lluvia/alcantarillados","nivel_de_riesgo_2022":"Bajo"}},{"type":"Feature","geometry":{"type":"Point","coordinates":[-70.613487,-33.507807]},"properties":{"sector":"AV Vicuña Mackenna / Av Departamental","causa_punt":"Colapso colectores de aguas lluvia/alcantarillados","nivel_de_riesgo_2022":"Bajo"}},{"type":"Feature","geometry":{"type":"Point","coordinates":[-70.606677,-33.494776]},"properties":{"sector":"Av Carlos Casanuevas / Av Pedro de Valdivia","causa_punt":"Colapso colectores de aguas lluvia/alcantarillados","nivel_de_riesgo_2022":"Bajo"}},{"type":"Feature","geometry":{"type":"Point","coordinates":[-70.606918,-33.495514]},"properties":{"sector":"Av Carlos Casanueva/ Av Marathon","causa_punt":"Colapso colectores de aguas lluvia/alcantarillados","nivel_de_riesgo_2022":"Bajo"}},{"type":"Feature","geometry":{"type":"Point","coordinates":[-70.599768,-33.493195]},"properties":{"sector":"Av Macul / Victo Domingo Silva","causa_punt":"Colapso colectores de aguas lluvia/alcantarillados","nivel_de_riesgo_2022":"Bajo"}},{"type":"Feature","geometry":{"type":"Point","coordinates":[-70.606629,-33.497454]},"properties":{"sector":"Campus San Joaquín DICTUC","causa_punt":"Daño/pérdida en infraestructura (Ej.: Vial, Portuario/Costero, Agrícola, otros)","nivel_de_riesgo_2022":"Alto"}},{"type":"Feature","geometry":{"type":"Point","coordinates":[-70.604494,-33.493199]},"properties":{"sector":"Via Láctea / La Constelaciones","causa_punt":"Colapso colectores de aguas lluvia/alcantarillados","nivel_de_riesgo_2022":"Bajo"}},{"type":"Feature","geometry":{"type":"Point","coordinates":[-70.592236,-33.475189]},"properties":{"sector":"Calle Santa Julia/ Calle Mayor Abe","causa_punt":"Colapso colectores de aguas lluvia/alcantarillados","nivel_de_riesgo_2022":"Bajo"}},{"type":"Feature","geometry":{"type":"Point","coordinates":[-70.600451,-33.501071]},"properties":{"sector":"Av Froilan Roa / Camino La Aguada","causa_punt":"Colapso colectores de aguas lluvia/alcantarillados","nivel_de_riesgo_2022":"Bajo"}},{"type":"Feature","geometry":{"type":"Point","coordinates":[-70.606407,-33.490559]},"properties":{"sector":"Av Camilo Agricola / Av Pedro de Valdivia","causa_punt":"Colapso colectores de aguas lluvia/alcantarillados","nivel_de_riesgo_2022":"Bajo"}},{"type":"Feature","geometry":{"type":"Point","coordinates":[-70.609256,-33.484935]},"properties":{"sector":"Av Quilin / Calle Castillo Urizar","causa_punt":"Daño/pérdida en infraestructura (Ej.: Vial, Portuario/Costero, Agrícola, otros)","nivel_de_riesgo_2022":"Medio"}},{"type":"Feature","geometry":{"type":"Point","coordinates":[-70.596521,-33.476225]},"properties":{"sector":"Calle Poconchile/Pasaje Brown Sur","causa_punt":"Colapso colectores de aguas lluvia/alcantarillados","nivel_de_riesgo_2022":"Medio"}},{"type":"Feature","geometry":{"type":"Point","coordinates":[-70.593025,-33.501122]},"properties":{"sector":"Av Libano / Av Macul","causa_punt":"Daño/pérdida en infraestructura (Ej.: Vial, Portuario/Costero, Agrícola, otros)","nivel_de_riesgo_2022":"Bajo"}},{"type":"Feature","geometry":{"type":"Point","coordinates":[-70.589445,-33.499819]},"properties":{"sector":"Av Amador Neghme Rodriguez/ Juan Jofre","causa_punt":"Daño/pérdida en infraestructura (Ej.: Vial, Portuario/Costero, Agrícola, otros)","nivel_de_riesgo_2022":"Bajo"}},{"type":"Feature","geometry":{"type":"Point","coordinates":[-70.592535,-33.499229]},"properties":{"sector":"Av Macul / Av Amador Neghme Rodriguez","causa_punt":"Daño/pérdida en infraestructura (Ej.: Vial, Portuario/Costero, Agrícola, otros)","nivel_de_riesgo_2022":"Bajo"}},{"type":"Feature","geometry":{"type":"Point","coordinates":[-70.613672,-33.490593]},"properties":{"sector":"Villa La Arboleda/ Calle las lengas","causa_punt":"Colapso colectores de aguas lluvia/alcantarillados","nivel_de_riesgo_2022":"Medio"}},{"type":"Feature","geometry":{"type":"Point","coordinates":[-70.612374,-33.489716]},"properties":{"sector":"Villa Casas de ñuñoa/ Calle Los Copihues","causa_punt":"Colapso colectores de aguas lluvia/alcantarillados","nivel_de_riesgo_2022":"Medio"}},{"type":"Feature","geometry":{"type":"Point","coordinates":[-70.62297,-33.474994]},"properties":{"sector":"Av Rodrigo de Araya / Av Vicuña Mackenna","causa_punt":"Colapso colectores de aguas lluvia/alcantarillados","nivel_de_riesgo_2022":"Bajo"}},{"type":"Feature","geometry":{"type":"Point","coordinates":[-70.611577,-33.491811]},"properties":{"sector":"BIMASUR / Av La Aguada","causa_punt":"Colapso colectores de aguas lluvia/alcantarillados","nivel_de_riesgo_2022":"Bajo"}},{"type":"Feature","geometry":{"type":"Point","coordinates":[-70.589763,-33.486305]},"properties":{"sector":"Av Libano / Av Quilin","causa_punt":"Colapso colectores de aguas lluvia/alcantarillados","nivel_de_riesgo_2022":"Bajo"}},{"type":"Feature","geometry":{"type":"Point","coordinates":[-70.588469,-33.486456]},"properties":{"sector":"Calle Iran / Av Quilin","causa_punt":"Colapso colectores de aguas lluvia/alcantarillados","nivel_de_riesgo_2022":"Bajo"}}]}