{"type":"FeatureCollection","features":[{"type":"Feature","properties":{"CUT_COM":"13303","COMUNA":"Tiltil"},"geometry":{"type":"Polygon","coordinates":[[[-70.73578,-32.92209],[-70.73499,-32.92322],[-70.73442,-32.92365],[-70.73204,-32.92477],[-70.73106,-32.92547],[-70.73017,-32.92532],[-70.72767,-32.9257],[-70.72661,-32.92563],[-70.72481,-32.92616],[-70.72186,-32.92603],[-70.72174,-32.92677],[-70.72186,-32.93001],[-70.72244,-32.93087],[-70.72286,-32.93191],[-70.72282,-32.93283],[-70.72175,-32.93386],[-70.72148,-32.93509],[-70.72133,-32.9378],[-70.72045,-32.94103],[-70.71967,-32.94191],[-70.71967,-32.94262],[-70.72009,-32.94439],[-70.72066,-32.94853],[-70.7212,-32.94973],[-70.72058,-32.95069],[-70.72019,-32.95186],[-70.72329,-32.95389],[-70.72442,-32.9549],[-70.72532,-32.95649],[-70.72811,-32.95883],[-70.72946,-32.9605],[-70.73023,-32.96091],[-70.73114,-32.96091],[-70.73317,-32.9615],[-70.73395,-32.96195],[-70.73833,-32.9658],[-70.74076,-32.96649],[-70.74304,-32.96652],[-70.7443,-32.96634],[-70.74587,-32.96651],[-70.74703,-32.96675],[-70.74807,-32.96726],[-70.75213,-32.97086],[-70.75326,-32.97358],[-70.75486,-32.97463],[-70.75681,-32.97531],[-70.76003,-32.97764],[-70.76067,-32.97855],[-70.76118,-32.97998],[-70.76173,-32.98054],[-70.76535,-32.98094],[-70.76707,-32.98141],[-70.76941,-32.98256],[-70.77055,-32.98354],[-70.76966,-32.98466],[-70.76787,-32.98597],[-70.76428,-32.98758],[-70.76241,-32.98889],[-70.76129,-32.99106],[-70.76112,-32.99184],[-70.76131,-32.99381],[-70.76104,-32.99422],[-70.75973,-32.99516],[-70.75932,-32.99584],[-70.75903,-32.99686],[-70.75905,-32.99814],[-70.76012,-33.0019],[-70.75993,-33.00293],[-70.75803,-33.00518],[-70.7574,-33.00559],[-70.75613,-33.00594],[-70.75513,-33.00657],[-70.75445,-33.00745],[-70.75353,-33.00823],[-70.75336,-33.00866],[-70.75335,-33.00977],[-70.75275,-33.01076],[-70.75192,-33.0114],[-70.75066,-33.01187],[-70.75054,-33.0122],[-70.75103,-33.01304],[-70.75209,-33.01398],[-70.75389,-33.01604],[-70.75507,-33.01852],[-70.75583,-33.02081],[-70.7557,-33.02135],[-70.75497,-33.02253],[-70.75244,-33.02466],[-70.7531,-33.02696],[-70.75404,-33.02742],[-70.75477,-33.02817],[-70.75574,-33.03055],[-70.75683,-33.03219],[-70.7576,-33.03265],[-70.75828,-33.03363],[-70.76079,-33.03554],[-70.76122,-33.03594],[-70.76136,-33.03639],[-70.7612,-33.03723],[-70.75997,-33.03841],[-70.75922,-33.03963],[-70.75899,-33.04125],[-70.75805,-33.04287],[-70.75814,-33.04359],[-70.75882,-33.04496],[-70.75962,-33.04594],[-70.76258,-33.04808],[-70.76401,-33.04866],[-70.76528,-33.04986],[-70.7664,-33.0542],[-70.76699,-33.05575],[-70.76621,-33.05613],[-70.76334,-33.05857],[-70.76198,-33.05943],[-70.75783,-33.0618],[-70.75377,-33.06341],[-70.75302,-33.06394],[-70.75055,-33.06687],[-70.74934,-33.06729],[-70.74648,-33.06926],[-70.74612,-33.0696],[-70.74608,-33.06996],[-70.74669,-33.0723],[-70.74735,-33.07364],[-70.74721,-33.07558],[-70.74762,-33.07703],[-70.74793,-33.07749],[-70.74807,-33.07851],[-70.74782,-33.07971],[-70.74826,-33.08156],[-70.74919,-33.08276],[-70.75096,-33.086],[-70.75134,-33.0878],[-70.75212,-33.08934],[-70.7533,-33.09075],[-70.75409,-33.09205],[-70.75507,-33.09455],[-70.7559,-33.09611],[-70.75738,-33.09826],[-70.75727,-33.09862],[-70.7577,-33.09947],[-70.76013,-33.10312],[-70.75724,-33.10658],[-70.75697,-33.10759],[-70.757,-33.10922],[-70.75649,-33.11095],[-70.75607,-33.11197],[-70.75562,-33.11247],[-70.75507,-33.11355],[-70.75342,-33.11758],[-70.75468,-33.12103],[-70.75523,-33.12186],[-70.75651,-33.12282],[-70.75719,-33.12455],[-70.75725,-33.1251],[-70.75623,-33.1283],[-70.75597,-33.12871],[-70.75497,-33.12946],[-70.7546,-33.13001],[-70.75355,-33.13259],[-70.7535,-33.13441],[-70.75439,-33.13533],[-70.75593,-33.1361],[-70.75774,-33.13752],[-70.75595,-33.13845],[-70.75478,-33.13868],[-70.75417,-33.13912],[-70.75349,-33.14034],[-70.75341,-33.1408],[-70.75383,-33.14215],[-70.7526,-33.14247],[-70.75123,-33.14252],[-70.75059,-33.14273],[-70.74897,-33.14383],[-70.74425,-33.14513],[-70.74392,-33.14544],[-70.74359,-33.14747],[-70.74304,-33.14816],[-70.74213,-33.14876],[-70.74192,-33.14931],[-70.74211,-33.15109],[-70.74206,-33.15223],[-70.74054,-33.15401],[-70.74019,-33.15538],[-70.73952,-33.15605],[-70.73933,-33.15648],[-70.73934,-33.1575],[-70.73905,-33.15862],[-70.73762,-33.1598],[-70.73705,-33.16004],[-70.73582,-33.16004],[-70.73513,-33.16016],[-70.73454,-33.16047],[-70.73399,-33.1613],[-70.7338,-33.16306],[-70.73402,-33.16465],[-70.73374,-33.16562],[-70.73523,-33.16605],[-70.73583,-33.16667],[-70.73836,-33.16838],[-70.74005,-33.16906],[-70.74166,-33.16932],[-70.7432,-33.16918],[-70.7446,-33.16928],[-70.74527,-33.17021],[-70.74543,-33.17141],[-70.7457,-33.17184],[-70.74653,-33.17227],[-70.74734,-33.17246],[-70.749,-33.17345],[-70.75152,-33.17452],[-70.75261,-33.17553],[-70.753,-33.17664],[-70.75332,-33.17698],[-70.7557,-33.17915],[-70.75678,-33.17983],[-70.75767,-33.17977],[-70.75855,-33.17905],[-70.75941,-33.17896],[-70.76027,-33.17898],[-70.76121,-33.1793],[-70.76308,-33.17962],[-70.765,-33.17934],[-70.76546,-33.17915],[-70.76633,-33.17802],[-70.76768,-33.17712],[-70.76787,-33.17662],[-70.76835,-33.1761],[-70.76995,-33.17529],[-70.77109,-33.17512],[-70.77238,-33.17528],[-70.77381,-33.17584],[-70.77506,-33.17582],[-70.77573,-33.17543],[-70.77733,-33.17376],[-70.7795,-33.17352],[-70.78314,-33.17233],[-70.78495,-33.17234],[-70.78597,-33.17202],[-70.78707,-33.17195],[-70.78977,-33.17276],[-70.79132,-33.17355],[-70.79595,-33.17057],[-70.79769,-33.17012],[-70.79925,-33.16993],[-70.80043,-33.17031],[-70.80178,-33.17196],[-70.80267,-33.1723],[-70.80428,-33.17264],[-70.80694,-33.17255],[-70.80788,-33.17281],[-70.80893,-33.17323],[-70.81084,-33.17458],[-70.81811,-33.1764],[-70.81882,-33.17675],[-70.82153,-33.17892],[-70.82359,-33.18283],[-70.82492,-33.1843],[-70.82585,-33.18481],[-70.82808,-33.18369],[-70.83043,-33.18199],[-70.8313,-33.18167],[-70.83291,-33.18153],[-70.83734,-33.18058],[-70.83803,-33.18067],[-70.83928,-33.18116],[-70.84228,-33.18138],[-70.85189,-33.18105],[-70.85673,-33.18136],[-70.85743,-33.18159],[-70.85782,-33.18221],[-70.85751,-33.18245],[-70.85541,-33.18268],[-70.85324,-33.18338],[-70.85223,-33.18412],[-70.85149,-33.18532],[-70.85127,-33.18589],[-70.85135,-33.18668],[-70.85114,-33.18802],[-70.85054,-33.18897],[-70.84971,-33.19143],[-70.84969,-33.1929],[-70.84911,-33.19484],[-70.84905,-33.19751],[-70.84924,-33.19796],[-70.85206,-33.2001],[-70.85343,-33.20172],[-70.85607,-33.20389],[-70.85692,-33.2049],[-70.85977,-33.2123],[-70.86039,-33.21426],[-70.86221,-33.21666],[-70.8625,-33.21894],[-70.86335,-33.22083],[-70.86421,-33.22231],[-70.86491,-33.22316],[-70.866,-33.22399],[-70.86687,-33.22574],[-70.86853,-33.22623],[-70.87227,-33.22674],[-70.87487,-33.22748],[-70.87535,-33.22745],[-70.87656,-33.22689],[-70.87755,-33.22664],[-70.87904,-33.22664],[-70.88091,-33.22735],[-70.88174,-33.22801],[-70.8824,-33.22806],[-70.88275,-33.22768],[-70.88379,-33.22568],[-70.88412,-33.22539],[-70.88616,-33.22389],[-70.88657,-33.22366],[-70.88755,-33.22348],[-70.88788,-33.22323],[-70.88669,-33.22285],[-70.88596,-33.22227],[-70.88566,-33.21962],[-70.88571,-33.2177],[-70.88528,-33.21578],[-70.8853,-33.21489],[-70.88558,-33.21441],[-70.88609,-33.21396],[-70.8875,-33.21328],[-70.88788,-33.21277],[-70.88836,-33.21247],[-70.8918,-33.21216],[-70.8938,-33.21144],[-70.89453,-33.21102],[-70.89433,-33.21009],[-70.89317,-33.20746],[-70.89216,-33.20578],[-70.89171,-33.20412],[-70.89161,-33.2016],[-70.89061,-33.20011],[-70.89011,-33.19818],[-70.89008,-33.18507],[-70.8899,-33.18467],[-70.89026,-33.18382],[-70.89106,-33.18264],[-70.89267,-33.18089],[-70.896,-33.18124],[-70.89775,-33.18161],[-70.90016,-33.18099],[-70.90573,-33.18111],[-70.90782,-33.18138],[-70.91185,-33.18283],[-70.91416,-33.18335],[-70.91645,-33.18411],[-70.91835,-33.1849],[-70.92135,-33.18502],[-70.92713,-33.18658],[-70.93005,-33.18666],[-70.93109,-33.18611],[-70.93266,-33.18398],[-70.93478,-33.18161],[-70.93789,-33.1793],[-70.93928,-33.17738],[-70.94178,-33.17549],[-70.94707,-33.17345],[-70.95242,-33.17246],[-70.95373,-33.17236],[-70.95581,-33.17483],[-70.95684,-33.17573],[-70.95756,-33.1761],[-70.95972,-33.17657],[-70.96323,-33.17771],[-70.96472,-33.17781],[-70.96742,-33.17757],[-70.96837,-33.17688],[-70.96906,-33.17592],[-70.97025,-33.17523],[-70.9716,-33.17475],[-70.97469,-33.17304],[-70.97536,-33.173],[-70.9774,-33.1735],[-70.97829,-33.1735],[-70.97926,-33.17328],[-70.98144,-33.17238],[-70.98268,-33.17256],[-70.98325,-33.1728],[-70.98354,-33.17315],[-70.98396,-33.17443],[-70.98527,-33.17698],[-70.98536,-33.17738],[-70.98521,-33.17954],[-70.98595,-33.18053],[-70.9879,-33.18159],[-70.98925,-33.18185],[-70.99119,-33.18121],[-70.9938,-33.17977],[-70.99319,-33.17934],[-70.99246,-33.17947],[-70.99142,-33.17917],[-70.99001,-33.17829],[-70.98967,-33.17787],[-70.98952,-33.17739],[-70.98965,-33.17674],[-70.99056,-33.17575],[-70.99311,-33.17415],[-70.99468,-33.17265],[-70.99476,-33.17105],[-70.99518,-33.16979],[-70.99837,-33.16529],[-71.00101,-33.16219],[-71.00193,-33.16142],[-71.00402,-33.159],[-71.005,-33.15627],[-71.00466,-33.15447],[-71.00472,-33.15384],[-71.00519,-33.1537],[-71.00602,-33.15379],[-71.00752,-33.15468],[-71.00849,-33.15481],[-71.00964,-33.15453],[-71.01053,-33.15412],[-71.01106,-33.15358],[-71.01154,-33.15279],[-71.01164,-33.14888],[-71.01202,-33.14769],[-71.01216,-33.14404],[-71.01325,-33.14238],[-71.0133,-33.14178],[-71.01323,-33.1409],[-71.01234,-33.13889],[-71.01256,-33.13635],[-71.01251,-33.13354],[-71.0131,-33.13038],[-71.01465,-33.12838],[-71.01499,-33.12704],[-71.01572,-33.12552],[-71.01684,-33.1223],[-71.01819,-33.1209],[-71.01927,-33.12003],[-71.01989,-33.11685],[-71.01959,-33.11296],[-71.02,-33.11136],[-71.01993,-33.10918],[-71.01858,-33.10497],[-71.01677,-33.10093],[-71.01627,-33.09895],[-71.01495,-33.09619],[-71.01487,-33.09553],[-71.01548,-33.09473],[-71.0183,-33.09202],[-71.01935,-33.09059],[-71.0208,-33.08973],[-71.02467,-33.08672],[-71.02588,-33.08602],[-71.02834,-33.08496],[-71.02929,-33.08434],[-71.02946,-33.08406],[-71.02947,-33.08371],[-71.02924,-33.08346],[-71.02861,-33.08329],[-71.02747,-33.08252],[-71.02686,-33.08102],[-71.02634,-33.07893],[-71.02597,-33.07825],[-71.02404,-33.07709],[-71.02309,-33.0763],[-71.02121,-33.07563],[-71.02043,-33.07516],[-71.01881,-33.07394],[-71.01833,-33.07336],[-71.01786,-33.07264],[-71.01779,-33.07139],[-71.01796,-33.07063],[-71.01786,-33.07024],[-71.0177,-33.06984],[-71.01691,-33.069],[-71.01614,-33.06851],[-71.01464,-33.0671],[-71.01333,-33.0664],[-71.01251,-33.06529],[-71.01146,-33.06479],[-71.01013,-33.0651],[-71.00918,-33.06508],[-71.00874,-33.06467],[-71.00871,-33.06423],[-71.00936,-33.06332],[-71.00985,-33.06162],[-71.00989,-33.06068],[-71.01027,-33.05964],[-71.01023,-33.05935],[-71.00829,-33.05747],[-71.00803,-33.05689],[-71.00762,-33.05295],[-71.00688,-33.0521],[-71.00574,-33.05186],[-71.00503,-33.0519],[-71.0026,-33.05126],[-71.00177,-33.05063],[-71.00139,-33.04936],[-71.0014,-33.04785],[-71.00178,-33.04707],[-71.00326,-33.04622],[-71.00463,-33.04561],[-71.00638,-33.04514],[-71.00681,-33.04483],[-71.00749,-33.04409],[-71.00823,-33.0419],[-71.00882,-33.04123],[-71.01266,-33.03851],[-71.01387,-33.03707],[-71.01458,-33.03391],[-71.01455,-33.03206],[-71.01481,-33.03107],[-71.01576,-33.02869],[-71.01672,-33.02773],[-71.01745,-33.02482],[-71.01963,-33.0211],[-71.01992,-33.01912],[-71.01962,-33.01728],[-71.01954,-33.01347],[-71.0197,-33.01211],[-71.02118,-33.00991],[-71.02305,-33.00814],[-71.02608,-33.00612],[-71.02659,-33.00525],[-71.02656,-33.00108],[-71.02689,-32.99838],[-71.02727,-32.997],[-71.0271,-32.99496],[-71.02651,-32.99326],[-71.02692,-32.98942],[-71.02713,-32.98864],[-71.02556,-32.98757],[-71.02466,-32.98632],[-71.02249,-32.98488],[-71.02186,-32.98379],[-71.02181,-32.98288],[-71.02137,-32.98206],[-71.02097,-32.98166],[-71.01945,-32.98096],[-71.01913,-32.98061],[-71.01897,-32.97947],[-71.01806,-32.97867],[-71.01633,-32.97668],[-71.0149,-32.976],[-71.01307,-32.97641],[-71.00567,-32.97597],[-71.0025,-32.97565],[-71.00114,-32.97536],[-70.99879,-32.97541],[-70.99718,-32.97652],[-70.99537,-32.97685],[-70.99277,-32.97702],[-70.99055,-32.97785],[-70.98797,-32.9785],[-70.98688,-32.97906],[-70.98651,-32.98012],[-70.98603,-32.97984],[-70.9854,-32.97859],[-70.98458,-32.9778],[-70.9836,-32.97706],[-70.98075,-32.97576],[-70.97957,-32.97579],[-70.97827,-32.97618],[-70.97363,-32.97635],[-70.97155,-32.97598],[-70.96818,-32.97493],[-70.967,-32.97432],[-70.96266,-32.97261],[-70.95862,-32.97008],[-70.95771,-32.96981],[-70.95727,-32.96952],[-70.95498,-32.96701],[-70.95345,-32.96564],[-70.95268,-32.96594],[-70.94963,-32.96834],[-70.94758,-32.97085],[-70.94707,-32.97183],[-70.94626,-32.97233],[-70.94397,-32.97242],[-70.94094,-32.97295],[-70.93947,-32.97295],[-70.93888,-32.9728],[-70.93783,-32.97225],[-70.93721,-32.97161],[-70.93617,-32.97097],[-70.93362,-32.9699],[-70.93238,-32.96916],[-70.92984,-32.96841],[-70.92866,-32.96751],[-70.92575,-32.96348],[-70.92533,-32.96146],[-70.92435,-32.95958],[-70.92317,-32.95645],[-70.92178,-32.95488],[-70.92093,-32.95285],[-70.92014,-32.95164],[-70.91964,-32.95052],[-70.91898,-32.94963],[-70.91727,-32.94805],[-70.91614,-32.94662],[-70.91596,-32.94605],[-70.91587,-32.94457],[-70.91377,-32.94506],[-70.91145,-32.94509],[-70.90984,-32.94492],[-70.90872,-32.94428],[-70.90829,-32.94366],[-70.90796,-32.94298],[-70.9072,-32.93648],[-70.90693,-32.93608],[-70.90595,-32.93566],[-70.90064,-32.9353],[-70.8981,-32.93466],[-70.89701,-32.93401],[-70.89654,-32.93337],[-70.89639,-32.93286],[-70.89603,-32.93259],[-70.89541,-32.93257],[-70.8952,-32.93294],[-70.89502,-32.93429],[-70.89442,-32.93477],[-70.8929,-32.93532],[-70.889,-32.9376],[-70.88823,-32.93823],[-70.88695,-32.93852],[-70.8854,-32.93844],[-70.88316,-32.93687],[-70.88012,-32.93602],[-70.878,-32.93498],[-70.8776,-32.93436],[-70.87147,-32.93096],[-70.87046,-32.93094],[-70.86821,-32.93206],[-70.86693,-32.93223],[-70.86583,-32.93208],[-70.86516,-32.93179],[-70.8645,-32.93197],[-70.86346,-32.93191],[-70.86204,-32.93005],[-70.85697,-32.92992],[-70.85362,-32.92899],[-70.84861,-32.92728],[-70.84173,-32.92241],[-70.84093,-32.92251],[-70.84051,-32.92278],[-70.84001,-32.92364],[-70.83797,-32.92606],[-70.834,-32.92773],[-70.8329,-32.92794],[-70.83209,-32.92778],[-70.83029,-32.92775],[-70.82565,-32.92782],[-70.82284,-32.92828],[-70.81833,-32.92981],[-70.81699,-32.93055],[-70.81614,-32.93073],[-70.81168,-32.93036],[-70.81098,-32.92951],[-70.81062,-32.92871],[-70.8097,-32.928],[-70.80851,-32.9275],[-70.80701,-32.92582],[-70.80538,-32.92552],[-70.80492,-32.92524],[-70.80327,-32.92476],[-70.80213,-32.9247],[-70.80053,-32.9255],[-70.79966,-32.92561],[-70.79465,-32.9255],[-70.79383,-32.92581],[-70.79351,-32.92612],[-70.79358,-32.92797],[-70.79337,-32.92857],[-70.7927,-32.92915],[-70.78957,-32.9301],[-70.78603,-32.92891],[-70.78482,-32.92877],[-70.78228,-32.92923],[-70.78042,-32.92997],[-70.77973,-32.9306],[-70.77935,-32.93149],[-70.77832,-32.93307],[-70.77743,-32.93367],[-70.77582,-32.93398],[-70.77486,-32.93433],[-70.77353,-32.93522],[-70.77157,-32.93573],[-70.76825,-32.93514],[-70.7637,-32.93208],[-70.76277,-32.93024],[-70.76133,-32.9293],[-70.76066,-32.92921],[-70.76025,-32.92946],[-70.75845,-32.92969],[-70.75678,-32.93017],[-70.75587,-32.92985],[-70.75337,-32.92846],[-70.75022,-32.92839],[-70.74882,-32.92898],[-70.74806,-32.92911],[-70.74472,-32.92736],[-70.74299,-32.92588],[-70.74226,-32.92459],[-70.74133,-32.9243],[-70.73902,-32.92417],[-70.73756,-32.92264],[-70.736,-32.92192],[-70.73578,-32.92209]]]}}]}