{"type":"FeatureCollection","features":[{"type":"Feature","geometry":{"type":"Point","coordinates":[-70.600046,-33.562193]},"properties":{"sector":"Santa Raquel con Maria Elena","causa_punt":"Anegamiento de caminos/pasos a desnivel","nivel_de_riesgo_2022":"Muy Alto"}},{"type":"Feature","geometry":{"type":"Point","coordinates":[-70.601113,-33.558675]},"properties":{"sector":"Santa Raquel con General Arriagada","causa_punt":"Anegamiento de caminos/pasos a desnivel","nivel_de_riesgo_2022":"Muy Alto"}},{"type":"Feature","geometry":{"type":"Point","coordinates":[-70.601756,-33.553921]},"properties":{"sector":"Santa Raquel con San Jose de La Estrella","causa_punt":"Anegamiento de caminos/pasos a desnivel","nivel_de_riesgo_2022":"Muy Alto"}},{"type":"Feature","geometry":{"type":"Point","coordinates":[-70.603422,-33.539182]},"properties":{"sector":"Santa Raquel con Sotero del Rio","causa_punt":"Anegamiento de caminos/pasos a desnivel","nivel_de_riesgo_2022":"Muy Alto"}},{"type":"Feature","geometry":{"type":"Point","coordinates":[-70.60336,-33.535478]},"properties":{"sector":"Santa Raquel con Rojas Magallanes","causa_punt":"Anegamiento de caminos/pasos a desnivel","nivel_de_riesgo_2022":"Muy Alto"}},{"type":"Feature","geometry":{"type":"Point","coordinates":[-70.570659,-33.561277]},"properties":{"sector":"Diego Portales con Nuevo Continente","causa_punt":"Anegamiento de caminos/pasos a desnivel","nivel_de_riesgo_2022":"Muy Alto"}},{"type":"Feature","geometry":{"type":"Point","coordinates":[-70.575307,-33.562089]},"properties":{"sector":"Diego Portales con Santa Cecilia","causa_punt":"Colapso colectores de aguas lluvia/alcantarillados","nivel_de_riesgo_2022":"Muy Alto"}},{"type":"Feature","geometry":{"type":"Point","coordinates":[-70.548313,-33.513492]},"properties":{"sector":"Baden Las Perdices","causa_punt":"Flujos de barro/detritos (Aluvión)","nivel_de_riesgo_2022":"Muy Alto"}},{"type":"Feature","geometry":{"type":"Point","coordinates":[-70.507748,-33.500583]},"properties":{"sector":"Quebrada 0-11 de Macul","causa_punt":"Activación de quebradas","nivel_de_riesgo_2022":"Muy Alto"}},{"type":"Feature","geometry":{"type":"Point","coordinates":[-70.531692,-33.533994]},"properties":{"sector":"Quebrada 0-7 Sin Nombre","causa_punt":"Activación de quebradas","nivel_de_riesgo_2022":"Muy Alto"}},{"type":"Feature","geometry":{"type":"Point","coordinates":[-70.580389,-33.562978]},"properties":{"sector":"German Riesco con Diego Portales","causa_punt":"Anegamiento de caminos/pasos a desnivel","nivel_de_riesgo_2022":"Alto"}},{"type":"Feature","geometry":{"type":"Point","coordinates":[-70.59719,-33.514591]},"properties":{"sector":"El Ulmo(Hospital La Florida )+BB31:B45","causa_punt":"Anegamiento de caminos/pasos a desnivel","nivel_de_riesgo_2022":"Alto"}},{"type":"Feature","geometry":{"type":"Point","coordinates":[-70.598487,-33.514759]},"properties":{"sector":"El Canelo (Hospital La Florida)","causa_punt":"Anegamiento de caminos/pasos a desnivel","nivel_de_riesgo_2022":"Alto"}},{"type":"Feature","geometry":{"type":"Point","coordinates":[-70.578646,-33.562617]},"properties":{"sector":"Los Olmos con Diego Portales","causa_punt":"Anegamiento de caminos/pasos a desnivel","nivel_de_riesgo_2022":"Alto"}},{"type":"Feature","geometry":{"type":"Point","coordinates":[-70.579198,-33.562713]},"properties":{"sector":"Las Paulonias con Diego Portales","causa_punt":"Anegamiento de caminos/pasos a desnivel","nivel_de_riesgo_2022":"Alto"}},{"type":"Feature","geometry":{"type":"Point","coordinates":[-70.583868,-33.513765]},"properties":{"sector":"Reina luisa con el Parque","causa_punt":"Anegamiento de caminos/pasos a desnivel","nivel_de_riesgo_2022":"Alto"}},{"type":"Feature","geometry":{"type":"Point","coordinates":[-70.555464,-33.535906]},"properties":{"sector":"Santa Victoria Esquina Rojas Magallanes","causa_punt":"Anegamiento de caminos/pasos a desnivel","nivel_de_riesgo_2022":"Alto"}},{"type":"Feature","geometry":{"type":"Point","coordinates":[-70.581115,-33.562663]},"properties":{"sector":"Portugal con Diego Portales","causa_punt":"Anegamiento de caminos/pasos a desnivel","nivel_de_riesgo_2022":"Alto"}},{"type":"Feature","geometry":{"type":"Point","coordinates":[-70.568023,-33.532046]},"properties":{"sector":"La LLanura con  Santa Julia","causa_punt":"Anegamiento de caminos/pasos a desnivel","nivel_de_riesgo_2022":"Alto"}},{"type":"Feature","geometry":{"type":"Point","coordinates":[-70.564569,-33.560154]},"properties":{"sector":"Pasaje Mar con Diego Portales","causa_punt":"Anegamiento de caminos/pasos a desnivel","nivel_de_riesgo_2022":"Alto"}},{"type":"Feature","geometry":{"type":"Point","coordinates":[-70.608147,-33.546747]},"properties":{"sector":"Avenida Trinidad con Avenida Uno","causa_punt":"Anegamiento de caminos/pasos a desnivel","nivel_de_riesgo_2022":"Alto"}},{"type":"Feature","geometry":{"type":"Point","coordinates":[-70.577159,-33.562362]},"properties":{"sector":"Jose Gandarillas con Diego Portales","causa_punt":"Anegamiento de caminos/pasos a desnivel","nivel_de_riesgo_2022":"Alto"}},{"type":"Feature","geometry":{"type":"Point","coordinates":[-70.563752,-33.55995]},"properties":{"sector":"Delia Oriente con Diego Portales","causa_punt":"Anegamiento de caminos/pasos a desnivel","nivel_de_riesgo_2022":"Alto"}},{"type":"Feature","geometry":{"type":"Point","coordinates":[-70.571448,-33.561383]},"properties":{"sector":"Calle Nueva con Diego Portales","causa_punt":"Anegamiento de caminos/pasos a desnivel","nivel_de_riesgo_2022":"Alto"}},{"type":"Feature","geometry":{"type":"Point","coordinates":[-70.557171,-33.514906]},"properties":{"sector":"Campamento Quebrada de Macul 2","causa_punt":"Activación de quebradas","nivel_de_riesgo_2022":"Muy Alto"}},{"type":"Feature","geometry":{"type":"Point","coordinates":[-70.581881,-33.563212]},"properties":{"sector":"Maestranza con Diego Portales","causa_punt":"Anegamiento de caminos/pasos a desnivel","nivel_de_riesgo_2022":"Alto"}},{"type":"Feature","geometry":{"type":"Point","coordinates":[-70.552811,-33.546392]},"properties":{"sector":"Campamento Central Hidroelectrica","causa_punt":"Anegamiento de caminos/pasos a desnivel","nivel_de_riesgo_2022":"Muy Alto"}},{"type":"Feature","geometry":{"type":"Point","coordinates":[-70.551748,-33.513228]},"properties":{"sector":"Campamento Santa Luisa 2","causa_punt":"Activación de quebradas","nivel_de_riesgo_2022":"Muy Alto"}},{"type":"Feature","geometry":{"type":"Point","coordinates":[-70.550256,-33.512767]},"properties":{"sector":"Campamento Santa Luisa","causa_punt":"Activación de quebradas","nivel_de_riesgo_2022":"Muy Alto"}},{"type":"Feature","geometry":{"type":"Point","coordinates":[-70.597096,-33.525104]},"properties":{"sector":"El Descanso con Vicuña Mackenna Oriente","causa_punt":"Anegamiento de caminos/pasos a desnivel","nivel_de_riesgo_2022":"Alto"}},{"type":"Feature","geometry":{"type":"Point","coordinates":[-70.570596,-33.56141]},"properties":{"sector":"Nuevo Continente con Diego Portales","causa_punt":"Anegamiento de caminos/pasos a desnivel","nivel_de_riesgo_2022":"Alto"}},{"type":"Feature","geometry":{"type":"Point","coordinates":[-70.554236,-33.514604]},"properties":{"sector":"Campamento Dignidad","causa_punt":"Activación de quebradas","nivel_de_riesgo_2022":"Muy Alto"}},{"type":"Feature","geometry":{"type":"Point","coordinates":[-70.529061,-33.51154]},"properties":{"sector":"Camino del paisaje   6447","causa_punt":"Anegamiento de caminos/pasos a desnivel","nivel_de_riesgo_2022":"Alto"}},{"type":"Feature","geometry":{"type":"Point","coordinates":[-70.520073,-33.514205]},"properties":{"sector":"Quebrada 0-10 Las Perdices","causa_punt":"Activación de quebradas","nivel_de_riesgo_2022":"Muy Alto"}},{"type":"Feature","geometry":{"type":"Point","coordinates":[-70.594074,-33.514822]},"properties":{"sector":"Lago villarrica esquina el Parque","causa_punt":"Anegamiento de caminos/pasos a desnivel","nivel_de_riesgo_2022":"Alto"}},{"type":"Feature","geometry":{"type":"Point","coordinates":[-70.578669,-33.522627]},"properties":{"sector":"Paso Bajo Nivel Walker Martinez","causa_punt":"Anegamiento de caminos/pasos a desnivel","nivel_de_riesgo_2022":"Muy Alto"}},{"type":"Feature","geometry":{"type":"Point","coordinates":[-70.578433,-33.522546]},"properties":{"sector":"Avenida la Florida con Walker Martinez","causa_punt":"Anegamiento de caminos/pasos a desnivel","nivel_de_riesgo_2022":"Muy Alto"}},{"type":"Feature","geometry":{"type":"Point","coordinates":[-70.575776,-33.522485]},"properties":{"sector":"Santa Delia con Walker Martinez","causa_punt":"Anegamiento de caminos/pasos a desnivel","nivel_de_riesgo_2022":"Muy Alto"}},{"type":"Feature","geometry":{"type":"Point","coordinates":[-70.527897,-33.514797]},"properties":{"sector":"Quebrada 0-9 Sin Nombre","causa_punt":"Activación de quebradas","nivel_de_riesgo_2022":"Muy Alto"}},{"type":"Feature","geometry":{"type":"Point","coordinates":[-70.513362,-33.52992]},"properties":{"sector":"Quebrada 0-8 Lo Cañass","causa_punt":"Activación de quebradas","nivel_de_riesgo_2022":"Muy Alto"}},{"type":"Feature","geometry":{"type":"Point","coordinates":[-70.598451,-33.565163]},"properties":{"sector":"Santa Raquel con Rafael Matus","causa_punt":"Anegamiento de caminos/pasos a desnivel","nivel_de_riesgo_2022":"Alto"}},{"type":"Feature","geometry":{"type":"Point","coordinates":[-70.603553,-33.546774]},"properties":{"sector":"Santa Raquel con Trinidad","causa_punt":"Anegamiento de caminos/pasos a desnivel","nivel_de_riesgo_2022":"Muy Alto"}},{"type":"Feature","geometry":{"type":"Point","coordinates":[-70.598859,-33.520175]},"properties":{"sector":"Paso Bajo Nivel Serafin Zamora","causa_punt":"Anegamiento de caminos/pasos a desnivel","nivel_de_riesgo_2022":"Muy Alto"}},{"type":"Feature","geometry":{"type":"Point","coordinates":[-70.55207,-33.513838]},"properties":{"sector":"Zona de Exclusion Poblacion La Higuera","causa_punt":"Activación de quebradas","nivel_de_riesgo_2022":"Muy Alto"}},{"type":"Feature","geometry":{"type":"Point","coordinates":[-70.586116,-33.512861]},"properties":{"sector":"Avenida La Florida con Departamental","causa_punt":"Colapso colectores de aguas lluvia/alcantarillados","nivel_de_riesgo_2022":"Muy Alto"}}]}