{"type":"FeatureCollection","features":[{"type":"Feature","geometry":{"type":"Polygon","coordinates":[[[-70.821114,-33.054272],[-70.821033,-33.054019],[-70.820693,-33.053408],[-70.820638,-33.053197],[-70.820507,-33.052923],[-70.820119,-33.052441],[-70.820012,-33.052146],[-70.819929,-33.051765],[-70.819914,-33.051044],[-70.819958,-33.050767],[-70.819943,-33.050004],[-70.819683,-33.049599],[-70.819696,-33.049348],[-70.818594,-33.049087],[-70.818174,-33.048524],[-70.818105,-33.047634],[-70.818251,-33.047377],[-70.818719,-33.046861],[-70.818611,-33.046502],[-70.818313,-33.046269],[-70.81838,-33.04613],[-70.817737,-33.046139],[-70.817439,-33.04584],[-70.817058,-33.045676],[-70.816828,-33.045531],[-70.816596,-33.045258],[-70.816513,-33.044899],[-70.816506,-33.04456],[-70.816614,-33.04371],[-70.817067,-33.042451],[-70.817337,-33.042087],[-70.81745,-33.041491],[-70.817294,-33.041218],[-70.817072,-33.040962],[-70.817058,-33.040797],[-70.817115,-33.039863],[-70.817056,-33.039482],[-70.817044,-33.038888],[-70.817001,-33.038565],[-70.817136,-33.038462],[-70.817664,-33.037203],[-70.817935,-33.036881],[-70.818128,-33.036496],[-70.818792,-33.035701],[-70.819135,-33.035251],[-70.81933,-33.03493],[-70.819418,-33.034313],[-70.81897,-33.033323],[-70.818955,-33.032602],[-70.818975,-33.032326],[-70.819286,-33.031536],[-70.819774,-33.030787],[-70.819917,-33.030382],[-70.819958,-33.029957],[-70.819625,-33.029665],[-70.819196,-33.029607],[-70.818719,-33.029751],[-70.818644,-33.029721],[-70.817385,-33.029719],[-70.816223,-33.03034],[-70.815906,-33.030308],[-70.815776,-33.030952],[-70.815508,-33.031321],[-70.8137,-33.03138],[-70.813312,-33.031651],[-70.813278,-33.031781],[-70.813046,-33.031839],[-70.812825,-33.032118],[-70.812862,-33.032669],[-70.812944,-33.032986],[-70.813112,-33.033314],[-70.813194,-33.033609],[-70.813048,-33.034141],[-70.812785,-33.034775],[-70.812364,-33.035344],[-70.811826,-33.035949],[-70.811127,-33.036423],[-70.809951,-33.036672],[-70.807676,-33.037036],[-70.806772,-33.03705],[-70.806172,-33.036594],[-70.805765,-33.035937],[-70.805302,-33.034452],[-70.805391,-33.034003],[-70.805106,-33.033868],[-70.804202,-33.033772],[-70.803781,-33.033697],[-70.80331,-33.0335],[-70.803272,-33.033243],[-70.803722,-33.033155],[-70.804237,-33.033147],[-70.804852,-33.033274],[-70.805449,-33.033306],[-70.805929,-33.033372],[-70.806495,-33.033142],[-70.807396,-33.032964],[-70.807978,-33.032524],[-70.80862,-33.03214],[-70.808691,-33.031924],[-70.808685,-33.031606],[-70.809132,-33.031302],[-70.809103,-33.031112],[-70.808805,-33.031328],[-70.808205,-33.031549],[-70.807883,-33.031808],[-70.807555,-33.031792],[-70.807079,-33.031884],[-70.806983,-33.032161],[-70.806431,-33.032232],[-70.806002,-33.032217],[-70.805648,-33.032116],[-70.804913,-33.031894],[-70.804581,-33.031686],[-70.804101,-33.031587],[-70.803743,-33.031317],[-70.803261,-33.031154],[-70.802702,-33.030907],[-70.80247,-33.030677],[-70.801328,-33.030227],[-70.801018,-33.029871],[-70.800953,-33.029108],[-70.800962,-33.028808],[-70.800537,-33.028488],[-70.799665,-33.02817],[-70.798836,-33.028049],[-70.798491,-33.028485],[-70.797197,-33.028702],[-70.796293,-33.028749],[-70.795586,-33.028825],[-70.794954,-33.028735],[-70.794556,-33.028508],[-70.79421,-33.028911],[-70.793821,-33.029116],[-70.793192,-33.029125],[-70.792886,-33.029593],[-70.792816,-33.030025],[-70.7923,-33.029804],[-70.792229,-33.029618],[-70.792205,-33.029436],[-70.792328,-33.029382],[-70.792325,-33.029269],[-70.792436,-33.029146],[-70.792581,-33.029144],[-70.79272,-33.028996],[-70.792824,-33.028949],[-70.792884,-33.028861],[-70.792809,-33.028706],[-70.792512,-33.028506],[-70.792328,-33.028056],[-70.792503,-33.02785],[-70.792521,-33.027745],[-70.792655,-33.0277],[-70.792959,-33.02747],[-70.793189,-33.02711],[-70.793151,-33.026964],[-70.792822,-33.026794],[-70.792769,-33.026631],[-70.79287,-33.026567],[-70.793405,-33.026684],[-70.793818,-33.026668],[-70.794199,-33.026705],[-70.794837,-33.026902],[-70.79496,-33.026831],[-70.795012,-33.026848],[-70.795132,-33.026814],[-70.795185,-33.026764],[-70.795314,-33.026742],[-70.795417,-33.026622],[-70.795484,-33.026602],[-70.795619,-33.026603],[-70.796112,-33.026771],[-70.796198,-33.026724],[-70.79627,-33.026763],[-70.796291,-33.026698],[-70.796343,-33.026693],[-70.796371,-33.026713],[-70.796343,-33.026776],[-70.796362,-33.026786],[-70.796718,-33.02674],[-70.796822,-33.026775],[-70.79701,-33.026627],[-70.797423,-33.026762],[-70.79751,-33.026769],[-70.79757,-33.026728],[-70.797594,-33.026744],[-70.797552,-33.02679],[-70.797871,-33.026846],[-70.797964,-33.026847],[-70.798001,-33.026802],[-70.798098,-33.026799],[-70.798348,-33.026847],[-70.798335,-33.026787],[-70.798391,-33.026766],[-70.798386,-33.026689],[-70.798308,-33.026585],[-70.798166,-33.026433],[-70.798078,-33.026429],[-70.797971,-33.026356],[-70.797934,-33.026239],[-70.797812,-33.026157],[-70.797718,-33.025903],[-70.797624,-33.025877],[-70.797611,-33.025816],[-70.797643,-33.025792],[-70.797538,-33.025636],[-70.797625,-33.025616],[-70.797624,-33.025556],[-70.797517,-33.025508],[-70.797488,-33.025351],[-70.797343,-33.025254],[-70.797357,-33.02514],[-70.797284,-33.025066],[-70.797273,-33.024945],[-70.797314,-33.024877],[-70.797237,-33.024597],[-70.797255,-33.024483],[-70.797231,-33.024389],[-70.797261,-33.024333],[-70.797185,-33.024128],[-70.797243,-33.024091],[-70.797295,-33.023945],[-70.797239,-33.023885],[-70.797146,-33.023911],[-70.7972,-33.023839],[-70.797169,-33.023747],[-70.797188,-33.023679],[-70.797234,-33.023654],[-70.797208,-33.023603],[-70.797258,-33.023564],[-70.797257,-33.023518],[-70.797359,-33.02336],[-70.797386,-33.0232],[-70.797435,-33.023131],[-70.797425,-33.023071],[-70.797358,-33.023111],[-70.797248,-33.02307],[-70.797228,-33.023141],[-70.797148,-33.023183],[-70.797169,-33.023171],[-70.797091,-33.02312],[-70.796968,-33.023231],[-70.796808,-33.023247],[-70.796672,-33.023213],[-70.796585,-33.022898],[-70.796461,-33.022807],[-70.796483,-33.022724],[-70.79639,-33.022663],[-70.796285,-33.022475],[-70.796126,-33.022353],[-70.795898,-33.022241],[-70.795562,-33.021952],[-70.795182,-33.02184],[-70.794969,-33.021725],[-70.794805,-33.02156],[-70.79467,-33.021336],[-70.794559,-33.021315],[-70.794518,-33.021159],[-70.794423,-33.021068],[-70.794272,-33.020714],[-70.794094,-33.020681],[-70.794003,-33.020775],[-70.793927,-33.020783],[-70.793815,-33.020856],[-70.793713,-33.020846],[-70.793667,-33.020872],[-70.793668,-33.020918],[-70.793471,-33.020908],[-70.793437,-33.020989],[-70.793446,-33.02122],[-70.793341,-33.021229],[-70.793331,-33.021172],[-70.793232,-33.021071],[-70.793241,-33.020896],[-70.79319,-33.020868],[-70.79319,-33.020904],[-70.793056,-33.020911],[-70.792127,-33.021342],[-70.789145,-33.021142],[-70.787341,-33.020905],[-70.78719,-33.020327],[-70.78659,-33.019839],[-70.786153,-33.019613],[-70.785643,-33.019687],[-70.784971,-33.019531],[-70.784012,-33.018782],[-70.783458,-33.018657],[-70.782979,-33.018299],[-70.782885,-33.017538],[-70.782643,-33.017277],[-70.78197,-33.017054],[-70.782039,-33.016556],[-70.78144,-33.016101],[-70.780494,-33.016048],[-70.779973,-33.015558],[-70.779266,-33.015601],[-70.779274,-33.016032],[-70.779485,-33.016725],[-70.779136,-33.016962],[-70.778872,-33.017529],[-70.778685,-33.018062],[-70.778257,-33.018301],[-70.777636,-33.018707],[-70.777168,-33.018913],[-70.776619,-33.018987],[-70.776185,-33.01896],[-70.775127,-33.019174],[-70.774627,-33.019744],[-70.774438,-33.020112],[-70.774445,-33.020476],[-70.77461,-33.020838],[-70.774581,-33.021369],[-70.77479,-33.021963],[-70.7744,-33.022167],[-70.774642,-33.022621],[-70.77474,-33.023422],[-70.775512,-33.024604],[-70.776071,-33.025027],[-70.777102,-33.02541],[-70.777907,-33.025652],[-70.777347,-33.026986],[-70.77683,-33.028754],[-70.776539,-33.029587],[-70.775568,-33.030222],[-70.774785,-33.031062],[-70.774683,-33.032099],[-70.775326,-33.033488],[-70.775098,-33.034372],[-70.77493,-33.035203],[-70.774018,-33.035734],[-70.773849,-33.036513],[-70.774988,-33.036798],[-70.775185,-33.037645],[-70.775042,-33.03805],[-70.774675,-33.038628],[-70.774814,-33.039284],[-70.775149,-33.039618],[-70.775388,-33.040273],[-70.775945,-33.040392],[-70.776449,-33.040385],[-70.777201,-33.040226],[-70.777806,-33.040336],[-70.777926,-33.040495],[-70.77702,-33.041285],[-70.77598,-33.041558],[-70.775031,-33.042011],[-70.774598,-33.042085],[-70.774163,-33.042105],[-70.774103,-33.042337],[-70.774929,-33.042529],[-70.775288,-33.042754],[-70.77542,-33.042915],[-70.775506,-33.043172],[-70.775462,-33.043404],[-70.77568,-33.043821],[-70.775687,-33.044174],[-70.775675,-33.044378],[-70.775532,-33.044489],[-70.775369,-33.044711],[-70.775103,-33.044901],[-70.775007,-33.045136],[-70.774559,-33.045397],[-70.774088,-33.045743],[-70.773994,-33.046084],[-70.77445,-33.046226],[-70.774903,-33.046198],[-70.775361,-33.046425],[-70.776152,-33.046923],[-70.777354,-33.04786],[-70.777972,-33.048509],[-70.778585,-33.048946],[-70.779099,-33.049427],[-70.779514,-33.050036],[-70.779698,-33.050436],[-70.780082,-33.050707],[-70.780483,-33.050637],[-70.780805,-33.050357],[-70.781126,-33.050013],[-70.781623,-33.049709],[-70.782831,-33.049628],[-70.783687,-33.049637],[-70.784145,-33.049842],[-70.785008,-33.050148],[-70.785726,-33.050796],[-70.785879,-33.05213],[-70.786141,-33.052614],[-70.786229,-33.053228],[-70.786415,-33.053713],[-70.787407,-33.054187],[-70.789368,-33.055241],[-70.792068,-33.055478],[-70.795703,-33.05585],[-70.798778,-33.055954],[-70.805821,-33.056637],[-70.810158,-33.056829],[-70.813185,-33.057039],[-70.815752,-33.056917],[-70.816028,-33.056871],[-70.816481,-33.056864],[-70.816984,-33.056814],[-70.817784,-33.056527],[-70.818514,-33.056474],[-70.81937,-33.056461],[-70.819942,-33.056113],[-70.820361,-33.055662],[-70.820654,-33.05517],[-70.820676,-33.054956],[-70.820777,-33.054947],[-70.820874,-33.054845],[-70.821136,-33.054736],[-70.821193,-33.054629],[-70.821198,-33.05454],[-70.821097,-33.054294],[-70.821114,-33.054272]]]},"properties":{"ID":"0067-RM","NOMBRE_EMPRESA_O_PRODUCTOR_MINE":"CODELCO","NOMBRE_FAENA":"ANDINA","NOMBRE_INSTALACION":"OVEJERIA","TIPO_DEPOSITO":"TRANQUE DE RELAVE","RECURSO":"COBRE","ESTADO_INSTALACION":"ACTIVO","METODO_CONSTRUCTIVO_MURO":"AGUAS ABAJO","VOL_AUTORIZADO":1286666667,"COMUNA":"Tiltil"}},{"type":"Feature","geometry":{"type":"Polygon","coordinates":[[[-70.730742,-33.150125],[-70.73072,-33.150137],[-70.73072,-33.150488],[-70.731649,-33.150855],[-70.732801,-33.152042],[-70.733113,-33.152046],[-70.732801,-33.150208],[-70.733321,-33.14837],[-70.733634,-33.148366],[-70.733995,-33.148761],[-70.73405,-33.147582],[-70.734466,-33.14718],[-70.734575,-33.146219],[-70.735054,-33.145873],[-70.734882,-33.147644],[-70.736443,-33.148534],[-70.736235,-33.14976],[-70.736651,-33.149935],[-70.736651,-33.15081],[-70.738212,-33.151177],[-70.737796,-33.149375],[-70.739044,-33.149549],[-70.739357,-33.14901],[-70.739252,-33.147347],[-70.739565,-33.147288],[-70.739582,-33.147624],[-70.739981,-33.147609],[-70.740206,-33.147098],[-70.741247,-33.146923],[-70.741334,-33.146296],[-70.739044,-33.145545],[-70.738732,-33.145282],[-70.73894,-33.144057],[-70.737926,-33.14386],[-70.737796,-33.143444],[-70.739018,-33.143072],[-70.740178,-33.141302],[-70.741392,-33.141146],[-70.742537,-33.141584],[-70.743727,-33.140381],[-70.745633,-33.140183],[-70.745671,-33.13992],[-70.745392,-33.139805],[-70.7456,-33.137704],[-70.74612,-33.136916],[-70.745695,-33.136523],[-70.745657,-33.136398],[-70.745617,-33.135905],[-70.745769,-33.13555],[-70.745874,-33.135501],[-70.745893,-33.135405],[-70.746328,-33.134999],[-70.746328,-33.134951],[-70.746509,-33.13484],[-70.746569,-33.134573],[-70.74641,-33.134372],[-70.746271,-33.134255],[-70.745834,-33.13367],[-70.745675,-33.13352],[-70.745,-33.133052],[-70.744702,-33.132718],[-70.744483,-33.132634],[-70.74416,-33.132618],[-70.743676,-33.132392],[-70.743604,-33.131975],[-70.743449,-33.131806],[-70.743372,-33.131667],[-70.743396,-33.131473],[-70.743338,-33.131474],[-70.743271,-33.131057],[-70.743118,-33.131047],[-70.743055,-33.131164],[-70.743055,-33.131474],[-70.742454,-33.131474],[-70.741898,-33.131656],[-70.741415,-33.131646],[-70.741173,-33.131603],[-70.741122,-33.131485],[-70.741135,-33.131367],[-70.741211,-33.131228],[-70.741291,-33.130873],[-70.741211,-33.130634],[-70.741199,-33.130276],[-70.74111,-33.130095],[-70.741031,-33.130095],[-70.741002,-33.130009],[-70.740754,-33.129998],[-70.740512,-33.129934],[-70.740334,-33.129763],[-70.740144,-33.129442],[-70.739826,-33.129196],[-70.739559,-33.129046],[-70.739292,-33.1288],[-70.738936,-33.128394],[-70.738822,-33.128116],[-70.738872,-33.127966],[-70.739038,-33.127763],[-70.739292,-33.127677],[-70.739559,-33.127292],[-70.739788,-33.127025],[-70.739889,-33.127143],[-70.739879,-33.127226],[-70.739966,-33.127431],[-70.740055,-33.127528],[-70.740423,-33.127784],[-70.74083,-33.127881],[-70.741269,-33.127881],[-70.741394,-33.128011],[-70.741478,-33.12802],[-70.741605,-33.128095],[-70.741872,-33.128127],[-70.742216,-33.128244],[-70.742388,-33.128344],[-70.742662,-33.128365],[-70.743598,-33.128977],[-70.743639,-33.129078],[-70.743855,-33.129196],[-70.74411,-33.129656],[-70.744211,-33.129934],[-70.744224,-33.130292],[-70.744627,-33.130801],[-70.744847,-33.13094],[-70.745177,-33.131367],[-70.745076,-33.131635],[-70.74533,-33.132287],[-70.745203,-33.132437],[-70.745152,-33.132629],[-70.745104,-33.132687],[-70.745152,-33.133013],[-70.745794,-33.133369],[-70.746032,-33.133537],[-70.74633,-33.13357],[-70.746489,-33.133704],[-70.746589,-33.133888],[-70.74643,-33.133971],[-70.74641,-33.134105],[-70.746608,-33.134305],[-70.747145,-33.134606],[-70.747661,-33.134673],[-70.748118,-33.134673],[-70.748277,-33.134773],[-70.748674,-33.134907],[-70.748784,-33.135306],[-70.75014,-33.136527],[-70.750262,-33.136548],[-70.750824,-33.136959],[-70.750872,-33.137185],[-70.750906,-33.137216],[-70.750901,-33.137556],[-70.751019,-33.137842],[-70.750791,-33.138348],[-70.750783,-33.138478],[-70.750921,-33.13854],[-70.751084,-33.13854],[-70.751361,-33.138383],[-70.751588,-33.138122],[-70.751784,-33.138006],[-70.752199,-33.137602],[-70.752524,-33.137164],[-70.752841,-33.136582],[-70.753305,-33.136021],[-70.753411,-33.13598],[-70.753549,-33.13598],[-70.753678,-33.136057],[-70.755029,-33.135981],[-70.756005,-33.135525],[-70.755693,-33.134212],[-70.756629,-33.132621],[-70.756629,-33.131396],[-70.756941,-33.130783],[-70.758606,-33.129856],[-70.759186,-33.129826],[-70.759519,-33.129927],[-70.760433,-33.12991],[-70.76079,-33.129776],[-70.760989,-33.129626],[-70.761167,-33.129325],[-70.761207,-33.128974],[-70.761108,-33.12869],[-70.760492,-33.128473],[-70.759916,-33.128423],[-70.758585,-33.12869],[-70.757556,-33.128995],[-70.756213,-33.128966],[-70.756213,-33.128615],[-70.756941,-33.128353],[-70.756733,-33.127251],[-70.756285,-33.126876],[-70.754028,-33.126324],[-70.752259,-33.124784],[-70.751958,-33.123812],[-70.751947,-33.121895],[-70.753404,-33.120669],[-70.753404,-33.119969],[-70.751958,-33.119609],[-70.751126,-33.118733],[-70.751115,-33.117867],[-70.750397,-33.117595],[-70.749554,-33.116853],[-70.749608,-33.114881],[-70.748929,-33.11435],[-70.748925,-33.114001],[-70.748097,-33.113021],[-70.74612,-33.112867],[-70.745392,-33.11348],[-70.741933,-33.113392],[-70.741039,-33.112867],[-70.739791,-33.112867],[-70.738836,-33.112444],[-70.737049,-33.112604],[-70.736112,-33.113567],[-70.734968,-33.11348],[-70.732097,-33.114443],[-70.73056,-33.114578],[-70.729784,-33.115751],[-70.729784,-33.116101],[-70.730193,-33.116282],[-70.729992,-33.117152],[-70.727856,-33.117332],[-70.727275,-33.11707],[-70.726235,-33.11707],[-70.726038,-33.117306],[-70.726217,-33.118383],[-70.724456,-33.118313],[-70.722582,-33.119346],[-70.71905,-33.119158],[-70.718151,-33.118821],[-70.717318,-33.118821],[-70.715592,-33.119346],[-70.714161,-33.118821],[-70.713551,-33.118834],[-70.713267,-33.118996],[-70.713239,-33.119498],[-70.713864,-33.120425],[-70.713864,-33.1213],[-70.713551,-33.121738],[-70.713343,-33.123314],[-70.712166,-33.123549],[-70.709087,-33.123462],[-70.708661,-33.123628],[-70.708765,-33.124241],[-70.710326,-33.125131],[-70.709988,-33.126876],[-70.70945,-33.127226],[-70.708869,-33.127263],[-70.707412,-33.129059],[-70.706691,-33.129153],[-70.705754,-33.128715],[-70.705397,-33.128835],[-70.705323,-33.129509],[-70.704219,-33.129853],[-70.704259,-33.130291],[-70.705331,-33.131139],[-70.705539,-33.132365],[-70.705881,-33.132129],[-70.706268,-33.132329],[-70.706239,-33.13353],[-70.705499,-33.133934],[-70.707019,-33.135018],[-70.707539,-33.135106],[-70.708432,-33.134931],[-70.710219,-33.13318],[-70.711051,-33.13318],[-70.713315,-33.133705],[-70.715503,-33.13458],[-70.715668,-33.134843],[-70.717401,-33.135305],[-70.719425,-33.136331],[-70.721251,-33.137822],[-70.722252,-33.139483],[-70.72302,-33.140114],[-70.723623,-33.141584],[-70.723645,-33.143141],[-70.723228,-33.143841],[-70.723372,-33.144297],[-70.723853,-33.144593],[-70.723957,-33.145206],[-70.72291,-33.146486],[-70.721356,-33.147624],[-70.720835,-33.149111],[-70.720107,-33.149476],[-70.719587,-33.15066],[-70.717491,-33.152187],[-70.717193,-33.152733],[-70.719578,-33.15192],[-70.720572,-33.151825],[-70.72152,-33.151161],[-70.721876,-33.150111],[-70.722145,-33.149987],[-70.722916,-33.150491],[-70.72302,-33.151103],[-70.722612,-33.151387],[-70.722604,-33.151731],[-70.723325,-33.152525],[-70.723967,-33.151737],[-70.725672,-33.150995],[-70.728327,-33.151101],[-70.728267,-33.150927],[-70.727699,-33.150196],[-70.72758,-33.149795],[-70.727441,-33.149494],[-70.727262,-33.149244],[-70.726964,-33.148943],[-70.726607,-33.148726],[-70.726071,-33.148509],[-70.725654,-33.148392],[-70.725495,-33.14769],[-70.725634,-33.147489],[-70.725937,-33.147438],[-70.726267,-33.147098],[-70.726489,-33.147098],[-70.726587,-33.147222],[-70.726885,-33.147824],[-70.727064,-33.147974],[-70.727243,-33.147991],[-70.727459,-33.147817],[-70.727501,-33.14759],[-70.727739,-33.147055],[-70.727819,-33.146938],[-70.728037,-33.146855],[-70.728335,-33.147189],[-70.728625,-33.147389],[-70.728772,-33.147022],[-70.728812,-33.146236],[-70.728851,-33.145986],[-70.729566,-33.145568],[-70.730096,-33.145413],[-70.730083,-33.144883],[-70.730162,-33.144666],[-70.730301,-33.144565],[-70.730639,-33.144499],[-70.731136,-33.144682],[-70.731334,-33.144849],[-70.731434,-33.14505],[-70.731473,-33.145267],[-70.731414,-33.145802],[-70.731414,-33.146286],[-70.731294,-33.146487],[-70.731155,-33.146621],[-70.730858,-33.146704],[-70.73056,-33.146838],[-70.730421,-33.146855],[-70.730202,-33.146955],[-70.730202,-33.147139],[-70.73046,-33.147239],[-70.73054,-33.147239],[-70.730557,-33.147299],[-70.730699,-33.147306],[-70.730758,-33.147456],[-70.730699,-33.147573],[-70.730585,-33.147602],[-70.730544,-33.147739],[-70.730321,-33.147807],[-70.730222,-33.147957],[-70.730222,-33.148108],[-70.730386,-33.148158],[-70.730619,-33.148158],[-70.731314,-33.148375],[-70.731414,-33.148692],[-70.731414,-33.148976],[-70.73134,-33.149083],[-70.731344,-33.149189],[-70.73108,-33.149601],[-70.730966,-33.149687],[-70.730559,-33.149847],[-70.730444,-33.149976],[-70.730742,-33.150125]]]},"properties":{"ID":"0703-RM","NOMBRE_EMPRESA_O_PRODUCTOR_MINE":"ANGLO AMERICAN SUR S.A.","NOMBRE_FAENA":"LOS BRONCES","NOMBRE_INSTALACION":"LAS TORTOLAS","TIPO_DEPOSITO":"TRANQUE DE RELAVE","RECURSO":"COBRE","ESTADO_INSTALACION":"ACTIVO","METODO_CONSTRUCTIVO_MURO":"AGUAS ABAJO","VOL_AUTORIZADO":689655172,"COMUNA":"Colina"}},{"type":"Feature","geometry":{"type":"Polygon","coordinates":[[[-71.036375,-33.060314],[-71.036339,-33.060179],[-71.035787,-33.060143],[-71.035484,-33.06017],[-71.034884,-33.060329],[-71.034884,-33.060568],[-71.035111,-33.060722],[-71.035639,-33.060828],[-71.03583,-33.060836],[-71.035849,-33.060763],[-71.035994,-33.060729],[-71.036009,-33.060629],[-71.036047,-33.060607],[-71.036031,-33.060568],[-71.036141,-33.060506],[-71.036191,-33.060527],[-71.036148,-33.060586],[-71.036242,-33.060625],[-71.036159,-33.060686],[-71.036154,-33.060749],[-71.036277,-33.06073],[-71.036289,-33.060755],[-71.03619,-33.060852],[-71.036195,-33.060907],[-71.03614,-33.061003],[-71.036165,-33.061049],[-71.036287,-33.061137],[-71.036401,-33.061105],[-71.036495,-33.061125],[-71.036553,-33.061009],[-71.036375,-33.060314]]]},"properties":{"ID":"0755-5C","NOMBRE_EMPRESA_O_PRODUCTOR_MINE":"DESCONOCIDO","NOMBRE_FAENA":"RAMAYANA","NOMBRE_INSTALACION":"RAMAYANA 1","TIPO_DEPOSITO":"TRANQUE DE RELAVE","RECURSO":"COBRE","ESTADO_INSTALACION":"ABANDONADO","METODO_CONSTRUCTIVO_MURO":"AGUAS ARRIBA","VOL_AUTORIZADO":48000,"COMUNA":"Olmué"}},{"type":"Feature","geometry":{"type":"Polygon","coordinates":[[[-71.029979,-33.07143],[-71.029929,-33.071507],[-71.03008,-33.071603],[-71.030352,-33.071597],[-71.030362,-33.071656],[-71.030229,-33.071735],[-71.030307,-33.071913],[-71.030386,-33.071955],[-71.030725,-33.072069],[-71.030842,-33.072058],[-71.030957,-33.07192],[-71.030967,-33.07181],[-71.0309,-33.071612],[-71.030915,-33.071436],[-71.030785,-33.071407],[-71.030748,-33.071351],[-71.030824,-33.07128],[-71.03085,-33.071155],[-71.030626,-33.07096],[-71.030493,-33.070927],[-71.030399,-33.070949],[-71.030417,-33.071226],[-71.03018,-33.071188],[-71.029958,-33.071223],[-71.029903,-33.071313],[-71.030015,-33.071392],[-71.029979,-33.07143]]]},"properties":{"ID":"0756-5C","NOMBRE_EMPRESA_O_PRODUCTOR_MINE":"DESCONOCIDO","NOMBRE_FAENA":"RAMAYANA","NOMBRE_INSTALACION":"RAMAYANA 2","TIPO_DEPOSITO":"ACOPIO","RECURSO":"COBRE","ESTADO_INSTALACION":"ABANDONADO","METODO_CONSTRUCTIVO_MURO":"NO APLICA","VOL_AUTORIZADO":9600,"COMUNA":"Olmué"}},{"type":"Feature","geometry":{"type":"Polygon","coordinates":[[[-70.910189,-33.10159],[-70.910059,-33.10173],[-70.910119,-33.101768],[-70.910346,-33.101764],[-70.910452,-33.101801],[-70.911072,-33.102037],[-70.91128,-33.102156],[-70.911757,-33.102529],[-70.912083,-33.10283],[-70.912251,-33.103031],[-70.912355,-33.10321],[-70.912335,-33.103348],[-70.912402,-33.103429],[-70.912458,-33.103589],[-70.912466,-33.103751],[-70.912529,-33.103759],[-70.912558,-33.103879],[-70.912723,-33.103947],[-70.912677,-33.103982],[-70.912595,-33.103971],[-70.912596,-33.103994],[-70.91308,-33.104224],[-70.913274,-33.104352],[-70.913292,-33.104503],[-70.913251,-33.104636],[-70.912922,-33.104938],[-70.912955,-33.104977],[-70.913149,-33.105035],[-70.913245,-33.105113],[-70.913766,-33.105152],[-70.913886,-33.105132],[-70.914059,-33.105171],[-70.914474,-33.105359],[-70.914576,-33.105467],[-70.91457,-33.105517],[-70.914609,-33.10549],[-70.914691,-33.105549],[-70.914945,-33.105584],[-70.915165,-33.105691],[-70.915221,-33.105434],[-70.915745,-33.104822],[-70.915697,-33.104701],[-70.915587,-33.104577],[-70.915197,-33.104325],[-70.915003,-33.104245],[-70.914839,-33.104217],[-70.914815,-33.104122],[-70.91487,-33.104013],[-70.91481,-33.103876],[-70.91468,-33.103782],[-70.914628,-33.103693],[-70.914391,-33.103583],[-70.914252,-33.103429],[-70.914036,-33.103319],[-70.913984,-33.103194],[-70.913926,-33.103147],[-70.913654,-33.103067],[-70.913595,-33.10299],[-70.913451,-33.102932],[-70.913323,-33.102928],[-70.913196,-33.102666],[-70.913104,-33.102368],[-70.913053,-33.102303],[-70.912772,-33.102134],[-70.912514,-33.102084],[-70.91202,-33.101912],[-70.91166,-33.101731],[-70.911453,-33.101705],[-70.911151,-33.101589],[-70.911016,-33.101579],[-70.910641,-33.101393],[-70.910406,-33.101385],[-70.910294,-33.101441],[-70.910192,-33.101364],[-70.910057,-33.101342],[-70.910058,-33.101414],[-70.910166,-33.101455],[-70.91021,-33.10152],[-70.910189,-33.10159]]]},"properties":{"ID":"0757-RM","NOMBRE_EMPRESA_O_PRODUCTOR_MINE":"MINERA SAN PEDRO S.A","NOMBRE_FAENA":"PLANTA POLCURA INTEGRADA","NOMBRE_INSTALACION":"EMBALSE DE RELAVES","TIPO_DEPOSITO":"EMBALSE","RECURSO":"COBRE","ESTADO_INSTALACION":"ACTIVO","METODO_CONSTRUCTIVO_MURO":"","VOL_AUTORIZADO":134400,"COMUNA":"Tiltil"}},{"type":"Feature","geometry":{"type":"Polygon","coordinates":[[[-70.907392,-33.101228],[-70.906782,-33.101027],[-70.90661,-33.101107],[-70.906447,-33.101139],[-70.906346,-33.101117],[-70.906231,-33.101155],[-70.905989,-33.101298],[-70.905652,-33.101307],[-70.905474,-33.101184],[-70.905388,-33.101204],[-70.905352,-33.101149],[-70.904929,-33.100949],[-70.904791,-33.10096],[-70.904632,-33.1009],[-70.904408,-33.10089],[-70.904301,-33.100837],[-70.903989,-33.100992],[-70.904014,-33.101123],[-70.903927,-33.101209],[-70.90385,-33.101228],[-70.903687,-33.101437],[-70.903365,-33.101433],[-70.903162,-33.101496],[-70.902388,-33.10161],[-70.902075,-33.10162],[-70.901965,-33.10182],[-70.901902,-33.101863],[-70.901632,-33.101897],[-70.901365,-33.102051],[-70.900933,-33.102483],[-70.900794,-33.102659],[-70.900762,-33.102809],[-70.900863,-33.102872],[-70.900905,-33.10294],[-70.901006,-33.102948],[-70.901578,-33.102639],[-70.901812,-33.102692],[-70.901807,-33.102982],[-70.901921,-33.103084],[-70.902006,-33.103401],[-70.901944,-33.103664],[-70.902103,-33.103792],[-70.902205,-33.103826],[-70.902381,-33.103762],[-70.902565,-33.10357],[-70.902639,-33.103354],[-70.902655,-33.103101],[-70.902728,-33.102865],[-70.903039,-33.102823],[-70.903155,-33.102942],[-70.903073,-33.103001],[-70.903231,-33.103089],[-70.903445,-33.103421],[-70.903491,-33.103552],[-70.90344,-33.103666],[-70.903712,-33.103579],[-70.903824,-33.103505],[-70.903985,-33.103371],[-70.904116,-33.103177],[-70.904203,-33.102924],[-70.904221,-33.10275],[-70.904082,-33.102584],[-70.903866,-33.102462],[-70.903877,-33.102318],[-70.903925,-33.102263],[-70.903989,-33.10222],[-70.904167,-33.102218],[-70.904447,-33.102355],[-70.904631,-33.102368],[-70.904655,-33.102409],[-70.904708,-33.102397],[-70.90478,-33.102256],[-70.90482,-33.10216],[-70.904716,-33.101952],[-70.904722,-33.10188],[-70.904834,-33.101806],[-70.904888,-33.101679],[-70.904758,-33.101579],[-70.904501,-33.101547],[-70.90447,-33.101446],[-70.904525,-33.101361],[-70.904631,-33.101306],[-70.904795,-33.101327],[-70.905041,-33.101491],[-70.905274,-33.101739],[-70.905327,-33.101876],[-70.905358,-33.102026],[-70.905344,-33.102388],[-70.905369,-33.102372],[-70.905444,-33.102421],[-70.9057,-33.102417],[-70.906251,-33.102203],[-70.90644,-33.102181],[-70.906692,-33.102018],[-70.907188,-33.101814],[-70.907362,-33.101624],[-70.907496,-33.101641],[-70.907638,-33.101526],[-70.90757,-33.101452],[-70.907567,-33.101313],[-70.907392,-33.101228]]]},"properties":{"ID":"0758-RM","NOMBRE_EMPRESA_O_PRODUCTOR_MINE":"MINERA SAN PEDRO S.A","NOMBRE_FAENA":"PLANTA POLCURA INTEGRADA","NOMBRE_INSTALACION":"MSP 2","TIPO_DEPOSITO":"FILTRADO","RECURSO":"COBRE","ESTADO_INSTALACION":"ACTIVO","METODO_CONSTRUCTIVO_MURO":"NO APLICA","VOL_AUTORIZADO":null,"COMUNA":"Tiltil"}},{"type":"Feature","geometry":{"type":"Polygon","coordinates":[[[-70.826958,-33.140133],[-70.826164,-33.140217],[-70.825172,-33.141199],[-70.825098,-33.141303],[-70.825099,-33.141636],[-70.825756,-33.142742],[-70.82604,-33.142972],[-70.826636,-33.143739],[-70.827356,-33.14439],[-70.828092,-33.144801],[-70.829549,-33.145163],[-70.830115,-33.14523],[-70.830867,-33.145529],[-70.831367,-33.146033],[-70.831994,-33.146894],[-70.832774,-33.147792],[-70.83319,-33.148022],[-70.833587,-33.148022],[-70.834344,-33.147855],[-70.835419,-33.147479],[-70.835886,-33.147189],[-70.836328,-33.146477],[-70.836286,-33.14544],[-70.836063,-33.14499],[-70.836056,-33.144453],[-70.835746,-33.144056],[-70.835244,-33.143073],[-70.835095,-33.142674],[-70.835092,-33.142217],[-70.834948,-33.141929],[-70.834947,-33.141721],[-70.834663,-33.141302],[-70.833254,-33.140483],[-70.832019,-33.140075],[-70.830844,-33.140049],[-70.83069,-33.14013],[-70.830141,-33.139987],[-70.828057,-33.139987],[-70.827306,-33.140133],[-70.826958,-33.140133]]]},"properties":{"ID":"0759-RM","NOMBRE_EMPRESA_O_PRODUCTOR_MINE":"CEMENTO POLPAICO S.A.","NOMBRE_FAENA":"CERRO BLANCO","NOMBRE_INSTALACION":"TRANQUE RELAVE 1-2-3-4","TIPO_DEPOSITO":"TRANQUE DE RELAVE","RECURSO":"CALIZA","ESTADO_INSTALACION":"INACTIVO","METODO_CONSTRUCTIVO_MURO":"EJE CENTRAL","VOL_AUTORIZADO":8265000,"COMUNA":"Tiltil"}},{"type":"Feature","geometry":{"type":"Polygon","coordinates":[[[-70.828461,-33.177936],[-70.828306,-33.176853],[-70.828655,-33.176391],[-70.8285,-33.175636],[-70.8285,-33.174593],[-70.828732,-33.174144],[-70.828732,-33.173166],[-70.828503,-33.172949],[-70.82801,-33.17283],[-70.82763,-33.172446],[-70.827615,-33.171612],[-70.82787,-33.171156],[-70.827879,-33.170707],[-70.827492,-33.170155],[-70.82753,-33.169405],[-70.827781,-33.168972],[-70.828063,-33.16885],[-70.828073,-33.168658],[-70.827328,-33.168019],[-70.826522,-33.167765],[-70.825578,-33.168287],[-70.824552,-33.168678],[-70.823545,-33.168678],[-70.82315,-33.168822],[-70.822231,-33.169745],[-70.821654,-33.169787],[-70.821259,-33.170015],[-70.820902,-33.17032],[-70.820908,-33.170515],[-70.821677,-33.171816],[-70.821894,-33.172577],[-70.822918,-33.173318],[-70.82327,-33.173861],[-70.823965,-33.174546],[-70.824933,-33.17458],[-70.825205,-33.174677],[-70.826135,-33.175612],[-70.826434,-33.175752],[-70.826445,-33.176134],[-70.826329,-33.176251],[-70.826418,-33.176632],[-70.827061,-33.176828],[-70.827957,-33.177754],[-70.828461,-33.177936]]]},"properties":{"ID":"0760-RM","NOMBRE_EMPRESA_O_PRODUCTOR_MINE":"CEMENTO POLPAICO S.A.","NOMBRE_FAENA":"CERRO BLANCO","NOMBRE_INSTALACION":"TRANQUE RELAVE 5","TIPO_DEPOSITO":"TRANQUE DE RELAVE","RECURSO":"CARBONATO DE CALCIO","ESTADO_INSTALACION":"ACTIVO","METODO_CONSTRUCTIVO_MURO":"AGUAS ABAJO","VOL_AUTORIZADO":6380000,"COMUNA":"Tiltil"}},{"type":"Feature","geometry":{"type":"Polygon","coordinates":[[[-70.944236,-33.075993],[-70.944001,-33.075812],[-70.943731,-33.075753],[-70.943533,-33.075599],[-70.943239,-33.075501],[-70.942982,-33.075292],[-70.942798,-33.075337],[-70.942655,-33.075588],[-70.94237,-33.075669],[-70.942161,-33.075823],[-70.942316,-33.076067],[-70.942326,-33.076489],[-70.942424,-33.076591],[-70.943438,-33.076794],[-70.943843,-33.076987],[-70.944384,-33.077049],[-70.944607,-33.076886],[-70.944828,-33.076242],[-70.944706,-33.076132],[-70.944236,-33.075993]]]},"properties":{"ID":"0763-RM","NOMBRE_EMPRESA_O_PRODUCTOR_MINE":"LUIS DONOSO SARMIENTO","NOMBRE_FAENA":"PLANTA ANITA","NOMBRE_INSTALACION":"ANITA 1-2","TIPO_DEPOSITO":"ACOPIO","RECURSO":"ORO","ESTADO_INSTALACION":"ABANDONADO","METODO_CONSTRUCTIVO_MURO":"NO APLICA","VOL_AUTORIZADO":3495,"COMUNA":"Tiltil"}},{"type":"Feature","geometry":{"type":"Polygon","coordinates":[[[-70.928716,-33.106526],[-70.929153,-33.106185],[-70.929437,-33.105609],[-70.929592,-33.104381],[-70.929541,-33.104224],[-70.929423,-33.104157],[-70.929208,-33.104168],[-70.929019,-33.104329],[-70.928805,-33.104411],[-70.928303,-33.104356],[-70.927725,-33.104481],[-70.927073,-33.104386],[-70.926593,-33.104445],[-70.926255,-33.104654],[-70.926102,-33.104949],[-70.925844,-33.105164],[-70.925509,-33.105672],[-70.925525,-33.105811],[-70.92579,-33.106044],[-70.925788,-33.106352],[-70.926244,-33.106625],[-70.926476,-33.10663],[-70.926747,-33.10653],[-70.927656,-33.106413],[-70.927942,-33.106438],[-70.928313,-33.106602],[-70.928716,-33.106526]]]},"properties":{"ID":"0769-RM","NOMBRE_EMPRESA_O_PRODUCTOR_MINE":"ALMA MINERALS (EX RECICLOMET)","NOMBRE_FAENA":"PLANTA SAN FRANCISCO","NOMBRE_INSTALACION":"SAN FRANCISCO","TIPO_DEPOSITO":"EMBALSE","RECURSO":"COBRE","ESTADO_INSTALACION":"ABANDONADO","METODO_CONSTRUCTIVO_MURO":"EXCAVACION TERRENO","VOL_AUTORIZADO":6335,"COMUNA":"Tiltil"}},{"type":"Feature","geometry":{"type":"Polygon","coordinates":[[[-70.892663,-33.002215],[-70.8915,-33.001671],[-70.890997,-33.001637],[-70.89026,-33.001381],[-70.889978,-33.001486],[-70.889918,-33.001648],[-70.889943,-33.001979],[-70.889842,-33.002374],[-70.889594,-33.002755],[-70.889901,-33.00426],[-70.890491,-33.00496],[-70.890751,-33.005133],[-70.891125,-33.005089],[-70.891632,-33.004835],[-70.891944,-33.004506],[-70.892354,-33.003992],[-70.892695,-33.003686],[-70.892846,-33.003468],[-70.892668,-33.00287],[-70.892708,-33.002592],[-70.892787,-33.002452],[-70.892663,-33.002215]]]},"properties":{"ID":"0770-RM","NOMBRE_EMPRESA_O_PRODUCTOR_MINE":"NOGAZ LIMITADA","NOMBRE_FAENA":"PLANTA RUNGUE","NOMBRE_INSTALACION":"NOGAZ","TIPO_DEPOSITO":"ACOPIO","RECURSO":"COBRE","ESTADO_INSTALACION":"ABANDONADO","METODO_CONSTRUCTIVO_MURO":"NO APLICA","VOL_AUTORIZADO":720000,"COMUNA":"Tiltil"}}]}