{"type":"FeatureCollection","features":[{"type":"Feature","id":781,"geometry":{"type":"LineString","coordinates":[[-71.45709,-32.93289],[-71.457166,-32.932901],[-71.457369,-32.932951],[-71.457858,-32.93301],[-71.458018,-32.933054],[-71.458108,-32.933099],[-71.458161,-32.933139],[-71.458267,-32.933242],[-71.458417,-32.933327],[-71.458462,-32.933373],[-71.458489,-32.933413],[-71.458509,-32.933478],[-71.458512,-32.933548],[-71.458495,-32.933645],[-71.458456,-32.93377],[-71.458396,-32.933902],[-71.458281,-32.934087],[-71.458181,-32.934276],[-71.458128,-32.934357],[-71.457911,-32.934591],[-71.457752,-32.934856],[-71.457663,-32.934972],[-71.45759,-32.935036],[-71.45741,-32.93515],[-71.457355,-32.935205],[-71.457304,-32.935308],[-71.457248,-32.935396],[-71.457246,-32.93544],[-71.457273,-32.935462],[-71.457323,-32.935475],[-71.457503,-32.93547],[-71.457577,-32.935479],[-71.457632,-32.935494],[-71.457708,-32.935529],[-71.457833,-32.935624],[-71.458104,-32.935894],[-71.458178,-32.935951],[-71.458263,-32.935995],[-71.458343,-32.936019],[-71.458411,-32.936029],[-71.458755,-32.936033],[-71.458944,-32.936054],[-71.459031,-32.936074],[-71.459077,-32.936095],[-71.459123,-32.936119],[-71.459174,-32.936163],[-71.459197,-32.936209],[-71.459208,-32.936259],[-71.459205,-32.936302],[-71.459172,-32.936445],[-71.459169,-32.936514],[-71.459214,-32.936745],[-71.459215,-32.936893],[-71.459245,-32.937022],[-71.459249,-32.937068],[-71.459243,-32.937105],[-71.459202,-32.937202],[-71.459033,-32.93747],[-71.458985,-32.937572],[-71.45893,-32.937743],[-71.458909,-32.937871],[-71.458902,-32.937976],[-71.458906,-32.938069],[-71.45892,-32.938167],[-71.458988,-32.938415],[-71.459033,-32.938469],[-71.459112,-32.938502],[-71.459159,-32.938509],[-71.459279,-32.938504],[-71.459395,-32.938462],[-71.459441,-32.938419],[-71.459514,-32.938282],[-71.45953,-32.93824],[-71.459536,-32.938183],[-71.459507,-32.937763],[-71.459507,-32.937673],[-71.45952,-32.937591],[-71.45957,-32.937465],[-71.459712,-32.93725],[-71.459731,-32.937198],[-71.459758,-32.937072],[-71.459779,-32.937019],[-71.459961,-32.936727],[-71.460026,-32.936645],[-71.460065,-32.936609],[-71.460111,-32.936581],[-71.460188,-32.936558],[-71.460358,-32.93654],[-71.460428,-32.936522],[-71.460485,-32.936489],[-71.460523,-32.936438],[-71.460573,-32.936247],[-71.460576,-32.936088],[-71.460584,-32.936026],[-71.460655,-32.935848],[-71.460669,-32.935664],[-71.460696,-32.935572],[-71.460739,-32.935527],[-71.460839,-32.935488],[-71.461011,-32.935455],[-71.461223,-32.935428],[-71.461301,-32.935407],[-71.461335,-32.935392],[-71.461394,-32.93535],[-71.461426,-32.935313],[-71.461452,-32.935263],[-71.461458,-32.935221],[-71.461453,-32.935201],[-71.461418,-32.935149],[-71.461373,-32.935115],[-71.46124,-32.935041],[-71.46115,-32.934967],[-71.461019,-32.934825],[-71.460915,-32.934673],[-71.460868,-32.934586],[-71.460857,-32.934541],[-71.46087,-32.934484],[-71.460928,-32.934409],[-71.460984,-32.934358],[-71.46106,-32.934315],[-71.461149,-32.934291],[-71.461284,-32.934269],[-71.461603,-32.934165],[-71.461914,-32.934089],[-71.462271,-32.934042],[-71.462457,-32.934],[-71.462612,-32.933929],[-71.462859,-32.933772],[-71.462906,-32.93375],[-71.462984,-32.933722],[-71.463147,-32.933693],[-71.463239,-32.933654],[-71.463338,-32.933576],[-71.463584,-32.93335],[-71.463674,-32.933279],[-71.463777,-32.933242],[-71.463943,-32.933212],[-71.464073,-32.933198],[-71.464165,-32.933204],[-71.464258,-32.933231],[-71.464302,-32.933256],[-71.464382,-32.933317],[-71.464419,-32.933368],[-71.464433,-32.93342],[-71.464389,-32.933628],[-71.464395,-32.933727],[-71.464441,-32.933835],[-71.464555,-32.933996],[-71.464595,-32.934066],[-71.464627,-32.934147],[-71.46465,-32.934252],[-71.464651,-32.934343],[-71.464636,-32.934425],[-71.46455,-32.934675],[-71.464484,-32.934947],[-71.46444,-32.935253],[-71.464448,-32.935302],[-71.464476,-32.935348],[-71.464526,-32.935382],[-71.464911,-32.935578],[-71.464949,-32.935621],[-71.464954,-32.935664],[-71.464934,-32.935712],[-71.464904,-32.935754],[-71.464651,-32.936074],[-71.464512,-32.936208],[-71.464351,-32.936329],[-71.46421,-32.936401],[-71.464075,-32.936446],[-71.463945,-32.936462],[-71.46372,-32.936461],[-71.463657,-32.936468],[-71.463618,-32.936481],[-71.463609,-32.9365],[-71.463611,-32.936522],[-71.46368,-32.936613],[-71.463723,-32.936701],[-71.463808,-32.936994],[-71.463858,-32.937124],[-71.463897,-32.937163],[-71.463951,-32.937159],[-71.464029,-32.937117],[-71.464278,-32.936947],[-71.464369,-32.936903],[-71.464726,-32.936806],[-71.464796,-32.936791],[-71.464847,-32.936789],[-71.464887,-32.936799],[-71.464951,-32.936842],[-71.465009,-32.936911],[-71.465116,-32.937082],[-71.465174,-32.937159],[-71.465261,-32.937249],[-71.465293,-32.937269],[-71.465322,-32.937274],[-71.465354,-32.937258],[-71.465391,-32.937207],[-71.465433,-32.937113],[-71.465506,-32.936886],[-71.46557,-32.936754],[-71.46561,-32.936703],[-71.465652,-32.936669],[-71.465756,-32.936619],[-71.465881,-32.936592],[-71.466016,-32.936591],[-71.466106,-32.936611],[-71.466195,-32.936662],[-71.466287,-32.936685],[-71.466728,-32.936703],[-71.466875,-32.936692],[-71.467186,-32.936634],[-71.467339,-32.936627],[-71.467416,-32.936641],[-71.467469,-32.936662],[-71.467589,-32.936739],[-71.467642,-32.936793],[-71.467659,-32.936835],[-71.467665,-32.936883],[-71.467628,-32.937048],[-71.467634,-32.937108],[-71.467682,-32.937154],[-71.467815,-32.937234],[-71.467869,-32.937289],[-71.467915,-32.937377],[-71.46799,-32.937561],[-71.468071,-32.937921],[-71.468069,-32.93801],[-71.468038,-32.938093],[-71.467944,-32.938238],[-71.46773,-32.938463],[-71.467627,-32.938584],[-71.467564,-32.938683],[-71.467427,-32.938953],[-71.467385,-32.939021],[-71.467289,-32.939133],[-71.467099,-32.939318],[-71.467043,-32.939396],[-71.467,-32.939487],[-71.46687,-32.939899],[-71.46675,-32.940371],[-71.466687,-32.940527],[-71.466682,-32.940563],[-71.466692,-32.940622],[-71.466738,-32.94073],[-71.466772,-32.940791],[-71.466795,-32.940815],[-71.466827,-32.940834],[-71.467054,-32.940969],[-71.467127,-32.940995],[-71.467184,-32.940989],[-71.467204,-32.940971],[-71.467217,-32.94094],[-71.467216,-32.94089],[-71.467199,-32.940828],[-71.467163,-32.940719],[-71.46714,-32.940585],[-71.467142,-32.940473],[-71.467181,-32.940353],[-71.467231,-32.940235],[-71.467282,-32.940143],[-71.467352,-32.940038],[-71.467547,-32.939857],[-71.467674,-32.939725],[-71.467863,-32.939565],[-71.467905,-32.939539],[-71.468013,-32.939494],[-71.468042,-32.939449],[-71.468055,-32.939358],[-71.46807,-32.939318],[-71.468168,-32.939169],[-71.468226,-32.939094],[-71.468361,-32.938958],[-71.468551,-32.938742],[-71.468942,-32.938384],[-71.469068,-32.938315],[-71.46909,-32.938292],[-71.469106,-32.93826],[-71.469144,-32.938098],[-71.469193,-32.937942],[-71.469204,-32.937879],[-71.469199,-32.937787],[-71.469147,-32.937604],[-71.469144,-32.937534],[-71.469155,-32.937471],[-71.469173,-32.937428],[-71.469207,-32.937382],[-71.469341,-32.937246],[-71.469379,-32.937199],[-71.469397,-32.937153],[-71.469337,-32.937106],[-71.46917,-32.937055],[-71.469104,-32.937016],[-71.469017,-32.936923],[-71.468928,-32.936792],[-71.468891,-32.936705],[-71.468865,-32.936607],[-71.468854,-32.936521],[-71.468848,-32.936375],[-71.46883,-32.936296],[-71.468709,-32.936027],[-71.468682,-32.935949],[-71.468675,-32.935883],[-71.468683,-32.935842],[-71.468705,-32.935804],[-71.468735,-32.935772],[-71.468786,-32.935734],[-71.468989,-32.935621],[-71.469094,-32.935585],[-71.469202,-32.935572],[-71.46926,-32.935575],[-71.469349,-32.935597],[-71.469577,-32.935693],[-71.46989,-32.935801],[-71.469995,-32.935811],[-71.470209,-32.935788],[-71.470282,-32.935793],[-71.470352,-32.935808],[-71.470521,-32.935875],[-71.470624,-32.935944],[-71.470659,-32.935982],[-71.470683,-32.936027],[-71.470875,-32.936431],[-71.470912,-32.936471],[-71.470943,-32.936492],[-71.470995,-32.9365],[-71.471027,-32.936487],[-71.471114,-32.936394],[-71.471197,-32.936342],[-71.471237,-32.936302],[-71.471233,-32.936239],[-71.471178,-32.93612],[-71.471171,-32.936071],[-71.471173,-32.936027],[-71.471211,-32.935864],[-71.471307,-32.935665],[-71.471327,-32.935564],[-71.471317,-32.935532],[-71.47129,-32.935501],[-71.471264,-32.935487],[-71.471106,-32.935449],[-71.471064,-32.935417],[-71.470902,-32.935192],[-71.470865,-32.935126],[-71.470847,-32.93505],[-71.470857,-32.935011],[-71.470897,-32.934961],[-71.470949,-32.934923],[-71.471067,-32.934859],[-71.471098,-32.934844],[-71.471359,-32.934721],[-71.471425,-32.934678],[-71.47147,-32.934633],[-71.471488,-32.934562],[-71.471477,-32.93433],[-71.471485,-32.934268],[-71.471512,-32.934201],[-71.471558,-32.934135],[-71.471705,-32.934012],[-71.471739,-32.933957],[-71.47175,-32.933881],[-71.471735,-32.933718],[-71.471739,-32.933644],[-71.471781,-32.933547],[-71.471851,-32.933459],[-71.47206,-32.93324],[-71.472191,-32.93313],[-71.472279,-32.933078],[-71.472566,-32.932933],[-71.472731,-32.93283],[-71.472859,-32.93278],[-71.472915,-32.932775],[-71.472998,-32.932784],[-71.473179,-32.932851],[-71.473251,-32.932858],[-71.47331,-32.932837],[-71.473396,-32.932776],[-71.473447,-32.932752],[-71.473588,-32.932727],[-71.473803,-32.932643],[-71.473995,-32.932593],[-71.474102,-32.932579],[-71.474194,-32.932581],[-71.474262,-32.932595],[-71.474348,-32.932638],[-71.474417,-32.932693],[-71.474509,-32.932783],[-71.47457,-32.932861],[-71.474597,-32.932916],[-71.47461,-32.932967],[-71.47461,-32.933012],[-71.474571,-32.933179],[-71.474572,-32.933234],[-71.474622,-32.93329],[-71.474787,-32.933366],[-71.474843,-32.9334],[-71.474914,-32.933459],[-71.474959,-32.933505],[-71.474989,-32.933548],[-71.475007,-32.933595],[-71.475043,-32.933718],[-71.475041,-32.933792],[-71.47501,-32.933872],[-71.474974,-32.933929],[-71.474921,-32.933979],[-71.474847,-32.934025],[-71.47475,-32.934064],[-71.474619,-32.934112],[-71.474475,-32.934185],[-71.474373,-32.934249],[-71.474313,-32.934293],[-71.474283,-32.934328],[-71.474263,-32.934373],[-71.474259,-32.934412],[-71.474275,-32.934444],[-71.474317,-32.934455],[-71.47443,-32.93446],[-71.474662,-32.934443],[-71.474961,-32.93442],[-71.475077,-32.934424],[-71.475198,-32.934441],[-71.47531,-32.934464],[-71.475388,-32.934492],[-71.475464,-32.934535],[-71.47574,-32.934751],[-71.475831,-32.934844],[-71.475869,-32.934897],[-71.475958,-32.935065],[-71.476069,-32.935216],[-71.476121,-32.935322],[-71.476154,-32.93541],[-71.476173,-32.935485],[-71.476211,-32.935752],[-71.476198,-32.935847],[-71.476176,-32.935891],[-71.476084,-32.935982],[-71.476058,-32.936021],[-71.476055,-32.936058],[-71.476063,-32.936164],[-71.47604,-32.936274],[-71.476001,-32.936389],[-71.475963,-32.936466],[-71.475882,-32.936567],[-71.475858,-32.936612],[-71.475854,-32.936656],[-71.475887,-32.936788],[-71.47589,-32.936851],[-71.475873,-32.937203],[-71.475863,-32.937268],[-71.475828,-32.937384],[-71.475821,-32.937429],[-71.475826,-32.937468],[-71.475839,-32.93747],[-71.475859,-32.937449],[-71.475914,-32.937424],[-71.475974,-32.93738],[-71.476064,-32.93729],[-71.476119,-32.937213],[-71.476153,-32.937153],[-71.476227,-32.936954],[-71.4763,-32.936789],[-71.476336,-32.936619],[-71.476354,-32.936567],[-71.476377,-32.936521],[-71.476417,-32.93647],[-71.476471,-32.936419],[-71.476558,-32.936363],[-71.476799,-32.936264],[-71.476922,-32.936194],[-71.477012,-32.936164],[-71.477039,-32.936148],[-71.477059,-32.936124],[-71.477067,-32.936068],[-71.477053,-32.935938],[-71.477053,-32.935845],[-71.477095,-32.935493],[-71.477071,-32.93528],[-71.477073,-32.935146],[-71.477065,-32.935031],[-71.47707,-32.934964],[-71.477099,-32.934876],[-71.477142,-32.934827],[-71.477183,-32.934806],[-71.477217,-32.934798],[-71.477284,-32.934801],[-71.477324,-32.934812],[-71.477366,-32.934836],[-71.477415,-32.934876],[-71.477458,-32.934925],[-71.477528,-32.935035],[-71.4777,-32.935354],[-71.477758,-32.935435],[-71.477842,-32.935531],[-71.477942,-32.935616],[-71.478025,-32.935665],[-71.478313,-32.935771],[-71.47845,-32.935843],[-71.478489,-32.935876],[-71.47854,-32.935936],[-71.478576,-32.936013],[-71.478592,-32.936068],[-71.478601,-32.936159],[-71.478582,-32.936258],[-71.478543,-32.936345],[-71.478381,-32.936611],[-71.478326,-32.936667],[-71.478131,-32.936757],[-71.478071,-32.936794],[-71.477998,-32.936852],[-71.477954,-32.936899],[-71.477899,-32.936977],[-71.477863,-32.937059],[-71.477865,-32.937113],[-71.47792,-32.937115],[-71.478045,-32.937041],[-71.478121,-32.93701],[-71.478164,-32.937006],[-71.478226,-32.937015],[-71.478301,-32.93706],[-71.478404,-32.937197],[-71.478477,-32.937241],[-71.478627,-32.937293],[-71.478922,-32.937353],[-71.479035,-32.937401],[-71.479123,-32.937454],[-71.479195,-32.937513],[-71.479316,-32.937657],[-71.479452,-32.937787],[-71.479528,-32.937909],[-71.479576,-32.938054],[-71.479611,-32.938091],[-71.479635,-32.938108],[-71.479693,-32.938125],[-71.479726,-32.938114],[-71.479759,-32.938095],[-71.479779,-32.938063],[-71.479782,-32.938007],[-71.479773,-32.937965],[-71.47972,-32.937866],[-71.479609,-32.937691],[-71.479529,-32.937546],[-71.479457,-32.937444],[-71.47941,-32.937284],[-71.4794,-32.937119],[-71.479424,-32.936929],[-71.479427,-32.936751],[-71.479441,-32.936625],[-71.479479,-32.936512],[-71.479562,-32.936344],[-71.479633,-32.936178],[-71.479673,-32.93604],[-71.479672,-32.93593],[-71.479635,-32.935752],[-71.47963,-32.935661],[-71.479645,-32.935554],[-71.479694,-32.935352],[-71.479703,-32.935291],[-71.479701,-32.935264],[-71.479682,-32.935217],[-71.479577,-32.93508],[-71.479535,-32.934989],[-71.479471,-32.934678],[-71.479459,-32.934538],[-71.479462,-32.934494],[-71.479478,-32.934439],[-71.479573,-32.934309],[-71.479603,-32.934249],[-71.479667,-32.933955],[-71.479765,-32.933651],[-71.479804,-32.933551],[-71.479834,-32.933416],[-71.479848,-32.933394],[-71.479889,-32.933366],[-71.479965,-32.933354],[-71.480034,-32.93336],[-71.48024,-32.933405],[-71.480283,-32.933403],[-71.480341,-32.933367],[-71.4804,-32.933275],[-71.480422,-32.933193],[-71.480421,-32.933057],[-71.480427,-32.932999],[-71.480441,-32.932958],[-71.480506,-32.932829],[-71.480524,-32.93274],[-71.480517,-32.932655],[-71.480484,-32.932506],[-71.480471,-32.932409],[-71.480465,-32.932246],[-71.480477,-32.932166],[-71.480499,-32.932106],[-71.480586,-32.931925],[-71.480652,-32.931692],[-71.480791,-32.931351],[-71.480841,-32.931254],[-71.480879,-32.931201],[-71.480928,-32.93116],[-71.480956,-32.931147],[-71.481057,-32.93112],[-71.481316,-32.931101],[-71.481655,-32.931064],[-71.481924,-32.931013],[-71.482287,-32.931019],[-71.482465,-32.931065],[-71.482645,-32.931101],[-71.482823,-32.931157],[-71.483005,-32.931193],[-71.483047,-32.931209],[-71.483086,-32.931236],[-71.48313,-32.931286],[-71.48321,-32.931458],[-71.483236,-32.93156],[-71.483247,-32.931767],[-71.483278,-32.931965],[-71.483289,-32.932081],[-71.483294,-32.932242],[-71.483285,-32.932374],[-71.48327,-32.932435],[-71.483228,-32.932496],[-71.483045,-32.932665],[-71.482976,-32.932709],[-71.482885,-32.932737],[-71.482444,-32.932817],[-71.482192,-32.932901],[-71.481958,-32.932959],[-71.48182,-32.93301],[-71.481757,-32.933052],[-71.481728,-32.933085],[-71.481696,-32.933145],[-71.481683,-32.933192],[-71.48167,-32.933278],[-71.481671,-32.933345],[-71.481695,-32.933459],[-71.48179,-32.933725],[-71.481803,-32.933817],[-71.481805,-32.933908],[-71.481794,-32.934039],[-71.481752,-32.934266],[-71.481672,-32.93454],[-71.481671,-32.934607],[-71.481688,-32.934675],[-71.481738,-32.934725],[-71.481804,-32.934737],[-71.481871,-32.934733],[-71.481934,-32.934719],[-71.482024,-32.934685],[-71.482186,-32.934593],[-71.482257,-32.934562],[-71.4825,-32.934492],[-71.482689,-32.934451],[-71.482781,-32.934439],[-71.483075,-32.934438],[-71.483165,-32.934449],[-71.483223,-32.934464],[-71.48336,-32.934525],[-71.483452,-32.934585],[-71.483748,-32.934808],[-71.483889,-32.934939],[-71.484034,-32.93511],[-71.484168,-32.935305],[-71.48427,-32.935486],[-71.484335,-32.935647],[-71.484385,-32.935851],[-71.484419,-32.936071],[-71.484417,-32.936182],[-71.484397,-32.93625],[-71.484365,-32.936311],[-71.484325,-32.93636],[-71.484253,-32.936424],[-71.484177,-32.936469],[-71.484044,-32.936527],[-71.483909,-32.936617],[-71.483764,-32.936671],[-71.48371,-32.936705],[-71.483669,-32.936751],[-71.483411,-32.937113],[-71.483365,-32.937156],[-71.483244,-32.937242],[-71.483213,-32.937274],[-71.483197,-32.937307],[-71.483201,-32.937333],[-71.483247,-32.937378],[-71.483332,-32.937425],[-71.483569,-32.937512],[-71.483651,-32.937563],[-71.48369,-32.937619],[-71.483741,-32.937804],[-71.483765,-32.937859],[-71.483812,-32.937904],[-71.483856,-32.93792],[-71.483922,-32.937892],[-71.483946,-32.937873],[-71.483979,-32.937831],[-71.483997,-32.937791],[-71.484036,-32.937664],[-71.48408,-32.937601],[-71.48416,-32.93755],[-71.484276,-32.93752],[-71.48443,-32.937507],[-71.484536,-32.93751],[-71.484591,-32.937522],[-71.484715,-32.937566],[-71.484805,-32.937644],[-71.48486,-32.937703],[-71.484913,-32.937781],[-71.484955,-32.93787],[-71.484971,-32.937957],[-71.484993,-32.938308],[-71.484989,-32.938408],[-71.484942,-32.938646],[-71.484914,-32.938707],[-71.484858,-32.938772],[-71.484803,-32.93882],[-71.484397,-32.939135],[-71.484351,-32.939179],[-71.484336,-32.939208],[-71.484329,-32.939228],[-71.484351,-32.939249],[-71.484378,-32.939255],[-71.484643,-32.939243],[-71.484757,-32.939245],[-71.484853,-32.939258],[-71.484894,-32.939269],[-71.484939,-32.939291],[-71.485028,-32.939359],[-71.485075,-32.939423],[-71.485113,-32.93953],[-71.48512,-32.939634],[-71.485103,-32.939723],[-71.485063,-32.939815],[-71.484896,-32.94004],[-71.484773,-32.940232],[-71.48473,-32.940278],[-71.484515,-32.940469],[-71.484208,-32.940793],[-71.484202,-32.940808],[-71.48422,-32.940831],[-71.484268,-32.940841],[-71.484418,-32.94082],[-71.484532,-32.940778],[-71.4846,-32.940732],[-71.48471,-32.940619],[-71.484769,-32.940575],[-71.485079,-32.940392],[-71.485164,-32.940352],[-71.485252,-32.940324],[-71.485314,-32.940316],[-71.485473,-32.940315],[-71.485607,-32.940305],[-71.485699,-32.94031],[-71.485826,-32.940342],[-71.486064,-32.940444],[-71.486122,-32.940448],[-71.486153,-32.940441],[-71.48618,-32.940424],[-71.486292,-32.940309],[-71.486321,-32.940264],[-71.48633,-32.940223],[-71.48632,-32.940175],[-71.48629,-32.940105],[-71.486159,-32.939901],[-71.486135,-32.939813],[-71.48614,-32.939613],[-71.486109,-32.939363],[-71.486111,-32.939275],[-71.486147,-32.93914],[-71.486204,-32.939049],[-71.486289,-32.938972],[-71.486407,-32.938895],[-71.486621,-32.938786],[-71.486737,-32.938743],[-71.486906,-32.93872],[-71.48729,-32.938729],[-71.487536,-32.938719],[-71.487664,-32.938704],[-71.487697,-32.938693],[-71.487719,-32.938668],[-71.48777,-32.938536],[-71.487769,-32.938509],[-71.487759,-32.938486],[-71.487679,-32.938362],[-71.487587,-32.938262],[-71.48748,-32.938178],[-71.487383,-32.93811],[-71.487346,-32.938062],[-71.48732,-32.93798],[-71.487321,-32.937901],[-71.487334,-32.937854],[-71.487377,-32.937776],[-71.487415,-32.937732],[-71.487603,-32.93765],[-71.487669,-32.937634],[-71.487705,-32.937618],[-71.487735,-32.937596],[-71.487762,-32.937541],[-71.487791,-32.937306],[-71.487805,-32.937245],[-71.487826,-32.937193],[-71.487909,-32.937059],[-71.487929,-32.937015],[-71.487936,-32.936972],[-71.487926,-32.936927],[-71.487891,-32.936884],[-71.487822,-32.936842],[-71.487587,-32.93679],[-71.487486,-32.936746],[-71.487295,-32.936573],[-71.487141,-32.936386],[-71.48709,-32.936257],[-71.487076,-32.936183],[-71.487075,-32.936115],[-71.487084,-32.936007],[-71.487103,-32.935895],[-71.487188,-32.935628],[-71.487186,-32.935565],[-71.487171,-32.93551],[-71.487115,-32.935398],[-71.486985,-32.935218],[-71.486874,-32.935036],[-71.486854,-32.934968],[-71.48684,-32.934824],[-71.486826,-32.934767],[-71.486694,-32.934478],[-71.486636,-32.9344],[-71.486417,-32.934219],[-71.486354,-32.934137],[-71.486303,-32.934044],[-71.486264,-32.933953],[-71.486251,-32.933902],[-71.48625,-32.933858],[-71.486282,-32.933734],[-71.486285,-32.93369],[-71.486279,-32.933643],[-71.48626,-32.933594],[-71.486224,-32.933549],[-71.486072,-32.933426],[-71.485935,-32.933292],[-71.485883,-32.933217],[-71.48584,-32.933097],[-71.485835,-32.933015],[-71.485846,-32.932958],[-71.485881,-32.932868],[-71.48593,-32.932783],[-71.48595,-32.932735],[-71.485952,-32.93269],[-71.485927,-32.932592],[-71.485929,-32.932557],[-71.485957,-32.932469],[-71.486008,-32.932362],[-71.486066,-32.932268],[-71.486151,-32.932157],[-71.4862,-32.932107],[-71.486423,-32.931942],[-71.486553,-32.931876],[-71.486667,-32.931849],[-71.486868,-32.931839],[-71.486915,-32.931845],[-71.486968,-32.931861],[-71.48712,-32.931944],[-71.487279,-32.931977],[-71.487463,-32.93206],[-71.487687,-32.932107],[-71.487872,-32.932188],[-71.487949,-32.932201],[-71.488202,-32.932214],[-71.488285,-32.932206],[-71.48832,-32.932182],[-71.488346,-32.932133],[-71.488395,-32.93193],[-71.488417,-32.931806],[-71.488473,-32.931666],[-71.488536,-32.931587],[-71.488622,-32.931473],[-71.48892,-32.931223],[-71.489139,-32.931081],[-71.489338,-32.930897],[-71.489482,-32.930753],[-71.489558,-32.930707],[-71.489686,-32.930687],[-71.489859,-32.930663],[-71.489987,-32.930641],[-71.490065,-32.930602],[-71.490101,-32.930568],[-71.490125,-32.930489],[-71.490126,-32.930453],[-71.490097,-32.930281],[-71.490098,-32.930237],[-71.490123,-32.930173],[-71.490183,-32.930139],[-71.490249,-32.930133],[-71.490369,-32.930149],[-71.490437,-32.930166],[-71.490641,-32.930242],[-71.490711,-32.930252],[-71.490755,-32.93025],[-71.490964,-32.93021],[-71.491092,-32.930198],[-71.491261,-32.930191]]},"properties":{"OBJECTID":781,"Shape__Length":0.11162988738828987}},{"type":"Feature","id":788,"geometry":{"type":"LineString","coordinates":[[-71.499981,-33.050652],[-71.499946,-33.050697],[-71.499556,-33.051252],[-71.499447,-33.051393],[-71.499391,-33.051449],[-71.499335,-33.051484],[-71.499172,-33.051558],[-71.498948,-33.051681],[-71.498594,-33.051912],[-71.498364,-33.052088],[-71.498272,-33.052146],[-71.498142,-33.052208],[-71.497821,-33.052327],[-71.497509,-33.052427],[-71.497303,-33.052555],[-71.497085,-33.05265],[-71.496814,-33.05272],[-71.496531,-33.052809],[-71.496203,-33.052926],[-71.496022,-33.052969],[-71.495977,-33.052991],[-71.495917,-33.053037],[-71.495847,-33.053075],[-71.495638,-33.053147],[-71.49552,-33.053175],[-71.495283,-33.053202],[-71.495205,-33.05322],[-71.495166,-33.053238],[-71.495127,-33.053266],[-71.494966,-33.053423],[-71.494917,-33.053459],[-71.494858,-33.053491],[-71.494512,-33.053621],[-71.494176,-33.053757],[-71.494022,-33.053832],[-71.49386,-33.053892],[-71.493773,-33.05394],[-71.493646,-33.054038],[-71.493589,-33.054072],[-71.493416,-33.054121],[-71.493355,-33.054153],[-71.493318,-33.054205],[-71.493274,-33.054343],[-71.493253,-33.054387],[-71.493199,-33.054475],[-71.493152,-33.054537],[-71.493059,-33.054622],[-71.49291,-33.054699],[-71.492871,-33.054751],[-71.492794,-33.054926],[-71.492727,-33.055022],[-71.492645,-33.05511],[-71.49244,-33.05531],[-71.492207,-33.055512],[-71.492145,-33.055601],[-71.492117,-33.055691],[-71.492108,-33.055842],[-71.492084,-33.05592],[-71.492039,-33.055988],[-71.491866,-33.056192],[-71.491785,-33.056321],[-71.491741,-33.056413],[-71.491725,-33.056486],[-71.491719,-33.056572],[-71.491721,-33.056663],[-71.491735,-33.056807],[-71.491732,-33.05685],[-71.491714,-33.056908],[-71.491647,-33.057039],[-71.49163,-33.057091],[-71.49161,-33.057406],[-71.491615,-33.05749],[-71.491636,-33.057538],[-71.491682,-33.057581],[-71.491736,-33.057599],[-71.491846,-33.057621],[-71.492129,-33.0576],[-71.492373,-33.057576],[-71.492578,-33.057576],[-71.49267,-33.057597],[-71.492765,-33.057657],[-71.49281,-33.057722],[-71.492807,-33.057793],[-71.492793,-33.05792],[-71.492693,-33.058088],[-71.492643,-33.058153],[-71.492332,-33.058492],[-71.49206,-33.058747],[-71.491922,-33.058848],[-71.491828,-33.058978],[-71.491789,-33.059014],[-71.491722,-33.059054],[-71.491621,-33.05908],[-71.491532,-33.059083],[-71.49143,-33.059066],[-71.491336,-33.059032],[-71.491246,-33.058982],[-71.491158,-33.058912],[-71.491056,-33.058794],[-71.490927,-33.058691],[-71.490902,-33.058664],[-71.490885,-33.058615],[-71.490844,-33.0586],[-71.490527,-33.058649],[-71.49035,-33.058659],[-71.490032,-33.058696],[-71.489762,-33.058695],[-71.489489,-33.058734],[-71.489288,-33.058785],[-71.489063,-33.058876],[-71.488932,-33.058938],[-71.488684,-33.059031],[-71.488427,-33.059089],[-71.488176,-33.059168],[-71.487933,-33.059228],[-71.487737,-33.059301],[-71.487389,-33.059387],[-71.487192,-33.059413],[-71.486746,-33.059526],[-71.486629,-33.059548],[-71.48656,-33.059548],[-71.486484,-33.059525],[-71.486435,-33.059485],[-71.486423,-33.059467],[-71.486414,-33.059417],[-71.486425,-33.059361],[-71.486456,-33.059301],[-71.486556,-33.059158],[-71.486655,-33.059033],[-71.48665,-33.058999],[-71.486635,-33.058984],[-71.486612,-33.058979],[-71.486471,-33.058983],[-71.486451,-33.058985],[-71.485697,-33.05907],[-71.485359,-33.059126],[-71.485253,-33.059137],[-71.48485,-33.059145],[-71.484329,-33.059093],[-71.484242,-33.059099],[-71.484035,-33.059136],[-71.483877,-33.059138],[-71.483798,-33.059154],[-71.483687,-33.059215],[-71.483538,-33.059263],[-71.483451,-33.059319],[-71.483432,-33.059323],[-71.483378,-33.059301],[-71.483279,-33.05922],[-71.483223,-33.059162],[-71.483183,-33.059091],[-71.483166,-33.05901],[-71.483162,-33.058872],[-71.483147,-33.058728],[-71.483156,-33.058667],[-71.483198,-33.058575],[-71.483207,-33.058533],[-71.483202,-33.058464],[-71.483185,-33.058396],[-71.48313,-33.058261],[-71.482964,-33.058002],[-71.482936,-33.057948],[-71.482822,-33.05762],[-71.482762,-33.057495],[-71.482654,-33.05732],[-71.482596,-33.057246],[-71.482531,-33.057179],[-71.482417,-33.0571],[-71.48216,-33.056967],[-71.481559,-33.056688],[-71.481465,-33.056651],[-71.481386,-33.056632],[-71.481278,-33.056635],[-71.481064,-33.056685],[-71.480932,-33.056732],[-71.480701,-33.056835],[-71.480607,-33.056862],[-71.480518,-33.056874],[-71.480339,-33.056879],[-71.480252,-33.05687],[-71.480205,-33.05682],[-71.480174,-33.056745],[-71.480156,-33.056681],[-71.480135,-33.056416],[-71.480087,-33.056244],[-71.480007,-33.05605],[-71.479909,-33.055869],[-71.479787,-33.055708],[-71.47965,-33.055607],[-71.479498,-33.055536],[-71.47932,-33.055458],[-71.479082,-33.055337],[-71.478874,-33.0552],[-71.478755,-33.055146],[-71.478689,-33.055134],[-71.478618,-33.055143],[-71.478591,-33.055176],[-71.478588,-33.055241],[-71.478606,-33.055307],[-71.478698,-33.055438],[-71.479112,-33.055705],[-71.479296,-33.055827],[-71.479433,-33.05594],[-71.479498,-33.056062],[-71.479564,-33.056226],[-71.479588,-33.056357],[-71.479591,-33.056502],[-71.479587,-33.056725],[-71.479578,-33.056812],[-71.479578,-33.056959],[-71.479567,-33.05703],[-71.479523,-33.057165],[-71.479518,-33.057208],[-71.479525,-33.057258],[-71.479559,-33.05731],[-71.479608,-33.057355],[-71.479677,-33.057411],[-71.479802,-33.057495],[-71.480009,-33.057613],[-71.480069,-33.057637],[-71.48011,-33.057646],[-71.480395,-33.057671],[-71.480507,-33.057665],[-71.480611,-33.057648],[-71.480798,-33.057589],[-71.480891,-33.057547],[-71.480971,-33.057493],[-71.481095,-33.057394],[-71.481228,-33.057316],[-71.481291,-33.057272],[-71.481411,-33.057169],[-71.481498,-33.057125],[-71.481559,-33.057112],[-71.481653,-33.057119],[-71.481695,-33.057132],[-71.481739,-33.057156],[-71.481893,-33.057273],[-71.482008,-33.057385],[-71.482063,-33.057463],[-71.48209,-33.057527],[-71.482104,-33.057583],[-71.482147,-33.057943],[-71.482154,-33.058095],[-71.482168,-33.058172],[-71.482235,-33.058352],[-71.482275,-33.058488],[-71.482357,-33.05867],[-71.482405,-33.058807],[-71.482433,-33.058912],[-71.482451,-33.059013],[-71.48246,-33.059253],[-71.482545,-33.059434],[-71.48261,-33.059611],[-71.482657,-33.059705],[-71.482743,-33.059842],[-71.482883,-33.060022],[-71.482975,-33.060111],[-71.483166,-33.060241],[-71.483257,-33.060329],[-71.48329,-33.06038],[-71.483311,-33.060428],[-71.483319,-33.060467],[-71.483318,-33.060518],[-71.48326,-33.060723],[-71.483231,-33.060791],[-71.483194,-33.060843],[-71.483097,-33.060925],[-71.483067,-33.060965],[-71.483049,-33.061017],[-71.483035,-33.061129],[-71.48302,-33.061189],[-71.482982,-33.061281],[-71.482925,-33.061368],[-71.48287,-33.061419],[-71.482744,-33.061503],[-71.482639,-33.061655],[-71.482603,-33.061692],[-71.482548,-33.061729],[-71.482485,-33.061757],[-71.482422,-33.061773],[-71.482321,-33.061787],[-71.482143,-33.061792],[-71.48204,-33.061824],[-71.481997,-33.061869],[-71.481967,-33.061948],[-71.481945,-33.062137],[-71.481931,-33.062197],[-71.4819,-33.062251],[-71.481852,-33.062293],[-71.480997,-33.062792],[-71.480402,-33.063093],[-71.480294,-33.06314],[-71.480167,-33.063175],[-71.480101,-33.063204],[-71.479952,-33.06332],[-71.479725,-33.063454],[-71.479635,-33.063498],[-71.479372,-33.063596],[-71.479235,-33.063639],[-71.478929,-33.063701],[-71.478852,-33.063722],[-71.478131,-33.063981],[-71.478051,-33.064025],[-71.477968,-33.064151],[-71.477907,-33.064322],[-71.477821,-33.064498],[-71.477711,-33.064646],[-71.477507,-33.064812],[-71.47728,-33.064931],[-71.477193,-33.064964],[-71.477074,-33.064994],[-71.476612,-33.065068],[-71.476345,-33.06507],[-71.47605,-33.065059],[-71.47597,-33.065064],[-71.475709,-33.065107],[-71.475517,-33.065112],[-71.475392,-33.0651],[-71.475246,-33.065076],[-71.475163,-33.065048],[-71.474904,-33.064938],[-71.474692,-33.064868],[-71.474616,-33.06485],[-71.474353,-33.064771],[-71.474171,-33.064691],[-71.473673,-33.064412],[-71.473629,-33.064386],[-71.47359,-33.064379],[-71.473554,-33.064388],[-71.473533,-33.064424],[-71.473528,-33.064598],[-71.473533,-33.064661],[-71.473511,-33.064795],[-71.47346,-33.064914],[-71.47333,-33.065059],[-71.47317,-33.065193],[-71.473134,-33.06522],[-71.473014,-33.06535],[-71.472942,-33.065415],[-71.472772,-33.065514],[-71.472723,-33.065556],[-71.472682,-33.065605],[-71.472634,-33.06569],[-71.47255,-33.065746],[-71.472546,-33.065747],[-71.472452,-33.06577],[-71.472303,-33.065782],[-71.472116,-33.065749],[-71.471979,-33.065708],[-71.471679,-33.065577],[-71.471577,-33.065528],[-71.471399,-33.065443],[-71.4712,-33.065351],[-71.470992,-33.065288],[-71.470772,-33.06525],[-71.470501,-33.065211],[-71.470257,-33.065211],[-71.469954,-33.065226],[-71.469707,-33.065271],[-71.469537,-33.065333],[-71.469341,-33.065491],[-71.46924,-33.06563],[-71.469145,-33.065809],[-71.469029,-33.066056],[-71.46899,-33.066169],[-71.468975,-33.066279],[-71.468999,-33.066362],[-71.469103,-33.066493],[-71.469549,-33.066868],[-71.469692,-33.067034],[-71.469953,-33.067365],[-71.47007,-33.067452],[-71.470227,-33.067544],[-71.470273,-33.06759],[-71.470287,-33.067637],[-71.470277,-33.067658],[-71.470259,-33.067686],[-71.470208,-33.067726],[-71.470037,-33.067823],[-71.469872,-33.06789],[-71.469729,-33.06792],[-71.46944,-33.067949],[-71.469297,-33.067988],[-71.469237,-33.068017],[-71.469185,-33.068053],[-71.469008,-33.068165],[-71.468922,-33.068197],[-71.468645,-33.068239],[-71.468383,-33.068251],[-71.468077,-33.068284],[-71.467759,-33.068361],[-71.467455,-33.068498],[-71.467125,-33.068703],[-71.466923,-33.068875],[-71.466753,-33.069063],[-71.466599,-33.069314],[-71.46655,-33.069384],[-71.466443,-33.06957],[-71.466394,-33.069634],[-71.466301,-33.06972],[-71.466174,-33.06982],[-71.465877,-33.070019],[-71.465615,-33.070207],[-71.465563,-33.070263],[-71.465394,-33.070482],[-71.465304,-33.070571],[-71.465203,-33.070625],[-71.464975,-33.070694],[-71.464871,-33.070743],[-71.464741,-33.070835],[-71.464564,-33.071015],[-71.464446,-33.071109],[-71.464348,-33.071168],[-71.464186,-33.071252],[-71.463964,-33.071346],[-71.46351,-33.071432],[-71.463381,-33.071443],[-71.4632,-33.071441],[-71.46308,-33.071426],[-71.462903,-33.071389],[-71.462607,-33.071296],[-71.462301,-33.07122],[-71.462205,-33.071211],[-71.461941,-33.07122],[-71.461845,-33.071211],[-71.461769,-33.071186],[-71.461688,-33.071144],[-71.461512,-33.070986],[-71.461449,-33.070916],[-71.461389,-33.070837],[-71.46131,-33.070696],[-71.461283,-33.070668],[-71.461237,-33.070663],[-71.461196,-33.070679],[-71.461147,-33.07071],[-71.461116,-33.070739],[-71.461077,-33.070807],[-71.461036,-33.070922],[-71.461036,-33.070968],[-71.461043,-33.070995],[-71.461085,-33.071054],[-71.461155,-33.071118],[-71.461362,-33.071277],[-71.461658,-33.071558],[-71.462039,-33.071862],[-71.462126,-33.071953],[-71.462268,-33.072128],[-71.462444,-33.072269],[-71.462639,-33.072355],[-71.462741,-33.072374],[-71.463008,-33.072368],[-71.463402,-33.072324],[-71.463736,-33.072273],[-71.464164,-33.072182],[-71.464462,-33.072093],[-71.464876,-33.07196],[-71.46498,-33.071914],[-71.46505,-33.071869],[-71.46511,-33.071819],[-71.465318,-33.071576],[-71.465413,-33.071493],[-71.465547,-33.071403],[-71.465758,-33.071293],[-71.465838,-33.071241],[-71.466057,-33.071054],[-71.466355,-33.070813],[-71.466462,-33.070752],[-71.466539,-33.070729],[-71.466562,-33.070729],[-71.46659,-33.070743],[-71.4666,-33.070764],[-71.466602,-33.070788],[-71.466529,-33.071011],[-71.466483,-33.071101],[-71.466423,-33.071178],[-71.466274,-33.071316],[-71.466238,-33.07137],[-71.466218,-33.071463],[-71.466211,-33.07164],[-71.466193,-33.07173],[-71.466166,-33.071798],[-71.466127,-33.071868],[-71.466079,-33.071933],[-71.466035,-33.071978],[-71.465714,-33.072227],[-71.46541,-33.072481],[-71.465226,-33.07261],[-71.465083,-33.07269],[-71.464956,-33.072744],[-71.464574,-33.07286],[-71.464391,-33.072948],[-71.464258,-33.07304],[-71.464006,-33.073237],[-71.463897,-33.07331],[-71.463848,-33.073351],[-71.463761,-33.073444],[-71.463628,-33.073672],[-71.463539,-33.073853],[-71.463493,-33.073968],[-71.46347,-33.074055],[-71.463422,-33.074189],[-71.463376,-33.074279],[-71.463357,-33.074301],[-71.463282,-33.074455],[-71.463247,-33.074508],[-71.463202,-33.074551],[-71.463113,-33.074618],[-71.46304,-33.074705],[-71.463025,-33.074736],[-71.462994,-33.074753],[-71.463035,-33.074765],[-71.463169,-33.074755],[-71.463302,-33.074709],[-71.463401,-33.074638],[-71.463542,-33.074576],[-71.463602,-33.074525],[-71.463806,-33.074322],[-71.464117,-33.07398],[-71.464277,-33.07378],[-71.46437,-33.073694],[-71.464453,-33.073637],[-71.464597,-33.073562],[-71.464795,-33.073488],[-71.464887,-33.073444],[-71.465316,-33.073197],[-71.465547,-33.073071],[-71.46564,-33.07303],[-71.465741,-33.073005],[-71.465828,-33.072998],[-71.465876,-33.073006],[-71.465979,-33.073039],[-71.46602,-33.073035],[-71.46606,-33.072994],[-71.466158,-33.072869],[-71.466305,-33.072588],[-71.466351,-33.07252],[-71.466413,-33.072446],[-71.466482,-33.07238],[-71.466552,-33.072327],[-71.466641,-33.072281],[-71.466751,-33.07224],[-71.466777,-33.072225],[-71.466796,-33.072202],[-71.466813,-33.072143],[-71.466838,-33.072091],[-71.467008,-33.071871],[-71.467094,-33.07173],[-71.467141,-33.071643],[-71.467224,-33.071453],[-71.46729,-33.071343],[-71.46735,-33.071264],[-71.4676,-33.070976],[-71.467789,-33.070716],[-71.467954,-33.070519],[-71.46816,-33.070227],[-71.468251,-33.07014],[-71.468517,-33.069931],[-71.468666,-33.069789],[-71.468763,-33.069726],[-71.468881,-33.069599],[-71.4691,-33.069412],[-71.469212,-33.069343],[-71.469303,-33.069275],[-71.46947,-33.069106],[-71.469591,-33.069],[-71.469923,-33.068749],[-71.470024,-33.068688],[-71.470116,-33.068649],[-71.470391,-33.068572],[-71.470532,-33.068555],[-71.470626,-33.068543],[-71.470748,-33.068517],[-71.471153,-33.068355],[-71.471265,-33.068333],[-71.471312,-33.068337],[-71.471377,-33.068357],[-71.471444,-33.0684],[-71.471614,-33.068539],[-71.471782,-33.068629],[-71.471877,-33.068658],[-71.471994,-33.068656],[-71.472036,-33.068627],[-71.472046,-33.068542],[-71.472036,-33.068399],[-71.471984,-33.06827],[-71.471937,-33.068123],[-71.471875,-33.067961],[-71.471799,-33.067856],[-71.471684,-33.067718],[-71.471513,-33.06758],[-71.471299,-33.067419],[-71.471085,-33.067209],[-71.470771,-33.066952],[-71.470642,-33.066857],[-71.470547,-33.066748],[-71.47048,-33.066657],[-71.470437,-33.066566],[-71.470391,-33.06642],[-71.47039,-33.066365],[-71.470402,-33.066279],[-71.470429,-33.066207],[-71.470472,-33.066153],[-71.470504,-33.066134],[-71.470564,-33.066118],[-71.470629,-33.066116],[-71.470877,-33.066159],[-71.471041,-33.066172],[-71.471107,-33.066188],[-71.471241,-33.06624],[-71.471579,-33.066394],[-71.471756,-33.066508],[-71.472142,-33.066702],[-71.472311,-33.066774],[-71.472416,-33.066807],[-71.472769,-33.066872],[-71.472909,-33.066891],[-71.47309,-33.066893],[-71.473486,-33.066915],[-71.473772,-33.066911],[-71.473895,-33.066922],[-71.47431,-33.06699],[-71.474533,-33.067042],[-71.474653,-33.06709],[-71.474846,-33.067198],[-71.474896,-33.067218],[-71.475064,-33.067232],[-71.475217,-33.067231],[-71.475268,-33.067241],[-71.475383,-33.067281],[-71.475448,-33.067285],[-71.475794,-33.067256],[-71.475971,-33.067227],[-71.476173,-33.067182],[-71.476494,-33.067077],[-71.476633,-33.067039],[-71.476777,-33.067007],[-71.476879,-33.066993],[-71.476964,-33.067003],[-71.477144,-33.067138],[-71.47721,-33.067156],[-71.47725,-33.067151],[-71.477275,-33.067133],[-71.477289,-33.067107],[-71.477397,-33.066824],[-71.477404,-33.066762],[-71.477389,-33.066596],[-71.477408,-33.066512],[-71.477442,-33.066441],[-71.477533,-33.066308],[-71.477767,-33.066049],[-71.477914,-33.065915],[-71.478001,-33.065857],[-71.478201,-33.06576],[-71.478447,-33.065603],[-71.478536,-33.065569],[-71.478596,-33.065564],[-71.478674,-33.065595],[-71.478971,-33.065873],[-71.479024,-33.065915],[-71.479319,-33.066061],[-71.479375,-33.066102],[-71.479513,-33.066235],[-71.479584,-33.066298],[-71.479636,-33.066317],[-71.479675,-33.066315],[-71.479722,-33.066291],[-71.479748,-33.06625],[-71.479767,-33.0662],[-71.47977,-33.066124],[-71.47976,-33.06605],[-71.479732,-33.065946],[-71.479691,-33.065841],[-71.479632,-33.065732],[-71.479577,-33.065589],[-71.479497,-33.065371],[-71.479463,-33.065226],[-71.479453,-33.06505],[-71.479463,-33.064903],[-71.47951,-33.064722],[-71.479586,-33.064579],[-71.479669,-33.06448],[-71.47984,-33.064384],[-71.480012,-33.0643],[-71.480131,-33.064253],[-71.480288,-33.064203],[-71.480463,-33.064156],[-71.480887,-33.06406],[-71.481111,-33.064013],[-71.481283,-33.06399],[-71.481338,-33.063975],[-71.481423,-33.063938],[-71.481731,-33.063752],[-71.48185,-33.063688],[-71.482219,-33.063522],[-71.482447,-33.063434],[-71.4826,-33.063356],[-71.482742,-33.063312],[-71.482897,-33.0633],[-71.482956,-33.063289],[-71.483041,-33.063259],[-71.483103,-33.063227],[-71.483184,-33.063175],[-71.483386,-33.06302],[-71.483946,-33.062676],[-71.484217,-33.062496],[-71.484424,-33.062346],[-71.484712,-33.06218],[-71.484939,-33.062026],[-71.48512,-33.06194],[-71.485369,-33.061759],[-71.485671,-33.061594],[-71.485932,-33.061462],[-71.486743,-33.060949],[-71.486989,-33.060809],[-71.487296,-33.06066],[-71.487575,-33.060538],[-71.488108,-33.060345],[-71.48842,-33.060252],[-71.488846,-33.060055],[-71.489304,-33.059881],[-71.489486,-33.059837],[-71.489566,-33.059832],[-71.489627,-33.059836],[-71.489804,-33.059884],[-71.490027,-33.059981],[-71.490151,-33.060009],[-71.490697,-33.060067],[-71.49106,-33.060049],[-71.491346,-33.059996],[-71.491744,-33.059883],[-71.492288,-33.059662],[-71.492522,-33.059535],[-71.492879,-33.059308],[-71.493009,-33.059213],[-71.493157,-33.05909],[-71.493203,-33.059047],[-71.493364,-33.058867],[-71.493549,-33.058716],[-71.493631,-33.058665],[-71.493771,-33.058624],[-71.493813,-33.058599],[-71.493857,-33.05855],[-71.493878,-33.058505],[-71.493916,-33.058454],[-71.493991,-33.058393],[-71.494176,-33.058173],[-71.494287,-33.058012],[-71.494309,-33.057991],[-71.494443,-33.057808],[-71.49447,-33.057722],[-71.494477,-33.057635],[-71.494469,-33.057519],[-71.494449,-33.057386],[-71.494467,-33.057261],[-71.49452,-33.057151],[-71.494627,-33.057035],[-71.49548,-33.056525],[-71.495691,-33.056401],[-71.495842,-33.056324],[-71.495864,-33.056303],[-71.495949,-33.056249],[-71.496066,-33.056188],[-71.496404,-33.055985],[-71.496611,-33.055876],[-71.496942,-33.055664],[-71.49726,-33.055489],[-71.497561,-33.055339],[-71.498028,-33.055043],[-71.498363,-33.054881],[-71.498885,-33.054594],[-71.499037,-33.054519],[-71.4992,-33.054414],[-71.499356,-33.054342],[-71.499769,-33.054123],[-71.50022,-33.053871]]},"properties":{"OBJECTID":788,"Shape__Length":0.13541214490513773}}]}