{"type":"FeatureCollection","features":[{"type":"Feature","id":407,"geometry":{"type":"LineString","coordinates":[[-71.541293,-32.929441],[-71.541567,-32.929702],[-71.541634,-32.929767],[-71.541733,-32.92986],[-71.541908,-32.929986],[-71.542138,-32.930183],[-71.542241,-32.930445]]},"properties":{"OBJECTID":407,"name":"05103VE041","nom_reg":"Valparaíso","nom_prov":"Valparaíso","nom_com":"Concón","nombre_ve":" ","sector":"Concon","tipo":"Vía de Evacuación","cine_reg":"05","cine_prov":"051","cine_com":"05103","Shape__Length":0.0014070311363607916}},{"type":"Feature","id":415,"geometry":{"type":"LineString","coordinates":[[-71.538965,-32.930163],[-71.539203,-32.930325],[-71.539458,-32.930238],[-71.539549,-32.930333],[-71.539718,-32.930496],[-71.539988,-32.930755]]},"properties":{"OBJECTID":415,"name":"05103VE035","nom_reg":"Valparaíso","nom_prov":"Valparaíso","nom_com":"Concón","nombre_ve":" ","sector":"Concon","tipo":"Vía de Evacuación","cine_reg":"05","cine_prov":"051","cine_com":"05103","Shape__Length":0.0012975994175983693}},{"type":"Feature","id":416,"geometry":{"type":"LineString","coordinates":[[-71.55068,-32.930356],[-71.550668,-32.930195],[-71.550698,-32.930047],[-71.550819,-32.929897],[-71.550893,-32.929768],[-71.550872,-32.929646],[-71.55087,-32.929633],[-71.5508,-32.929537],[-71.550723,-32.929408],[-71.550653,-32.929307],[-71.550548,-32.929196],[-71.550481,-32.929133],[-71.550342,-32.929096],[-71.550203,-32.929099],[-71.550091,-32.929122],[-71.550017,-32.929188],[-71.54998,-32.92922],[-71.549945,-32.929295],[-71.549934,-32.92937],[-71.54995,-32.929486]]},"properties":{"OBJECTID":416,"name":"05103VE034","nom_reg":"Valparaíso","nom_prov":"Valparaíso","nom_com":"Concón","nombre_ve":" ","sector":"Concon","tipo":"Vía de Evacuación","cine_reg":"05","cine_prov":"051","cine_com":"05103","Shape__Length":0.0022483426078548905}},{"type":"Feature","id":419,"geometry":{"type":"LineString","coordinates":[[-71.53154,-32.929532],[-71.531027,-32.930155]]},"properties":{"OBJECTID":419,"name":"05103VE019","nom_reg":"Valparaíso","nom_prov":"Valparaíso","nom_com":"Concón","nombre_ve":" ","sector":"Concon","tipo":"Vía de Evacuación","cine_reg":"05","cine_prov":"051","cine_com":"05103","Shape__Length":0.0008065296867269708}},{"type":"Feature","id":420,"geometry":{"type":"LineString","coordinates":[[-71.533328,-32.930682],[-71.533024,-32.930582],[-71.53203,-32.930075],[-71.531898,-32.93003],[-71.531767,-32.930033],[-71.531656,-32.930043],[-71.531461,-32.930079],[-71.531312,-32.930113],[-71.531045,-32.930194],[-71.530899,-32.930292],[-71.53078,-32.930399],[-71.531088,-32.930947],[-71.53134,-32.931397]]},"properties":{"OBJECTID":420,"name":"05103VE032","nom_reg":"Valparaíso","nom_prov":"Valparaíso","nom_com":"Concón","nombre_ve":" ","sector":"Concon","tipo":"Vía de Evacuación","cine_reg":"05","cine_prov":"051","cine_com":"05103","Shape__Length":0.003927730157486814}},{"type":"Feature","id":426,"geometry":{"type":"LineString","coordinates":[[-71.536378,-32.931198],[-71.536343,-32.931303],[-71.536272,-32.931378],[-71.536076,-32.93148],[-71.535869,-32.93152],[-71.535677,-32.931533],[-71.535369,-32.931486],[-71.535304,-32.931476],[-71.534957,-32.931424],[-71.534798,-32.931396],[-71.534657,-32.931375],[-71.534554,-32.931377],[-71.534461,-32.931387],[-71.53436,-32.93142],[-71.534277,-32.931477],[-71.534216,-32.931516],[-71.534176,-32.931542],[-71.534037,-32.931644],[-71.53383,-32.931687],[-71.533556,-32.931707],[-71.53316,-32.931727]]},"properties":{"OBJECTID":426,"name":"05103VE003","nom_reg":"Valparaíso","nom_prov":"Valparaíso","nom_com":"Concón","nombre_ve":" ","sector":"Concon","tipo":"Vía de Evacuación","cine_reg":"05","cine_prov":"051","cine_com":"05103","Shape__Length":0.003449240902285816}},{"type":"Feature","id":427,"geometry":{"type":"LineString","coordinates":[[-71.536687,-32.931152],[-71.536713,-32.931554],[-71.536718,-32.931628],[-71.536746,-32.932065]]},"properties":{"OBJECTID":427,"name":"05103VE016","nom_reg":"Valparaíso","nom_prov":"Valparaíso","nom_com":"Concón","nombre_ve":" ","sector":"Concon","tipo":"Vía de Evacuación","cine_reg":"05","cine_prov":"051","cine_com":"05103","Shape__Length":0.0009152152876270279}},{"type":"Feature","id":1688,"geometry":{"type":"LineString","coordinates":[[-71.590431,-33.032909],[-71.588832,-33.033991],[-71.588652,-33.034105],[-71.588643,-33.034251],[-71.588642,-33.034309],[-71.588643,-33.034359],[-71.588648,-33.034403],[-71.588661,-33.034487],[-71.588712,-33.034749],[-71.588716,-33.034765],[-71.588746,-33.034921],[-71.588748,-33.034977],[-71.588749,-33.035015],[-71.58874,-33.035054],[-71.588716,-33.035107],[-71.588552,-33.03536],[-71.588479,-33.035487],[-71.587933,-33.036433],[-71.587493,-33.03723],[-71.587232,-33.037703],[-71.587024,-33.038038],[-71.586958,-33.03811],[-71.586877,-33.038175],[-71.586834,-33.038209],[-71.58677,-33.038251],[-71.586702,-33.038296],[-71.586642,-33.03834],[-71.586589,-33.038378],[-71.58656,-33.038411],[-71.586543,-33.038435],[-71.586529,-33.038456],[-71.586528,-33.038473],[-71.586538,-33.03849],[-71.586556,-33.03851],[-71.586571,-33.038527],[-71.586587,-33.038544],[-71.586617,-33.03857],[-71.586667,-33.038603],[-71.586817,-33.038702]]},"properties":{"OBJECTID":1688,"name":"05101VE017","nom_reg":"Valparaíso","nom_prov":"Valparaíso","nom_com":"Valparaíso","nombre_ve":"AV.ESPAÑA/PELLÉ","sector":"Valparaíso","tipo":"Vía de Evacuación","cine_reg":"05","cine_prov":"051","cine_com":"05101","Shape__Length":0.007589325533315492}},{"type":"Feature","id":2194,"geometry":{"type":"LineString","coordinates":[[-71.589271,-33.034033],[-71.589422,-33.033989],[-71.589543,-33.033947],[-71.589642,-33.033915],[-71.589737,-33.03389],[-71.589787,-33.033846],[-71.589851,-33.033773],[-71.590161,-33.033388],[-71.590202,-33.033364],[-71.590244,-33.033323],[-71.59027,-33.0333],[-71.590304,-33.033291],[-71.590341,-33.033279],[-71.590398,-33.033275],[-71.59046,-33.033278],[-71.590558,-33.033307],[-71.59071,-33.033381],[-71.590733,-33.033395],[-71.590786,-33.03342],[-71.590841,-33.033451],[-71.59088,-33.033485],[-71.590881,-33.033488],[-71.590897,-33.033534],[-71.590922,-33.033582],[-71.590942,-33.033744],[-71.590959,-33.033856],[-71.59096,-33.033907],[-71.590946,-33.034012],[-71.590928,-33.034092],[-71.590851,-33.034201],[-71.590728,-33.034375],[-71.590622,-33.034513],[-71.59057,-33.034575],[-71.590552,-33.03463],[-71.590543,-33.034687],[-71.590547,-33.034733],[-71.590562,-33.034798],[-71.590593,-33.034891],[-71.590625,-33.034954],[-71.590655,-33.035012],[-71.59068,-33.035059],[-71.590721,-33.035135]]},"properties":{"OBJECTID":2194,"name":"05101VE018","nom_reg":"Valparaíso","nom_prov":"Valparaíso","nom_com":"Valparaíso","nombre_ve":"AV.ESPAÑA/PELLÉ","sector":"Valparaíso","tipo":"Vía de Evacuación","cine_reg":"05","cine_prov":"051","cine_com":"05101","Shape__Length":0.003775853542321167}},{"type":"Feature","id":2208,"geometry":{"type":"LineString","coordinates":[[-71.588841,-33.033153],[-71.588557,-33.032947],[-71.588373,-33.032785],[-71.588279,-33.032585],[-71.588201,-33.032412],[-71.58808,-33.032279],[-71.588045,-33.03224],[-71.587861,-33.032167],[-71.587694,-33.032084],[-71.587527,-33.032067],[-71.587354,-33.032145],[-71.587171,-33.032334],[-71.587065,-33.032446],[-71.587098,-33.03254],[-71.587343,-33.032819]]},"properties":{"OBJECTID":2208,"name":"05101VE055","nom_reg":"Valparaíso","nom_prov":"Valparaíso","nom_com":"Valparaíso","nombre_ve":null,"sector":"Valparaíso","tipo":"Vía de Evacuación","cine_reg":"05","cine_prov":"051","cine_com":"05101","Shape__Length":0.0028692108654484695}},{"type":"Feature","id":2210,"geometry":{"type":"LineString","coordinates":[[-71.589211,-33.032064],[-71.589097,-33.032137],[-71.588955,-33.032164],[-71.588717,-33.032177],[-71.58864,-33.032197],[-71.588577,-33.032257],[-71.588522,-33.03231],[-71.588379,-33.032473]]},"properties":{"OBJECTID":2210,"name":"05101VE024","nom_reg":"Valparaíso","nom_prov":"Valparaíso","nom_com":"Valparaíso","nombre_ve":"AV.ESPAÑA/PELLÉ","sector":"Valparaíso","tipo":"Vía de Evacuación","cine_reg":"05","cine_prov":"051","cine_com":"05101","Shape__Length":0.000978654372929435}},{"type":"Feature","id":2212,"geometry":{"type":"LineString","coordinates":[[-71.597546,-33.03866],[-71.597431,-33.038684],[-71.597295,-33.038664],[-71.597192,-33.038617],[-71.597137,-33.038592],[-71.596994,-33.038552],[-71.596834,-33.038572],[-71.596652,-33.038614],[-71.596535,-33.038676],[-71.596407,-33.038817],[-71.596335,-33.038923],[-71.596271,-33.039047],[-71.596211,-33.039109],[-71.596166,-33.039151],[-71.596034,-33.039131],[-71.595788,-33.039033]]},"properties":{"OBJECTID":2212,"name":"05101VE054","nom_reg":"Valparaíso","nom_prov":"Valparaíso","nom_com":"Valparaíso","nombre_ve":null,"sector":"Valparaíso","tipo":"Vía de Evacuación","cine_reg":"05","cine_prov":"051","cine_com":"05101","Shape__Length":0.002062044065631853}},{"type":"Feature","id":2214,"geometry":{"type":"LineString","coordinates":[[-71.598374,-33.035998],[-71.598252,-33.035902],[-71.598076,-33.035728],[-71.597935,-33.035527],[-71.597753,-33.035454],[-71.597596,-33.035425],[-71.597488,-33.035439],[-71.597273,-33.035526],[-71.597053,-33.035629],[-71.596849,-33.035701],[-71.596779,-33.035721],[-71.596749,-33.035729],[-71.596635,-33.035741],[-71.59644,-33.035738],[-71.596218,-33.035759],[-71.596121,-33.035782],[-71.596036,-33.035961],[-71.595947,-33.036164],[-71.595466,-33.036543],[-71.595322,-33.036739],[-71.595985,-33.03699]]},"properties":{"OBJECTID":2214,"name":"05101VE053","nom_reg":"Valparaíso","nom_prov":"Valparaíso","nom_com":"Valparaíso","nombre_ve":"AV.ESPAÑA/SBDA","sector":"Valparaíso","tipo":"Vía de Evacuación","cine_reg":"05","cine_prov":"051","cine_com":"05101","Shape__Length":0.004525307910242291}},{"type":"Feature","id":2216,"geometry":{"type":"LineString","coordinates":[[-71.598242,-33.036741],[-71.597782,-33.038009],[-71.59767,-33.038238],[-71.597663,-33.03833],[-71.597659,-33.038392],[-71.597656,-33.038451],[-71.597658,-33.038465],[-71.597668,-33.038556],[-71.597616,-33.038566],[-71.597567,-33.038542],[-71.597518,-33.038458],[-71.597494,-33.038373],[-71.597481,-33.03833],[-71.597443,-33.038201],[-71.597378,-33.037972],[-71.597318,-33.037786],[-71.597214,-33.03764],[-71.597117,-33.03752],[-71.596917,-33.037339],[-71.596784,-33.037256],[-71.59657,-33.037188],[-71.596229,-33.037086]]},"properties":{"OBJECTID":2216,"name":"05101VE052","nom_reg":"Valparaíso","nom_prov":"Valparaíso","nom_com":"Valparaíso","nombre_ve":"AV.ESP/AMALIA P","sector":"Valparaíso","tipo":"Vía de Evacuación","cine_reg":"05","cine_prov":"051","cine_com":"05101","Shape__Length":0.004168146622516597}},{"type":"Feature","id":2218,"geometry":{"type":"LineString","coordinates":[[-71.598575,-33.037843],[-71.599846,-33.038308],[-71.600248,-33.038458],[-71.600474,-33.038522],[-71.600648,-33.038506],[-71.600805,-33.03844],[-71.600965,-33.038362],[-71.600976,-33.038357],[-71.601139,-33.038315],[-71.601187,-33.038316],[-71.60132,-33.038321],[-71.601529,-33.038405],[-71.601706,-33.038505],[-71.602006,-33.038673],[-71.602185,-33.038809],[-71.602324,-33.038941],[-71.602544,-33.039162],[-71.602737,-33.039433],[-71.602919,-33.039682],[-71.603042,-33.039967],[-71.603083,-33.040134],[-71.603162,-33.040277],[-71.603217,-33.040453],[-71.603268,-33.040617],[-71.603308,-33.040749],[-71.603455,-33.040998],[-71.603626,-33.041224],[-71.603748,-33.041406],[-71.603859,-33.041669],[-71.603921,-33.041819]]},"properties":{"OBJECTID":2218,"name":"05101VE051","nom_reg":"Valparaíso","nom_prov":"Valparaíso","nom_com":"Valparaíso","nombre_ve":"AV.ESP/AMALIA P","sector":"Valparaíso","tipo":"Vía de Evacuación","cine_reg":"05","cine_prov":"051","cine_com":"05101","Shape__Length":0.007423391006281743}},{"type":"Feature","id":2228,"geometry":{"type":"LineString","coordinates":[[-71.602175,-33.051133],[-71.602062,-33.051126],[-71.600941,-33.051113],[-71.600682,-33.051078],[-71.600465,-33.051025],[-71.600255,-33.050981],[-71.600244,-33.050978],[-71.600227,-33.050971],[-71.600185,-33.050954],[-71.600123,-33.050939],[-71.600035,-33.050917],[-71.599756,-33.050834]]},"properties":{"OBJECTID":2228,"name":"05101VE013","nom_reg":"Valparaíso","nom_prov":"Valparaíso","nom_com":"Valparaíso","nombre_ve":"AV.ARGENTINA/SI","sector":"Valparaíso","tipo":"Vía de Evacuación","cine_reg":"05","cine_prov":"051","cine_com":"05101","Shape__Length":0.0024540296444932343}},{"type":"Feature","id":2230,"geometry":{"type":"LineString","coordinates":[[-71.601809,-33.052853],[-71.601456,-33.053388],[-71.601377,-33.053538],[-71.601157,-33.05396],[-71.601055,-33.054067],[-71.60099,-33.054101],[-71.600905,-33.054103],[-71.60087,-33.054081],[-71.600849,-33.05405],[-71.600844,-33.054027],[-71.600843,-33.053996],[-71.600847,-33.05396],[-71.600863,-33.053914],[-71.60091,-33.053809],[-71.600937,-33.053746],[-71.600943,-33.053701],[-71.600934,-33.05366],[-71.600924,-33.053629],[-71.600918,-33.05362],[-71.600891,-33.05358],[-71.600844,-33.053536],[-71.600785,-33.05351],[-71.600719,-33.053498],[-71.600401,-33.0535],[-71.600362,-33.053501],[-71.600263,-33.053503],[-71.600155,-33.053501],[-71.600068,-33.053495],[-71.599956,-33.053482],[-71.599892,-33.05346]]},"properties":{"OBJECTID":2230,"name":"05101VE008","nom_reg":"Valparaíso","nom_prov":"Valparaíso","nom_com":"Valparaíso","nombre_ve":"AV. ARGENTINA/W","sector":"Valparaíso","tipo":"Vía de Evacuación","cine_reg":"05","cine_prov":"051","cine_com":"05101","Shape__Length":0.0032014662025137675}},{"type":"Feature","id":2244,"geometry":{"type":"LineString","coordinates":[[-71.586242,-33.028833],[-71.585986,-33.028904],[-71.585902,-33.028927],[-71.585605,-33.02904],[-71.585403,-33.029135],[-71.585256,-33.029273],[-71.585146,-33.029417],[-71.585076,-33.029532],[-71.585008,-33.029666],[-71.584852,-33.029974],[-71.584551,-33.030474],[-71.584542,-33.03049],[-71.584453,-33.030648]]},"properties":{"OBJECTID":2244,"name":"05109VE039","nom_reg":"Valparaíso","nom_prov":"Valparaíso","nom_com":"Viña del Mar","nombre_ve":" ","sector":"Viña del Mar","tipo":"Vía de Evacuación","cine_reg":"05","cine_prov":"051","cine_com":"05109","Shape__Length":0.002690420745509203}},{"type":"Feature","id":2246,"geometry":{"type":"LineString","coordinates":[[-71.55045,-33.007817],[-71.542241,-33.008969],[-71.541838,-33.009097],[-71.541224,-33.009172],[-71.541172,-33.008937],[-71.541296,-33.008541],[-71.54161,-33.008052],[-71.541823,-33.007797],[-71.541872,-33.007738],[-71.541836,-33.00766],[-71.541783,-33.007665],[-71.541664,-33.007676]]},"properties":{"OBJECTID":2246,"name":"05109VE103","nom_reg":"Valparaíso","nom_prov":"Valparaíso","nom_com":"Viña del Mar","nombre_ve":"15 norte - sta.","sector":"Viña del Mar","tipo":"Vía de Evacuación","cine_reg":"05","cine_prov":"051","cine_com":"05109","Shape__Length":0.011235606468975408}},{"type":"Feature","id":2248,"geometry":{"type":"LineString","coordinates":[[-71.575598,-33.027643],[-71.575621,-33.027888],[-71.575646,-33.028278],[-71.575649,-33.02832]]},"properties":{"OBJECTID":2248,"name":"05109VE102","nom_reg":"Valparaíso","nom_prov":"Valparaíso","nom_com":"Viña del Mar","nombre_ve":null,"sector":"Recreo","tipo":"Vía de Evacuación","cine_reg":"05","cine_prov":"051","cine_com":"05109","Shape__Length":0.000679586027325934}},{"type":"Feature","id":2250,"geometry":{"type":"LineString","coordinates":[[-71.545102,-32.971121],[-71.544271,-32.971152],[-71.544298,-32.971485],[-71.543728,-32.971633],[-71.543778,-32.971792],[-71.542637,-32.9717],[-71.541425,-32.971581],[-71.539449,-32.971447],[-71.539217,-32.971384],[-71.5391,-32.971352],[-71.539094,-32.97134],[-71.539037,-32.971219],[-71.539073,-32.970775]]},"properties":{"OBJECTID":2250,"name":"05109VE040","nom_reg":"Valparaíso","nom_prov":"Valparaíso","nom_com":"Viña del Mar","nombre_ve":" ","sector":"Viña del Mar","tipo":"Vía de Evacuación","cine_reg":"05","cine_prov":"051","cine_com":"05109","Shape__Length":0.0072204791893323555}},{"type":"Feature","id":2252,"geometry":{"type":"LineString","coordinates":[[-71.546358,-32.963595],[-71.546304,-32.963511],[-71.546239,-32.96343],[-71.54623,-32.9633],[-71.546239,-32.963144],[-71.546261,-32.963003],[-71.546288,-32.962872],[-71.546332,-32.962704],[-71.546439,-32.96216],[-71.546533,-32.961455],[-71.546536,-32.96131],[-71.546542,-32.961043],[-71.546585,-32.960742],[-71.546628,-32.96051],[-71.54674,-32.960183]]},"properties":{"OBJECTID":2252,"name":"05109VE101","nom_reg":"Valparaíso","nom_prov":"Valparaíso","nom_com":"Viña del Mar","nombre_ve":"Ruta El Encanto","sector":"Viña del Mar","tipo":"Vía de Evacuación","cine_reg":"05","cine_prov":"051","cine_com":"05109","Shape__Length":0.0035032097184968256}},{"type":"Feature","id":2254,"geometry":{"type":"LineString","coordinates":[[-71.544032,-32.97323],[-71.534806,-32.972491],[-71.534541,-32.974253],[-71.534637,-32.974738],[-71.534237,-32.974183],[-71.533879,-32.974026],[-71.533824,-32.97398],[-71.533822,-32.973979],[-71.533615,-32.973804],[-71.533506,-32.973453],[-71.533204,-32.973412],[-71.532908,-32.973487],[-71.532705,-32.973752],[-71.532647,-32.974195],[-71.532675,-32.975049]]},"properties":{"OBJECTID":2254,"name":"05109VE042","nom_reg":"Valparaíso","nom_prov":"Valparaíso","nom_com":"Viña del Mar","nombre_ve":" ","sector":"Viña del Mar","tipo":"Vía de Evacuación","cine_reg":"05","cine_prov":"051","cine_com":"05109","Shape__Length":0.015564346484346413}},{"type":"Feature","id":2256,"geometry":{"type":"LineString","coordinates":[[-71.534994,-32.975047],[-71.53521,-32.975051],[-71.535347,-32.97503],[-71.535544,-32.974846],[-71.535691,-32.974746],[-71.535891,-32.974662]]},"properties":{"OBJECTID":2256,"name":"05109VE100","nom_reg":"Valparaíso","nom_prov":"Valparaíso","nom_com":"Viña del Mar","nombre_ve":" ","sector":"Viña del Mar","tipo":"Vía de Evacuación","cine_reg":"05","cine_prov":"051","cine_com":"05109","Shape__Length":0.001019617456288611}},{"type":"Feature","id":2258,"geometry":{"type":"LineString","coordinates":[[-71.545746,-32.979013],[-71.54552,-32.978878],[-71.545363,-32.978699],[-71.545309,-32.978555],[-71.545284,-32.978147],[-71.545283,-32.977262],[-71.545289,-32.977216],[-71.545431,-32.976081],[-71.54546,-32.975298],[-71.545313,-32.974914],[-71.545165,-32.974722],[-71.54456,-32.974501],[-71.544146,-32.974353],[-71.543901,-32.974271],[-71.54388,-32.974264]]},"properties":{"OBJECTID":2258,"name":"05109VE056","nom_reg":"Valparaíso","nom_prov":"Valparaíso","nom_com":"Viña del Mar","nombre_ve":" ","sector":"Viña del Mar","tipo":"Vía de Evacuación","cine_reg":"05","cine_prov":"051","cine_com":"05109","Shape__Length":0.005940195890273203}},{"type":"Feature","id":2260,"geometry":{"type":"LineString","coordinates":[[-71.564133,-33.019485],[-71.564486,-33.019517],[-71.564583,-33.019569],[-71.564646,-33.019673],[-71.564798,-33.019955],[-71.564904,-33.020241],[-71.564913,-33.02046],[-71.564823,-33.020565],[-71.564789,-33.020648],[-71.564761,-33.020745],[-71.564754,-33.020768],[-71.564756,-33.020772],[-71.564797,-33.020871],[-71.564995,-33.020897],[-71.565107,-33.020914],[-71.565123,-33.020919],[-71.565206,-33.020944],[-71.565279,-33.020966],[-71.565408,-33.021043],[-71.565518,-33.02108],[-71.565537,-33.021086],[-71.565623,-33.021129],[-71.565657,-33.021189],[-71.565726,-33.02143],[-71.565949,-33.022444],[-71.566027,-33.02276]]},"properties":{"OBJECTID":2260,"name":"05109VE099","nom_reg":"Valparaíso","nom_prov":"Valparaíso","nom_com":"Viña del Mar","nombre_ve":"castillo wolf -","sector":"Viña del Mar","tipo":"Vía de Evacuación","cine_reg":"05","cine_prov":"051","cine_com":"05109","Shape__Length":0.004454052138041066}},{"type":"Feature","id":2262,"geometry":{"type":"LineString","coordinates":[[-71.529088,-33.029173],[-71.529193,-33.028394],[-71.529164,-33.028224],[-71.529118,-33.028085],[-71.529098,-33.028024]]},"properties":{"OBJECTID":2262,"name":"05109VE098","nom_reg":"Valparaíso","nom_prov":"Valparaíso","nom_com":"Viña del Mar","nombre_ve":null,"sector":"Viña del Mar","tipo":"Vía de Evacuación","cine_reg":"05","cine_prov":"051","cine_com":"05109","Shape__Length":0.001168596276711753}},{"type":"Feature","id":2264,"geometry":{"type":"LineString","coordinates":[[-71.530693,-33.031289],[-71.529516,-33.030046],[-71.528709,-33.029135],[-71.528424,-33.028831],[-71.52831,-33.028603],[-71.52831,-33.02829],[-71.528488,-33.028138],[-71.528576,-33.028062]]},"properties":{"OBJECTID":2264,"name":"05109VE097","nom_reg":"Valparaíso","nom_prov":"Valparaíso","nom_com":"Viña del Mar","nombre_ve":null,"sector":"Viña del Mar","tipo":"Vía de Evacuación","cine_reg":"05","cine_prov":"051","cine_com":"05109","Shape__Length":0.004263419086657885}},{"type":"Feature","id":2266,"geometry":{"type":"LineString","coordinates":[[-71.528576,-33.030207],[-71.528244,-33.029913],[-71.527874,-33.029647],[-71.527522,-33.029486],[-71.527133,-33.029401],[-71.526895,-33.029346],[-71.526801,-33.029325]]},"properties":{"OBJECTID":2266,"name":"05109VE096","nom_reg":"Valparaíso","nom_prov":"Valparaíso","nom_com":"Viña del Mar","nombre_ve":null,"sector":"Viña del Mar","tipo":"Vía de Evacuación","cine_reg":"05","cine_prov":"051","cine_com":"05109","Shape__Length":0.002025155609731821}},{"type":"Feature","id":2268,"geometry":{"type":"LineString","coordinates":[[-71.529781,-33.032599],[-71.528585,-33.031337],[-71.527171,-33.029866],[-71.526756,-33.029393],[-71.526697,-33.029325],[-71.526488,-33.029401],[-71.526288,-33.029543]]},"properties":{"OBJECTID":2268,"name":"05109VE095","nom_reg":"Valparaíso","nom_prov":"Valparaíso","nom_com":"Viña del Mar","nombre_ve":null,"sector":"Viña del Mar","tipo":"Vía de Evacuación","cine_reg":"05","cine_prov":"051","cine_com":"05109","Shape__Length":0.0049664768285419165}},{"type":"Feature","id":2270,"geometry":{"type":"LineString","coordinates":[[-71.526649,-33.034555],[-71.525928,-33.033776],[-71.525501,-33.033406],[-71.524713,-33.033159],[-71.523232,-33.032457],[-71.521846,-33.031906],[-71.521734,-33.031838],[-71.521675,-33.031802],[-71.521419,-33.031498]]},"properties":{"OBJECTID":2270,"name":"05109VE094","nom_reg":"Valparaíso","nom_prov":"Valparaíso","nom_com":"Viña del Mar","nombre_ve":null,"sector":"Viña del Mar","tipo":"Vía de Evacuación","cine_reg":"05","cine_prov":"051","cine_com":"05109","Shape__Length":0.006179546639454805}},{"type":"Feature","id":2272,"geometry":{"type":"LineString","coordinates":[[-71.528268,-33.035883],[-71.527999,-33.036031],[-71.527937,-33.036108],[-71.527961,-33.036384],[-71.527902,-33.036447],[-71.52784,-33.036454],[-71.527708,-33.036419],[-71.527642,-33.036447],[-71.527661,-33.036532],[-71.527737,-33.036717],[-71.527844,-33.036975]]},"properties":{"OBJECTID":2272,"name":"05109VE093","nom_reg":"Valparaíso","nom_prov":"Valparaíso","nom_com":"Viña del Mar","nombre_ve":null,"sector":"Viña del Mar","tipo":"Vía de Evacuación","cine_reg":"05","cine_prov":"051","cine_com":"05109","Shape__Length":0.0016061106403359947}},{"type":"Feature","id":2274,"geometry":{"type":"LineString","coordinates":[[-71.531546,-33.034555],[-71.531971,-33.03532],[-71.53239,-33.036061],[-71.532411,-33.036141],[-71.532414,-33.036153],[-71.532402,-33.036163],[-71.53236,-33.036201],[-71.532366,-33.036222],[-71.532481,-33.036626]]},"properties":{"OBJECTID":2274,"name":"05109VE092","nom_reg":"Valparaíso","nom_prov":"Valparaíso","nom_com":"Viña del Mar","nombre_ve":null,"sector":"Viña del Mar","tipo":"Vía de Evacuación","cine_reg":"05","cine_prov":"051","cine_com":"05109","Shape__Length":0.0023367086370995726}},{"type":"Feature","id":2276,"geometry":{"type":"LineString","coordinates":[[-71.533617,-33.03283],[-71.534638,-33.033419],[-71.534753,-33.033522],[-71.534832,-33.033632],[-71.5353,-33.034543],[-71.535713,-33.03529],[-71.535962,-33.035521],[-71.535919,-33.035642],[-71.536023,-33.035897],[-71.536034,-33.035929],[-71.536077,-33.036055]]},"properties":{"OBJECTID":2276,"name":"05109VE091","nom_reg":"Valparaíso","nom_prov":"Valparaíso","nom_com":"Viña del Mar","nombre_ve":null,"sector":"Viña del Mar","tipo":"Vía de Evacuación","cine_reg":"05","cine_prov":"051","cine_com":"05109","Shape__Length":0.0042568650185200625}},{"type":"Feature","id":2278,"geometry":{"type":"LineString","coordinates":[[-71.534278,-33.031994],[-71.53544,-33.032671],[-71.535819,-33.032877],[-71.536023,-33.03293],[-71.536316,-33.032955],[-71.536572,-33.03294],[-71.536784,-33.032902],[-71.537336,-33.032805],[-71.537451,-33.03279]]},"properties":{"OBJECTID":2278,"name":"05109VE090","nom_reg":"Valparaíso","nom_prov":"Valparaíso","nom_com":"Viña del Mar","nombre_ve":null,"sector":"Viña del Mar","tipo":"Vía de Evacuación","cine_reg":"05","cine_prov":"051","cine_com":"05109","Shape__Length":0.0034286241556693207}},{"type":"Feature","id":2280,"geometry":{"type":"LineString","coordinates":[[-71.536047,-33.03077],[-71.536043,-33.030842],[-71.535833,-33.031287],[-71.535829,-33.031367],[-71.535868,-33.031444],[-71.535928,-33.031529],[-71.535945,-33.031554],[-71.53598,-33.031618],[-71.535921,-33.031768],[-71.535821,-33.031875],[-71.535717,-33.032064],[-71.535714,-33.032206],[-71.535776,-33.032285],[-71.535881,-33.03235],[-71.535998,-33.032357],[-71.536164,-33.032332],[-71.536366,-33.032288],[-71.536533,-33.032238],[-71.536737,-33.032206],[-71.536896,-33.032206]]},"properties":{"OBJECTID":2280,"name":"05109VE089","nom_reg":"Valparaíso","nom_prov":"Valparaíso","nom_com":"Viña del Mar","nombre_ve":null,"sector":"Viña del Mar","tipo":"Vía de Evacuación","cine_reg":"05","cine_prov":"051","cine_com":"05109","Shape__Length":0.0028590466202572003}},{"type":"Feature","id":2282,"geometry":{"type":"LineString","coordinates":[[-71.539509,-33.026779],[-71.540231,-33.027489],[-71.541362,-33.028166],[-71.541421,-33.028256],[-71.541836,-33.028423],[-71.54233,-33.028548],[-71.542575,-33.028557],[-71.543202,-33.028365]]},"properties":{"OBJECTID":2282,"name":"05109VE088","nom_reg":"Valparaíso","nom_prov":"Valparaíso","nom_com":"Viña del Mar","nombre_ve":null,"sector":"Viña del Mar","tipo":"Vía de Evacuación","cine_reg":"05","cine_prov":"051","cine_com":"05109","Shape__Length":0.004295760489065172}},{"type":"Feature","id":2284,"geometry":{"type":"LineString","coordinates":[[-71.544635,-33.031216],[-71.544477,-33.031332],[-71.544283,-33.031445],[-71.544202,-33.031504],[-71.544149,-33.03155],[-71.544023,-33.031814],[-71.543924,-33.032103],[-71.543821,-33.032482],[-71.543798,-33.032564]]},"properties":{"OBJECTID":2284,"name":"05109VE087","nom_reg":"Valparaíso","nom_prov":"Valparaíso","nom_com":"Viña del Mar","nombre_ve":null,"sector":"Viña del Mar","tipo":"Vía de Evacuación","cine_reg":"05","cine_prov":"051","cine_com":"05109","Shape__Length":0.0016667280916927308}},{"type":"Feature","id":2286,"geometry":{"type":"LineString","coordinates":[[-71.547221,-33.027495],[-71.547381,-33.028016],[-71.547152,-33.028096],[-71.546724,-33.02818],[-71.546147,-33.028216],[-71.546003,-33.028268],[-71.545846,-33.0284],[-71.54584,-33.028406],[-71.545643,-33.028572],[-71.545101,-33.028884],[-71.544909,-33.028945],[-71.544864,-33.029],[-71.54484,-33.029106],[-71.544917,-33.029161]]},"properties":{"OBJECTID":2286,"name":"05109VE086","nom_reg":"Valparaíso","nom_prov":"Valparaíso","nom_com":"Viña del Mar","nombre_ve":"quillota c/ sub","sector":"Viña del Mar","tipo":"Vía de Evacuación","cine_reg":"05","cine_prov":"051","cine_com":"05109","Shape__Length":0.0035273286963169656}},{"type":"Feature","id":2288,"geometry":{"type":"LineString","coordinates":[[-71.542139,-33.025552],[-71.542473,-33.026461],[-71.543257,-33.02842],[-71.543377,-33.02884],[-71.543663,-33.02953],[-71.543866,-33.029973],[-71.544038,-33.030732],[-71.544549,-33.030945],[-71.54468,-33.031009],[-71.544721,-33.031],[-71.544743,-33.030953],[-71.544679,-33.030914],[-71.544235,-33.030542],[-71.54422,-33.030465],[-71.544291,-33.030443],[-71.544371,-33.03044],[-71.544559,-33.030519],[-71.544664,-33.030506],[-71.544739,-33.030435],[-71.544925,-33.030256]]},"properties":{"OBJECTID":2288,"name":"05109VE085","nom_reg":"Valparaíso","nom_prov":"Valparaíso","nom_com":"Viña del Mar","nombre_ve":"mercado - simon","sector":"Viña del Mar","tipo":"Vía de Evacuación","cine_reg":"05","cine_prov":"051","cine_com":"05109","Shape__Length":0.007879298733697969}},{"type":"Feature","id":2290,"geometry":{"type":"LineString","coordinates":[[-71.551756,-33.023513],[-71.552004,-33.023874],[-71.552163,-33.023998],[-71.552309,-33.024037],[-71.552413,-33.024211],[-71.552495,-33.024573],[-71.552567,-33.024769],[-71.552433,-33.024906],[-71.552284,-33.025032],[-71.552502,-33.026336],[-71.552144,-33.026481],[-71.55226,-33.027366],[-71.552483,-33.02744]]},"properties":{"OBJECTID":2290,"name":"05109VE084","nom_reg":"Valparaíso","nom_prov":"Valparaíso","nom_com":"Viña del Mar","nombre_ve":"Ruta Escenario","sector":"Viña del Mar","tipo":"Vía de Evacuación","cine_reg":"05","cine_prov":"051","cine_com":"05109","Shape__Length":0.004795899412040043}},{"type":"Feature","id":2292,"geometry":{"type":"LineString","coordinates":[[-71.553698,-33.023235],[-71.554521,-33.027219],[-71.552689,-33.027465],[-71.552597,-33.027502],[-71.55257,-33.027757],[-71.552758,-33.027918],[-71.552893,-33.028039],[-71.55296,-33.028187],[-71.55296,-33.028348],[-71.552973,-33.02859],[-71.552799,-33.028778],[-71.552557,-33.029033],[-71.552315,-33.029207],[-71.552087,-33.029194],[-71.552154,-33.029033],[-71.552275,-33.028831],[-71.552288,-33.028643],[-71.552241,-33.028643],[-71.552141,-33.028643],[-71.551657,-33.028952],[-71.5512,-33.029368]]},"properties":{"OBJECTID":2292,"name":"05109VE083","nom_reg":"Valparaíso","nom_prov":"Valparaíso","nom_com":"Viña del Mar","nombre_ve":"quinta - quinta","sector":"Viña del Mar","tipo":"Vía de Evacuación","cine_reg":"05","cine_prov":"051","cine_com":"05109","Shape__Length":0.010338276056752829}},{"type":"Feature","id":2294,"geometry":{"type":"LineString","coordinates":[[-71.562767,-33.024868],[-71.562924,-33.025585],[-71.562926,-33.026431],[-71.562758,-33.026998],[-71.562827,-33.027395],[-71.562922,-33.027739],[-71.562977,-33.027943]]},"properties":{"OBJECTID":2294,"name":"05109VE082","nom_reg":"Valparaíso","nom_prov":"Valparaíso","nom_com":"Viña del Mar","nombre_ve":" ","sector":"Viña del Mar","tipo":"Vía de Evacuación","cine_reg":"05","cine_prov":"051","cine_com":"05109","Shape__Length":0.003141452777200266}},{"type":"Feature","id":2295,"geometry":{"type":"LineString","coordinates":[[-71.561435,-33.024126],[-71.561554,-33.02489],[-71.561948,-33.026647],[-71.562091,-33.027441],[-71.562292,-33.027504],[-71.562745,-33.027447]]},"properties":{"OBJECTID":2295,"name":"05109VE081","nom_reg":"Valparaíso","nom_prov":"Valparaíso","nom_com":"Viña del Mar","nombre_ve":"von schroeders","sector":"Viña del Mar","tipo":"Vía de Evacuación","cine_reg":"05","cine_prov":"051","cine_com":"05109","Shape__Length":0.004048406676371381}},{"type":"Feature","id":2296,"geometry":{"type":"LineString","coordinates":[[-71.567269,-33.023592],[-71.567171,-33.023495],[-71.566701,-33.023678],[-71.566137,-33.023761],[-71.565501,-33.023815],[-71.564381,-33.023955],[-71.56388,-33.024017]]},"properties":{"OBJECTID":2296,"name":"05109VE080","nom_reg":"Valparaíso","nom_prov":"Valparaíso","nom_com":"Viña del Mar","nombre_ve":"reloj de flores","sector":"Viña del Mar","tipo":"Vía de Evacuación","cine_reg":"05","cine_prov":"051","cine_com":"05109","Shape__Length":0.003483279641242153}},{"type":"Feature","id":2297,"geometry":{"type":"LineString","coordinates":[[-71.560877,-33.021451],[-71.561105,-33.022522],[-71.561315,-33.023546],[-71.561351,-33.023663],[-71.562277,-33.023581],[-71.562528,-33.023753],[-71.562652,-33.024378],[-71.562698,-33.024476],[-71.562747,-33.024472],[-71.56264,-33.023875],[-71.562727,-33.02381],[-71.563177,-33.023728],[-71.563287,-33.023777],[-71.563274,-33.023983],[-71.563297,-33.024069],[-71.563384,-33.024051],[-71.563441,-33.02397],[-71.563445,-33.023964],[-71.563446,-33.023864],[-71.563425,-33.02378],[-71.563399,-33.023693],[-71.563311,-33.023556],[-71.563212,-33.023523],[-71.562888,-33.023512]]},"properties":{"OBJECTID":2297,"name":"05109VE079","nom_reg":"Valparaíso","nom_prov":"Valparaíso","nom_com":"Viña del Mar","nombre_ve":"vista hermosa c","sector":"Viña del Mar","tipo":"Vía de Evacuación","cine_reg":"05","cine_prov":"051","cine_com":"05109","Shape__Length":0.006941751563919645}},{"type":"Feature","id":2298,"geometry":{"type":"LineString","coordinates":[[-71.560098,-33.020214],[-71.551252,-33.021552],[-71.544876,-33.022476],[-71.542169,-33.022926],[-71.542158,-33.022927],[-71.541262,-33.020423],[-71.539885,-33.016686],[-71.538114,-33.015768],[-71.537196,-33.015243]]},"properties":{"OBJECTID":2298,"name":"05109VE078","nom_reg":"Valparaíso","nom_prov":"Valparaíso","nom_com":"Viña del Mar","nombre_ve":"2 norte - los c","sector":"Viña del Mar","tipo":"Vía de Evacuación","cine_reg":"05","cine_prov":"051","cine_com":"05109","Shape__Length":0.02783876008038923}},{"type":"Feature","id":2299,"geometry":{"type":"LineString","coordinates":[[-71.557087,-33.016423],[-71.550633,-33.017344],[-71.546367,-33.017992],[-71.546534,-33.018601],[-71.545179,-33.01857],[-71.543811,-33.018635],[-71.542276,-33.01836],[-71.540673,-33.018027]]},"properties":{"OBJECTID":2299,"name":"05109VE001","nom_reg":"Valparaíso","nom_prov":"Valparaíso","nom_com":"Viña del Mar","nombre_ve":"6 norte - sausa","sector":"Viña del Mar","tipo":"Vía de Evacuación","cine_reg":"05","cine_prov":"051","cine_com":"05109","Shape__Length":0.017385774205235155}},{"type":"Feature","id":2300,"geometry":{"type":"LineString","coordinates":[[-71.558872,-33.018277],[-71.550843,-33.019469],[-71.546939,-33.020049],[-71.546825,-33.019618],[-71.544343,-33.019961],[-71.541462,-33.020357]]},"properties":{"OBJECTID":2300,"name":"05109VE008","nom_reg":"Valparaíso","nom_prov":"Valparaíso","nom_com":"Viña del Mar","nombre_ve":"4 norte - los c","sector":"Viña del Mar","tipo":"Vía de Evacuación","cine_reg":"05","cine_prov":"051","cine_com":"05109","Shape__Length":0.017923578675682027}},{"type":"Feature","id":2301,"geometry":{"type":"LineString","coordinates":[[-71.555132,-33.014599],[-71.543283,-33.016318],[-71.542687,-33.014104],[-71.542507,-33.01344],[-71.540934,-33.012128],[-71.539932,-33.01097],[-71.539885,-33.010915],[-71.539786,-33.010292]]},"properties":{"OBJECTID":2301,"name":"05109VE077","nom_reg":"Valparaíso","nom_prov":"Valparaíso","nom_com":"Viña del Mar","nombre_ve":"8 norte - los c","sector":"Viña del Mar","tipo":"Vía de Evacuación","cine_reg":"05","cine_prov":"051","cine_com":"05109","Shape__Length":0.01923634826919845}},{"type":"Feature","id":2302,"geometry":{"type":"LineString","coordinates":[[-71.552344,-33.010747],[-71.549148,-33.011229],[-71.546618,-33.011581],[-71.545127,-33.011803],[-71.54295,-33.012122],[-71.541503,-33.012325]]},"properties":{"OBJECTID":2302,"name":"05109VE004","nom_reg":"Valparaíso","nom_prov":"Valparaíso","nom_com":"Viña del Mar","nombre_ve":"12 norte - los","sector":"Viña del Mar","tipo":"Vía de Evacuación","cine_reg":"05","cine_prov":"051","cine_com":"05109","Shape__Length":0.010955042407059079}},{"type":"Feature","id":2304,"geometry":{"type":"LineString","coordinates":[[-71.553629,-33.012682],[-71.543229,-33.014185],[-71.542801,-33.013757]]},"properties":{"OBJECTID":2304,"name":"05109VE076","nom_reg":"Valparaíso","nom_prov":"Valparaíso","nom_com":"Viña del Mar","nombre_ve":"10 norte - los","sector":"Viña del Mar","tipo":"Vía de Evacuación","cine_reg":"05","cine_prov":"051","cine_com":"05109","Shape__Length":0.011113087367508418}},{"type":"Feature","id":2306,"geometry":{"type":"LineString","coordinates":[[-71.547343,-32.995073],[-71.545988,-32.995361],[-71.545845,-32.995192],[-71.545262,-32.994689],[-71.543955,-32.995835],[-71.543925,-32.996051],[-71.544185,-32.996064],[-71.544461,-32.995939],[-71.54458,-32.995885],[-71.544913,-32.995929],[-71.545024,-32.99614],[-71.544962,-32.996244],[-71.544813,-32.996495],[-71.544669,-32.996784],[-71.544669,-32.997062],[-71.543967,-32.997185]]},"properties":{"OBJECTID":2306,"name":"05109VE075","nom_reg":"Valparaíso","nom_prov":"Valparaíso","nom_com":"Viña del Mar","nombre_ve":"Entrada Sur Clu","sector":"Viña del Mar","tipo":"Vía de Evacuación","cine_reg":"05","cine_prov":"051","cine_com":"05109","Shape__Length":0.0073291879893192515}},{"type":"Feature","id":2308,"geometry":{"type":"LineString","coordinates":[[-71.547102,-32.992279],[-71.546955,-32.990864],[-71.546506,-32.99005],[-71.546247,-32.989653],[-71.546015,-32.989119],[-71.545889,-32.988352],[-71.545859,-32.988172]]},"properties":{"OBJECTID":2308,"name":"05109VE074","nom_reg":"Valparaíso","nom_prov":"Valparaíso","nom_com":"Viña del Mar","nombre_ve":"Pobl. Naval","sector":"Viña del Mar","tipo":"Vía de Evacuación","cine_reg":"05","cine_prov":"051","cine_com":"05109","Shape__Length":0.0043680658630785955}},{"type":"Feature","id":2310,"geometry":{"type":"LineString","coordinates":[[-71.528759,-32.973239],[-71.52882,-32.973798],[-71.52882,-32.973901],[-71.528923,-32.973987],[-71.529017,-32.974107],[-71.529146,-32.974339],[-71.529241,-32.974513],[-71.529276,-32.974577],[-71.529314,-32.974855]]},"properties":{"OBJECTID":2310,"name":"05109VE073","nom_reg":"Valparaíso","nom_prov":"Valparaíso","nom_com":"Viña del Mar","nombre_ve":null,"sector":"Viña del Mar","tipo":"Vía de Evacuación","cine_reg":"05","cine_prov":"051","cine_com":"05109","Shape__Length":0.0017697998113144057}},{"type":"Feature","id":2312,"geometry":{"type":"LineString","coordinates":[[-71.54513,-32.972701],[-71.543934,-32.972815],[-71.540122,-32.972502],[-71.538253,-32.972357],[-71.536261,-32.972257],[-71.536306,-32.971943],[-71.536391,-32.97163],[-71.536222,-32.971368],[-71.535884,-32.971131],[-71.535748,-32.970759],[-71.535736,-32.970613],[-71.535716,-32.970374],[-71.535714,-32.970353],[-71.535342,-32.970014],[-71.534327,-32.969507],[-71.533684,-32.969168],[-71.533718,-32.96883],[-71.533955,-32.968593],[-71.534496,-32.968525],[-71.535726,-32.968597]]},"properties":{"OBJECTID":2312,"name":"05109VE072","nom_reg":"Valparaíso","nom_prov":"Valparaíso","nom_com":"Viña del Mar","nombre_ve":" ","sector":"Viña del Mar","tipo":"Vía de Evacuación","cine_reg":"05","cine_prov":"051","cine_com":"05109","Shape__Length":0.015882727136498676}},{"type":"Feature","id":2314,"geometry":{"type":"LineString","coordinates":[[-71.542816,-32.969577],[-71.542364,-32.969515],[-71.542205,-32.969493],[-71.541558,-32.969222],[-71.540974,-32.969004],[-71.540368,-32.969421],[-71.539483,-32.970093]]},"properties":{"OBJECTID":2314,"name":"05109VE071","nom_reg":"Valparaíso","nom_prov":"Valparaíso","nom_com":"Viña del Mar","nombre_ve":" ","sector":"Viña del Mar","tipo":"Vía de Evacuación","cine_reg":"05","cine_prov":"051","cine_com":"05109","Shape__Length":0.00378829088025706}},{"type":"Feature","id":2316,"geometry":{"type":"LineString","coordinates":[[-71.545732,-32.966698],[-71.545335,-32.968694],[-71.545165,-32.969293],[-71.544889,-32.969518],[-71.544032,-32.969951],[-71.543598,-32.970144],[-71.54342,-32.970148],[-71.543223,-32.970043],[-71.541832,-32.970241],[-71.541077,-32.970194],[-71.540665,-32.970275],[-71.540588,-32.970291]]},"properties":{"OBJECTID":2316,"name":"05109VE070","nom_reg":"Valparaíso","nom_prov":"Valparaíso","nom_com":"Viña del Mar","nombre_ve":" ","sector":"Viña del Mar","tipo":"Vía de Evacuación","cine_reg":"05","cine_prov":"051","cine_com":"05109","Shape__Length":0.007511073441110013}},{"type":"Feature","id":2318,"geometry":{"type":"LineString","coordinates":[[-71.566152,-33.024191],[-71.566205,-33.024266],[-71.566205,-33.024357],[-71.566092,-33.024417],[-71.565964,-33.024455],[-71.56585,-33.024508],[-71.565697,-33.024636],[-71.565669,-33.024659],[-71.56558,-33.02473]]},"properties":{"OBJECTID":2318,"name":"05109VE069","nom_reg":"Valparaíso","nom_prov":"Valparaíso","nom_com":"Viña del Mar","nombre_ve":null,"sector":"Viña del Mar","tipo":"Vía de Evacuación","cine_reg":"05","cine_prov":"051","cine_com":"05109","Shape__Length":0.0009196074511146909}},{"type":"Feature","id":2320,"geometry":{"type":"LineString","coordinates":[[-71.56721,-33.024153],[-71.567663,-33.0241],[-71.568192,-33.024107],[-71.56871,-33.024341],[-71.568728,-33.024349],[-71.569197,-33.024515],[-71.569321,-33.024573],[-71.569328,-33.024576],[-71.569914,-33.024848],[-71.5703,-33.025022],[-71.570451,-33.025225]]},"properties":{"OBJECTID":2320,"name":"05109VE068","nom_reg":"Valparaíso","nom_prov":"Valparaíso","nom_com":"Viña del Mar","nombre_ve":null,"sector":"Viña del Mar","tipo":"Vía de Evacuación","cine_reg":"05","cine_prov":"051","cine_com":"05109","Shape__Length":0.003537718815969513}},{"type":"Feature","id":2322,"geometry":{"type":"LineString","coordinates":[[-71.548732,-33.023913],[-71.54936,-33.026951],[-71.549358,-33.026951],[-71.550153,-33.029194],[-71.550564,-33.029447],[-71.550677,-33.029516]]},"properties":{"OBJECTID":2322,"name":"05109VE067","nom_reg":"Valparaíso","nom_prov":"Valparaíso","nom_com":"Viña del Mar","nombre_ve":"quillota c/ sub","sector":"Viña del Mar","tipo":"Vía de Evacuación","cine_reg":"05","cine_prov":"051","cine_com":"05109","Shape__Length":0.006097487735128367}},{"type":"Feature","id":2324,"geometry":{"type":"LineString","coordinates":[[-71.555216,-33.023003],[-71.555753,-33.025622],[-71.555914,-33.025998],[-71.556256,-33.027412],[-71.55629,-33.027555]]},"properties":{"OBJECTID":2324,"name":"05109VE066","nom_reg":"Valparaíso","nom_prov":"Valparaíso","nom_com":"Viña del Mar","nombre_ve":null,"sector":"Viña del Mar","tipo":"Vía de Evacuación","cine_reg":"05","cine_prov":"051","cine_com":"05109","Shape__Length":0.004684910861290112}},{"type":"Feature","id":2326,"geometry":{"type":"LineString","coordinates":[[-71.55946,-33.022076],[-71.560118,-33.025152],[-71.558963,-33.02534]]},"properties":{"OBJECTID":2326,"name":"05109VE065","nom_reg":"Valparaíso","nom_prov":"Valparaíso","nom_com":"Viña del Mar","nombre_ve":null,"sector":"Viña del Mar","tipo":"Vía de Evacuación","cine_reg":"05","cine_prov":"051","cine_com":"05109","Shape__Length":0.004315079002240865}},{"type":"Feature","id":2328,"geometry":{"type":"LineString","coordinates":[[-71.556644,-33.022585],[-71.557244,-33.025579],[-71.558346,-33.025421]]},"properties":{"OBJECTID":2328,"name":"05109VE064","nom_reg":"Valparaíso","nom_prov":"Valparaíso","nom_com":"Viña del Mar","nombre_ve":" ","sector":"Viña del Mar","tipo":"Vía de Evacuación","cine_reg":"05","cine_prov":"051","cine_com":"05109","Shape__Length":0.004167299980608373}},{"type":"Feature","id":2330,"geometry":{"type":"LineString","coordinates":[[-71.558151,-33.022481],[-71.55868,-33.025396],[-71.55872,-33.025518],[-71.559084,-33.027265],[-71.559139,-33.027462],[-71.559178,-33.027733],[-71.559631,-33.02794],[-71.559686,-33.027965],[-71.559835,-33.028],[-71.559815,-33.027941],[-71.559467,-33.027666],[-71.559436,-33.027641],[-71.559441,-33.02761],[-71.559465,-33.027458],[-71.559599,-33.027376],[-71.559978,-33.02738],[-71.56036,-33.027306]]},"properties":{"OBJECTID":2330,"name":"05109VE063","nom_reg":"Valparaíso","nom_prov":"Valparaíso","nom_com":"Viña del Mar","nombre_ve":"Traslaviña","sector":"Viña del Mar","tipo":"Vía de Evacuación","cine_reg":"05","cine_prov":"051","cine_com":"05109","Shape__Length":0.007721667422300006}},{"type":"Feature","id":2332,"geometry":{"type":"LineString","coordinates":[[-71.546738,-33.007774],[-71.546517,-33.007325],[-71.546477,-33.007018],[-71.546499,-33.006611],[-71.546481,-33.006266],[-71.546459,-33.006203],[-71.54637,-33.005948],[-71.546163,-33.005587],[-71.546073,-33.00543]]},"properties":{"OBJECTID":2332,"name":"05109VE062","nom_reg":"Valparaíso","nom_prov":"Valparaíso","nom_com":"Viña del Mar","nombre_ve":"15 norte - ales","sector":"Viña del Mar","tipo":"Vía de Evacuación","cine_reg":"05","cine_prov":"051","cine_com":"05109","Shape__Length":0.002497203221914638}},{"type":"Feature","id":2334,"geometry":{"type":"LineString","coordinates":[[-71.550137,-33.005148],[-71.549436,-33.00519],[-71.548254,-33.005169],[-71.547371,-33.005107],[-71.546979,-33.005126],[-71.546762,-33.005232],[-71.546782,-33.005464],[-71.546948,-33.005516],[-71.546997,-33.005531],[-71.547346,-33.005531]]},"properties":{"OBJECTID":2334,"name":"05109VE061","nom_reg":"Valparaíso","nom_prov":"Valparaíso","nom_com":"Viña del Mar","nombre_ve":"Nva. Libertad","sector":"Viña del Mar","tipo":"Vía de Evacuación","cine_reg":"05","cine_prov":"051","cine_com":"05109","Shape__Length":0.0042109082323673296}},{"type":"Feature","id":2338,"geometry":{"type":"LineString","coordinates":[[-71.532352,-32.970497],[-71.532257,-32.970325],[-71.532068,-32.970102],[-71.531939,-32.969938],[-71.531845,-32.96981],[-71.531699,-32.969732],[-71.531604,-32.969767],[-71.531484,-32.969853],[-71.531441,-32.970007],[-71.531381,-32.970162],[-71.5312,-32.970377],[-71.531089,-32.970454],[-71.530891,-32.970566],[-71.530624,-32.970669],[-71.530461,-32.970686],[-71.530421,-32.970692],[-71.530203,-32.970721],[-71.529902,-32.970712],[-71.529739,-32.970686],[-71.529473,-32.970557],[-71.529275,-32.970368]]},"properties":{"OBJECTID":2338,"name":"05109VE060","nom_reg":"Valparaíso","nom_prov":"Valparaíso","nom_com":"Viña del Mar","nombre_ve":null,"sector":"Viña del Mar","tipo":"Vía de Evacuación","cine_reg":"05","cine_prov":"051","cine_com":"05109","Shape__Length":0.00398662431920434}},{"type":"Feature","id":2340,"geometry":{"type":"LineString","coordinates":[[-71.531458,-32.9714],[-71.528691,-32.971941],[-71.526817,-32.972293],[-71.525777,-32.972517],[-71.5257,-32.972526],[-71.525639,-32.972483],[-71.525562,-32.972328],[-71.52499,-32.971288],[-71.524952,-32.971219],[-71.52423,-32.969801]]},"properties":{"OBJECTID":2340,"name":"05109VE059","nom_reg":"Valparaíso","nom_prov":"Valparaíso","nom_com":"Viña del Mar","nombre_ve":null,"sector":"Viña del Mar","tipo":"Vía de Evacuación","cine_reg":"05","cine_prov":"051","cine_com":"05109","Shape__Length":0.008971876127700854}},{"type":"Feature","id":2342,"geometry":{"type":"LineString","coordinates":[[-71.577387,-33.028059],[-71.577699,-33.028675],[-71.577738,-33.028771],[-71.577865,-33.029088]]},"properties":{"OBJECTID":2342,"name":"05109VE016","nom_reg":"Valparaíso","nom_prov":"Valparaíso","nom_com":"Viña del Mar","nombre_ve":"sub. 18 de sept","sector":"Viña del Mar","tipo":"Vía de Evacuación","cine_reg":"05","cine_prov":"051","cine_com":"05109","Shape__Length":0.001135385293955889}},{"type":"Feature","id":2344,"geometry":{"type":"LineString","coordinates":[[-71.551374,-33.008762],[-71.548676,-33.009158],[-71.54623,-33.009517],[-71.542547,-33.010057],[-71.541568,-33.010201],[-71.540499,-33.010358],[-71.540122,-33.011059]]},"properties":{"OBJECTID":2344,"name":"05109VE005","nom_reg":"Valparaíso","nom_prov":"Valparaíso","nom_com":"Viña del Mar","nombre_ve":"14 norte - sub.","sector":"Viña del Mar","tipo":"Vía de Evacuación","cine_reg":"05","cine_prov":"051","cine_com":"05109","Shape__Length":0.011788105972137655}},{"type":"Feature","id":2346,"geometry":{"type":"LineString","coordinates":[[-71.547797,-32.996479],[-71.546785,-32.996662],[-71.546901,-32.997239]]},"properties":{"OBJECTID":2346,"name":"05109VE043","nom_reg":"Valparaíso","nom_prov":"Valparaíso","nom_com":"Viña del Mar","nombre_ve":" ","sector":"Viña del Mar","tipo":"Vía de Evacuación","cine_reg":"05","cine_prov":"051","cine_com":"05109","Shape__Length":0.0016174711630130053}},{"type":"Feature","id":2348,"geometry":{"type":"LineString","coordinates":[[-71.546125,-32.964725],[-71.545714,-32.964674],[-71.545447,-32.964641],[-71.545283,-32.964621]]},"properties":{"OBJECTID":2348,"name":"05109VE057","nom_reg":"Valparaíso","nom_prov":"Valparaíso","nom_com":"Viña del Mar","nombre_ve":" ","sector":"Viña del Mar","tipo":"Vía de Evacuación","cine_reg":"05","cine_prov":"051","cine_com":"05109","Shape__Length":0.000848069630920047}},{"type":"Feature","id":2350,"geometry":{"type":"LineString","coordinates":[[-71.547923,-32.997139],[-71.546226,-32.997497],[-71.545539,-32.997285],[-71.545124,-32.997157],[-71.54478,-32.997051]]},"properties":{"OBJECTID":2350,"name":"05109VE022","nom_reg":"Valparaíso","nom_prov":"Valparaíso","nom_com":"Viña del Mar","nombre_ve":"Guardiamarina R","sector":"Viña del Mar","tipo":"Vía de Evacuación","cine_reg":"05","cine_prov":"051","cine_com":"05109","Shape__Length":0.0032474080315348787}}]}